<?xml version="1.0" encoding="UTF-8"?>
<gpx version="1.1" creator="CheerRunners Live" xmlns="http://www.topografix.com/GPX/1/1">
  <metadata><name>Melbourne Marathon Saturday 5k</name></metadata>
  <trk>
    <name>Melbourne Marathon Saturday 5k</name>
    <trkseg>
      <trkpt lat="-37.82079" lon="144.97611"/>
      <trkpt lat="-37.82064" lon="144.97611"/>
      <trkpt lat="-37.8199" lon="144.97617"/>
      <trkpt lat="-37.8196" lon="144.97614"/>
      <trkpt lat="-37.81945" lon="144.97611"/>
      <trkpt lat="-37.81935" lon="144.97608"/>
      <trkpt lat="-37.81924" lon="144.97604"/>
      <trkpt lat="-37.81914" lon="144.976"/>
      <trkpt lat="-37.81904" lon="144.97595"/>
      <trkpt lat="-37.81894" lon="144.9759"/>
      <trkpt lat="-37.81885" lon="144.97584"/>
      <trkpt lat="-37.81875" lon="144.97577"/>
      <trkpt lat="-37.81869" lon="144.97572"/>
      <trkpt lat="-37.81858" lon="144.97562"/>
      <trkpt lat="-37.8185" lon="144.97555"/>
      <trkpt lat="-37.81847" lon="144.97551"/>
      <trkpt lat="-37.81841" lon="144.97544"/>
      <trkpt lat="-37.81836" lon="144.97538"/>
      <trkpt lat="-37.81833" lon="144.97534"/>
      <trkpt lat="-37.81826" lon="144.97527"/>
      <trkpt lat="-37.81819" lon="144.97518"/>
      <trkpt lat="-37.81813" lon="144.97508"/>
      <trkpt lat="-37.81806" lon="144.97498"/>
      <trkpt lat="-37.81796" lon="144.9748"/>
      <trkpt lat="-37.81785" lon="144.9746"/>
      <trkpt lat="-37.81775" lon="144.97439"/>
      <trkpt lat="-37.81754" lon="144.97399"/>
      <trkpt lat="-37.81737" lon="144.97366"/>
      <trkpt lat="-37.81731" lon="144.97356"/>
      <trkpt lat="-37.81725" lon="144.97345"/>
      <trkpt lat="-37.81719" lon="144.97335"/>
      <trkpt lat="-37.8171" lon="144.97323"/>
      <trkpt lat="-37.81702" lon="144.97313"/>
      <trkpt lat="-37.81694" lon="144.97303"/>
      <trkpt lat="-37.81678" lon="144.97287"/>
      <trkpt lat="-37.8167" lon="144.97278"/>
      <trkpt lat="-37.81661" lon="144.9727"/>
      <trkpt lat="-37.81653" lon="144.97264"/>
      <trkpt lat="-37.81647" lon="144.97259"/>
      <trkpt lat="-37.8164" lon="144.97254"/>
      <trkpt lat="-37.81632" lon="144.97249"/>
      <trkpt lat="-37.81621" lon="144.97242"/>
      <trkpt lat="-37.81614" lon="144.97239"/>
      <trkpt lat="-37.81614" lon="144.97238"/>
      <trkpt lat="-37.8161" lon="144.97236"/>
      <trkpt lat="-37.81608" lon="144.97235"/>
      <trkpt lat="-37.81608" lon="144.97233"/>
      <trkpt lat="-37.81611" lon="144.97224"/>
      <trkpt lat="-37.81644" lon="144.9711"/>
      <trkpt lat="-37.81647" lon="144.97102"/>
      <trkpt lat="-37.81674" lon="144.97014"/>
      <trkpt lat="-37.81676" lon="144.97009"/>
      <trkpt lat="-37.81678" lon="144.96999"/>
      <trkpt lat="-37.81679" lon="144.96996"/>
      <trkpt lat="-37.81696" lon="144.96937"/>
      <trkpt lat="-37.81697" lon="144.96931"/>
      <trkpt lat="-37.81732" lon="144.96812"/>
      <trkpt lat="-37.81738" lon="144.96795"/>
      <trkpt lat="-37.81745" lon="144.96771"/>
      <trkpt lat="-37.81748" lon="144.96761"/>
      <trkpt lat="-37.81751" lon="144.96753"/>
      <trkpt lat="-37.8176" lon="144.96757"/>
      <trkpt lat="-37.81763" lon="144.96758"/>
      <trkpt lat="-37.81765" lon="144.96759"/>
      <trkpt lat="-37.8177" lon="144.96762"/>
      <trkpt lat="-37.81771" lon="144.96763"/>
      <trkpt lat="-37.81773" lon="144.96764"/>
      <trkpt lat="-37.81781" lon="144.96769"/>
      <trkpt lat="-37.81784" lon="144.96772"/>
      <trkpt lat="-37.81787" lon="144.96774"/>
      <trkpt lat="-37.81791" lon="144.96776"/>
      <trkpt lat="-37.81795" lon="144.96778"/>
      <trkpt lat="-37.81797" lon="144.9678"/>
      <trkpt lat="-37.818" lon="144.96781"/>
      <trkpt lat="-37.81805" lon="144.96783"/>
      <trkpt lat="-37.8183" lon="144.96795"/>
      <trkpt lat="-37.81843" lon="144.96801"/>
      <trkpt lat="-37.81846" lon="144.96802"/>
      <trkpt lat="-37.81848" lon="144.96803"/>
      <trkpt lat="-37.81851" lon="144.96804"/>
      <trkpt lat="-37.81853" lon="144.96805"/>
      <trkpt lat="-37.81856" lon="144.96805"/>
      <trkpt lat="-37.81859" lon="144.96807"/>
      <trkpt lat="-37.81862" lon="144.96807"/>
      <trkpt lat="-37.81866" lon="144.96808"/>
      <trkpt lat="-37.81871" lon="144.9681"/>
      <trkpt lat="-37.81875" lon="144.96811"/>
      <trkpt lat="-37.81878" lon="144.96812"/>
      <trkpt lat="-37.8188" lon="144.96812"/>
      <trkpt lat="-37.81978" lon="144.96857"/>
      <trkpt lat="-37.81998" lon="144.96866"/>
      <trkpt lat="-37.82" lon="144.96867"/>
      <trkpt lat="-37.82002" lon="144.96868"/>
      <trkpt lat="-37.82004" lon="144.96869"/>
      <trkpt lat="-37.82011" lon="144.96872"/>
      <trkpt lat="-37.82015" lon="144.96875"/>
      <trkpt lat="-37.82022" lon="144.9688"/>
      <trkpt lat="-37.82029" lon="144.96886"/>
      <trkpt lat="-37.82038" lon="144.96892"/>
      <trkpt lat="-37.82048" lon="144.96897"/>
      <trkpt lat="-37.82059" lon="144.96902"/>
      <trkpt lat="-37.8209" lon="144.96915"/>
      <trkpt lat="-37.82135" lon="144.96935"/>
      <trkpt lat="-37.82141" lon="144.96937"/>
      <trkpt lat="-37.82153" lon="144.96942"/>
      <trkpt lat="-37.82169" lon="144.96948"/>
      <trkpt lat="-37.82182" lon="144.96954"/>
      <trkpt lat="-37.82201" lon="144.96962"/>
      <trkpt lat="-37.82208" lon="144.96966"/>
      <trkpt lat="-37.82315" lon="144.97014"/>
      <trkpt lat="-37.82318" lon="144.97016"/>
      <trkpt lat="-37.82327" lon="144.9702"/>
      <trkpt lat="-37.8233" lon="144.97021"/>
      <trkpt lat="-37.82333" lon="144.97016"/>
      <trkpt lat="-37.82335" lon="144.97012"/>
      <trkpt lat="-37.82337" lon="144.97007"/>
      <trkpt lat="-37.82328" lon="144.97002"/>
      <trkpt lat="-37.82321" lon="144.96999"/>
      <trkpt lat="-37.82318" lon="144.96998"/>
      <trkpt lat="-37.82216" lon="144.9695"/>
      <trkpt lat="-37.82209" lon="144.96947"/>
      <trkpt lat="-37.82174" lon="144.96931"/>
      <trkpt lat="-37.82162" lon="144.96925"/>
      <trkpt lat="-37.82142" lon="144.96914"/>
      <trkpt lat="-37.82105" lon="144.96896"/>
      <trkpt lat="-37.82099" lon="144.96893"/>
      <trkpt lat="-37.82046" lon="144.96869"/>
      <trkpt lat="-37.8204" lon="144.96867"/>
      <trkpt lat="-37.8203" lon="144.96864"/>
      <trkpt lat="-37.82024" lon="144.96863"/>
      <trkpt lat="-37.82019" lon="144.96861"/>
      <trkpt lat="-37.82013" lon="144.9686"/>
      <trkpt lat="-37.82008" lon="144.96858"/>
      <trkpt lat="-37.82005" lon="144.96857"/>
      <trkpt lat="-37.82003" lon="144.96856"/>
      <trkpt lat="-37.81999" lon="144.96854"/>
      <trkpt lat="-37.81979" lon="144.96845"/>
      <trkpt lat="-37.81881" lon="144.96801"/>
      <trkpt lat="-37.81876" lon="144.96798"/>
      <trkpt lat="-37.81873" lon="144.96796"/>
      <trkpt lat="-37.8187" lon="144.96794"/>
      <trkpt lat="-37.81868" lon="144.96793"/>
      <trkpt lat="-37.81864" lon="144.9679"/>
      <trkpt lat="-37.81861" lon="144.96788"/>
      <trkpt lat="-37.81859" lon="144.96787"/>
      <trkpt lat="-37.81858" lon="144.96786"/>
      <trkpt lat="-37.81857" lon="144.96785"/>
      <trkpt lat="-37.81856" lon="144.96784"/>
      <trkpt lat="-37.81855" lon="144.96783"/>
      <trkpt lat="-37.81853" lon="144.96782"/>
      <trkpt lat="-37.81849" lon="144.96779"/>
      <trkpt lat="-37.81836" lon="144.96774"/>
      <trkpt lat="-37.81796" lon="144.96755"/>
      <trkpt lat="-37.81789" lon="144.96753"/>
      <trkpt lat="-37.81781" lon="144.96749"/>
      <trkpt lat="-37.8177" lon="144.96745"/>
      <trkpt lat="-37.81766" lon="144.96744"/>
      <trkpt lat="-37.81763" lon="144.96743"/>
      <trkpt lat="-37.81761" lon="144.96742"/>
      <trkpt lat="-37.81758" lon="144.96742"/>
      <trkpt lat="-37.81755" lon="144.96741"/>
      <trkpt lat="-37.81753" lon="144.96741"/>
      <trkpt lat="-37.81751" lon="144.96741"/>
      <trkpt lat="-37.81747" lon="144.96741"/>
      <trkpt lat="-37.81745" lon="144.96741"/>
      <trkpt lat="-37.81744" lon="144.96741"/>
      <trkpt lat="-37.81743" lon="144.96741"/>
      <trkpt lat="-37.81742" lon="144.96741"/>
      <trkpt lat="-37.8174" lon="144.96741"/>
      <trkpt lat="-37.81739" lon="144.96743"/>
      <trkpt lat="-37.81736" lon="144.96756"/>
      <trkpt lat="-37.81734" lon="144.9676"/>
      <trkpt lat="-37.81729" lon="144.96779"/>
      <trkpt lat="-37.8172" lon="144.96806"/>
      <trkpt lat="-37.81716" lon="144.96821"/>
      <trkpt lat="-37.81688" lon="144.96921"/>
      <trkpt lat="-37.81686" lon="144.96926"/>
      <trkpt lat="-37.81685" lon="144.96931"/>
      <trkpt lat="-37.81674" lon="144.96968"/>
      <trkpt lat="-37.81669" lon="144.96984"/>
      <trkpt lat="-37.81666" lon="144.96995"/>
      <trkpt lat="-37.81669" lon="144.96996"/>
      <trkpt lat="-37.81673" lon="144.96998"/>
      <trkpt lat="-37.81678" lon="144.96999"/>
      <trkpt lat="-37.81679" lon="144.96996"/>
      <trkpt lat="-37.81696" lon="144.96937"/>
      <trkpt lat="-37.81697" lon="144.96931"/>
      <trkpt lat="-37.81732" lon="144.96812"/>
      <trkpt lat="-37.81738" lon="144.96795"/>
      <trkpt lat="-37.81745" lon="144.96771"/>
      <trkpt lat="-37.81748" lon="144.96761"/>
      <trkpt lat="-37.81751" lon="144.96753"/>
      <trkpt lat="-37.8176" lon="144.96757"/>
      <trkpt lat="-37.81763" lon="144.96758"/>
      <trkpt lat="-37.81765" lon="144.96759"/>
      <trkpt lat="-37.8177" lon="144.96762"/>
      <trkpt lat="-37.81771" lon="144.96763"/>
      <trkpt lat="-37.81773" lon="144.96764"/>
      <trkpt lat="-37.81781" lon="144.96769"/>
      <trkpt lat="-37.81784" lon="144.96772"/>
      <trkpt lat="-37.81787" lon="144.96774"/>
      <trkpt lat="-37.81791" lon="144.96776"/>
      <trkpt lat="-37.81795" lon="144.96778"/>
      <trkpt lat="-37.81797" lon="144.9678"/>
      <trkpt lat="-37.818" lon="144.96781"/>
      <trkpt lat="-37.8183" lon="144.96795"/>
      <trkpt lat="-37.81843" lon="144.96801"/>
      <trkpt lat="-37.81846" lon="144.96802"/>
      <trkpt lat="-37.81848" lon="144.96803"/>
      <trkpt lat="-37.81851" lon="144.96804"/>
      <trkpt lat="-37.81853" lon="144.96805"/>
      <trkpt lat="-37.81856" lon="144.96805"/>
      <trkpt lat="-37.81859" lon="144.96807"/>
      <trkpt lat="-37.81862" lon="144.96807"/>
      <trkpt lat="-37.81866" lon="144.96808"/>
      <trkpt lat="-37.81871" lon="144.9681"/>
      <trkpt lat="-37.81875" lon="144.96811"/>
      <trkpt lat="-37.81878" lon="144.96812"/>
      <trkpt lat="-37.8188" lon="144.96812"/>
      <trkpt lat="-37.81978" lon="144.96857"/>
      <trkpt lat="-37.81998" lon="144.96866"/>
      <trkpt lat="-37.82" lon="144.96867"/>
      <trkpt lat="-37.82002" lon="144.96868"/>
      <trkpt lat="-37.82004" lon="144.96869"/>
      <trkpt lat="-37.82011" lon="144.96872"/>
      <trkpt lat="-37.82015" lon="144.96875"/>
      <trkpt lat="-37.82022" lon="144.9688"/>
      <trkpt lat="-37.82029" lon="144.96886"/>
      <trkpt lat="-37.82038" lon="144.96892"/>
      <trkpt lat="-37.82048" lon="144.96897"/>
      <trkpt lat="-37.82059" lon="144.96902"/>
      <trkpt lat="-37.8209" lon="144.96915"/>
      <trkpt lat="-37.82135" lon="144.96935"/>
      <trkpt lat="-37.82141" lon="144.96937"/>
      <trkpt lat="-37.82153" lon="144.96942"/>
      <trkpt lat="-37.82169" lon="144.96948"/>
      <trkpt lat="-37.82182" lon="144.96954"/>
      <trkpt lat="-37.82201" lon="144.96962"/>
      <trkpt lat="-37.82208" lon="144.96966"/>
      <trkpt lat="-37.82315" lon="144.97014"/>
      <trkpt lat="-37.82318" lon="144.97016"/>
      <trkpt lat="-37.82327" lon="144.9702"/>
      <trkpt lat="-37.8233" lon="144.97021"/>
      <trkpt lat="-37.82342" lon="144.97027"/>
      <trkpt lat="-37.82374" lon="144.97042"/>
      <trkpt lat="-37.82421" lon="144.97064"/>
      <trkpt lat="-37.82471" lon="144.97087"/>
      <trkpt lat="-37.82478" lon="144.9709"/>
      <trkpt lat="-37.82489" lon="144.97095"/>
      <trkpt lat="-37.82511" lon="144.97104"/>
      <trkpt lat="-37.82525" lon="144.97109"/>
      <trkpt lat="-37.82538" lon="144.97114"/>
      <trkpt lat="-37.82557" lon="144.9712"/>
      <trkpt lat="-37.82582" lon="144.97128"/>
      <trkpt lat="-37.82597" lon="144.97132"/>
      <trkpt lat="-37.82609" lon="144.97135"/>
      <trkpt lat="-37.82626" lon="144.97138"/>
      <trkpt lat="-37.82654" lon="144.97142"/>
      <trkpt lat="-37.82683" lon="144.97147"/>
      <trkpt lat="-37.827" lon="144.97149"/>
      <trkpt lat="-37.82713" lon="144.97151"/>
      <trkpt lat="-37.82714" lon="144.97145"/>
      <trkpt lat="-37.82714" lon="144.97141"/>
      <trkpt lat="-37.82715" lon="144.97136"/>
      <trkpt lat="-37.82702" lon="144.97135"/>
      <trkpt lat="-37.82677" lon="144.97131"/>
      <trkpt lat="-37.82677" lon="144.97118"/>
      <trkpt lat="-37.82653" lon="144.97115"/>
      <trkpt lat="-37.82632" lon="144.97112"/>
      <trkpt lat="-37.82613" lon="144.97108"/>
      <trkpt lat="-37.82599" lon="144.97104"/>
      <trkpt lat="-37.82572" lon="144.97097"/>
      <trkpt lat="-37.82535" lon="144.97084"/>
      <trkpt lat="-37.82501" lon="144.97069"/>
      <trkpt lat="-37.8249" lon="144.97064"/>
      <trkpt lat="-37.82483" lon="144.97061"/>
      <trkpt lat="-37.82468" lon="144.97053"/>
      <trkpt lat="-37.82422" lon="144.97032"/>
      <trkpt lat="-37.82417" lon="144.9703"/>
      <trkpt lat="-37.82394" lon="144.97019"/>
      <trkpt lat="-37.82352" lon="144.97"/>
      <trkpt lat="-37.82349" lon="144.96999"/>
      <trkpt lat="-37.82342" lon="144.96995"/>
      <trkpt lat="-37.82338" lon="144.96993"/>
      <trkpt lat="-37.82333" lon="144.96991"/>
      <trkpt lat="-37.8233" lon="144.9699"/>
      <trkpt lat="-37.8232" lon="144.96986"/>
      <trkpt lat="-37.82212" lon="144.96937"/>
      <trkpt lat="-37.82204" lon="144.96933"/>
      <trkpt lat="-37.82145" lon="144.96905"/>
      <trkpt lat="-37.82118" lon="144.96893"/>
      <trkpt lat="-37.82103" lon="144.96885"/>
      <trkpt lat="-37.82071" lon="144.9687"/>
      <trkpt lat="-37.82052" lon="144.96862"/>
      <trkpt lat="-37.82049" lon="144.9686"/>
      <trkpt lat="-37.82047" lon="144.96859"/>
      <trkpt lat="-37.82045" lon="144.96859"/>
      <trkpt lat="-37.82042" lon="144.96858"/>
      <trkpt lat="-37.82039" lon="144.96858"/>
      <trkpt lat="-37.82036" lon="144.96857"/>
      <trkpt lat="-37.82029" lon="144.96857"/>
      <trkpt lat="-37.82027" lon="144.96857"/>
      <trkpt lat="-37.82019" lon="144.96861"/>
      <trkpt lat="-37.82018" lon="144.96865"/>
      <trkpt lat="-37.82017" lon="144.96867"/>
      <trkpt lat="-37.82016" lon="144.96871"/>
      <trkpt lat="-37.82015" lon="144.96875"/>
      <trkpt lat="-37.82022" lon="144.9688"/>
      <trkpt lat="-37.82029" lon="144.96886"/>
      <trkpt lat="-37.82038" lon="144.96892"/>
      <trkpt lat="-37.82048" lon="144.96897"/>
      <trkpt lat="-37.82059" lon="144.96902"/>
      <trkpt lat="-37.82089" lon="144.96922"/>
      <trkpt lat="-37.82106" lon="144.96931"/>
      <trkpt lat="-37.82132" lon="144.96944"/>
      <trkpt lat="-37.82138" lon="144.96947"/>
      <trkpt lat="-37.82198" lon="144.96974"/>
      <trkpt lat="-37.82204" lon="144.96977"/>
      <trkpt lat="-37.82297" lon="144.97019"/>
      <trkpt lat="-37.82312" lon="144.97026"/>
      <trkpt lat="-37.82314" lon="144.97027"/>
      <trkpt lat="-37.82315" lon="144.97028"/>
      <trkpt lat="-37.82325" lon="144.97032"/>
      <trkpt lat="-37.82338" lon="144.97038"/>
      <trkpt lat="-37.82359" lon="144.97048"/>
      <trkpt lat="-37.82469" lon="144.97098"/>
      <trkpt lat="-37.82475" lon="144.97101"/>
      <trkpt lat="-37.82486" lon="144.97106"/>
      <trkpt lat="-37.82505" lon="144.97115"/>
      <trkpt lat="-37.82527" lon="144.97124"/>
      <trkpt lat="-37.82548" lon="144.97132"/>
      <trkpt lat="-37.8256" lon="144.97135"/>
      <trkpt lat="-37.8257" lon="144.97139"/>
      <trkpt lat="-37.82583" lon="144.97145"/>
      <trkpt lat="-37.82592" lon="144.97147"/>
      <trkpt lat="-37.82601" lon="144.97151"/>
      <trkpt lat="-37.82613" lon="144.97154"/>
      <trkpt lat="-37.82625" lon="144.97156"/>
      <trkpt lat="-37.82641" lon="144.97156"/>
      <trkpt lat="-37.82654" lon="144.97158"/>
      <trkpt lat="-37.82678" lon="144.9716"/>
      <trkpt lat="-37.82699" lon="144.97162"/>
      <trkpt lat="-37.82713" lon="144.97162"/>
      <trkpt lat="-37.8274" lon="144.97163"/>
      <trkpt lat="-37.82762" lon="144.97162"/>
      <trkpt lat="-37.82791" lon="144.9716"/>
      <trkpt lat="-37.82833" lon="144.97155"/>
      <trkpt lat="-37.8285" lon="144.97154"/>
      <trkpt lat="-37.82867" lon="144.97152"/>
      <trkpt lat="-37.82883" lon="144.97151"/>
      <trkpt lat="-37.82891" lon="144.97151"/>
      <trkpt lat="-37.82909" lon="144.97151"/>
      <trkpt lat="-37.82939" lon="144.97151"/>
      <trkpt lat="-37.82956" lon="144.97151"/>
      <trkpt lat="-37.82977" lon="144.97151"/>
      <trkpt lat="-37.82978" lon="144.97151"/>
      <trkpt lat="-37.82984" lon="144.97152"/>
      <trkpt lat="-37.82992" lon="144.97152"/>
      <trkpt lat="-37.82992" lon="144.9714"/>
      <trkpt lat="-37.82992" lon="144.97134"/>
      <trkpt lat="-37.82993" lon="144.9713"/>
      <trkpt lat="-37.82993" lon="144.97127"/>
      <trkpt lat="-37.82994" lon="144.97123"/>
      <trkpt lat="-37.82997" lon="144.9711"/>
      <trkpt lat="-37.82982" lon="144.9711"/>
      <trkpt lat="-37.82891" lon="144.97111"/>
      <trkpt lat="-37.82884" lon="144.97111"/>
      <trkpt lat="-37.82877" lon="144.97111"/>
      <trkpt lat="-37.82868" lon="144.97112"/>
      <trkpt lat="-37.82863" lon="144.97112"/>
      <trkpt lat="-37.82818" lon="144.97115"/>
      <trkpt lat="-37.82782" lon="144.97119"/>
      <trkpt lat="-37.82762" lon="144.9712"/>
      <trkpt lat="-37.82746" lon="144.97121"/>
      <trkpt lat="-37.8273" lon="144.97122"/>
      <trkpt lat="-37.82677" lon="144.97118"/>
      <trkpt lat="-37.82653" lon="144.97115"/>
      <trkpt lat="-37.82632" lon="144.97112"/>
      <trkpt lat="-37.82613" lon="144.97108"/>
      <trkpt lat="-37.82599" lon="144.97104"/>
      <trkpt lat="-37.82572" lon="144.97097"/>
      <trkpt lat="-37.82535" lon="144.97084"/>
      <trkpt lat="-37.82501" lon="144.97069"/>
      <trkpt lat="-37.8249" lon="144.97064"/>
      <trkpt lat="-37.82483" lon="144.97061"/>
      <trkpt lat="-37.82468" lon="144.97053"/>
      <trkpt lat="-37.82422" lon="144.97032"/>
      <trkpt lat="-37.82417" lon="144.9703"/>
      <trkpt lat="-37.82394" lon="144.97019"/>
      <trkpt lat="-37.82352" lon="144.97"/>
      <trkpt lat="-37.82349" lon="144.96999"/>
      <trkpt lat="-37.82342" lon="144.96995"/>
      <trkpt lat="-37.82338" lon="144.96993"/>
      <trkpt lat="-37.82333" lon="144.96991"/>
      <trkpt lat="-37.8233" lon="144.9699"/>
      <trkpt lat="-37.8232" lon="144.96986"/>
      <trkpt lat="-37.82212" lon="144.96937"/>
      <trkpt lat="-37.82204" lon="144.96933"/>
      <trkpt lat="-37.82145" lon="144.96905"/>
      <trkpt lat="-37.82118" lon="144.96893"/>
      <trkpt lat="-37.82103" lon="144.96885"/>
      <trkpt lat="-37.82071" lon="144.9687"/>
      <trkpt lat="-37.82052" lon="144.96862"/>
      <trkpt lat="-37.82049" lon="144.9686"/>
      <trkpt lat="-37.82047" lon="144.96859"/>
      <trkpt lat="-37.82045" lon="144.96859"/>
      <trkpt lat="-37.82042" lon="144.96858"/>
      <trkpt lat="-37.82039" lon="144.96858"/>
      <trkpt lat="-37.82036" lon="144.96857"/>
      <trkpt lat="-37.82029" lon="144.96857"/>
      <trkpt lat="-37.82027" lon="144.96857"/>
      <trkpt lat="-37.82019" lon="144.96861"/>
      <trkpt lat="-37.82018" lon="144.96865"/>
      <trkpt lat="-37.82017" lon="144.96867"/>
      <trkpt lat="-37.82016" lon="144.96871"/>
      <trkpt lat="-37.82015" lon="144.96875"/>
      <trkpt lat="-37.82022" lon="144.9688"/>
      <trkpt lat="-37.82029" lon="144.96886"/>
      <trkpt lat="-37.82038" lon="144.96892"/>
      <trkpt lat="-37.82048" lon="144.96897"/>
      <trkpt lat="-37.82059" lon="144.96902"/>
      <trkpt lat="-37.8209" lon="144.96915"/>
      <trkpt lat="-37.82135" lon="144.96935"/>
      <trkpt lat="-37.82141" lon="144.96937"/>
      <trkpt lat="-37.82153" lon="144.96942"/>
      <trkpt lat="-37.82169" lon="144.96948"/>
      <trkpt lat="-37.82182" lon="144.96954"/>
      <trkpt lat="-37.82201" lon="144.96962"/>
      <trkpt lat="-37.82208" lon="144.96966"/>
      <trkpt lat="-37.82315" lon="144.97014"/>
      <trkpt lat="-37.82318" lon="144.97016"/>
      <trkpt lat="-37.82327" lon="144.9702"/>
      <trkpt lat="-37.8233" lon="144.97021"/>
      <trkpt lat="-37.82333" lon="144.97016"/>
      <trkpt lat="-37.82335" lon="144.97012"/>
      <trkpt lat="-37.82337" lon="144.97007"/>
      <trkpt lat="-37.82328" lon="144.97002"/>
      <trkpt lat="-37.82321" lon="144.96999"/>
      <trkpt lat="-37.82318" lon="144.96998"/>
      <trkpt lat="-37.82216" lon="144.9695"/>
      <trkpt lat="-37.82209" lon="144.96947"/>
      <trkpt lat="-37.82174" lon="144.96931"/>
      <trkpt lat="-37.82162" lon="144.96925"/>
      <trkpt lat="-37.82142" lon="144.96914"/>
      <trkpt lat="-37.82105" lon="144.96896"/>
      <trkpt lat="-37.82099" lon="144.96893"/>
      <trkpt lat="-37.82046" lon="144.96869"/>
      <trkpt lat="-37.8204" lon="144.96867"/>
      <trkpt lat="-37.8203" lon="144.96864"/>
      <trkpt lat="-37.82024" lon="144.96863"/>
      <trkpt lat="-37.82019" lon="144.96861"/>
      <trkpt lat="-37.82013" lon="144.9686"/>
      <trkpt lat="-37.82008" lon="144.96858"/>
      <trkpt lat="-37.82005" lon="144.96857"/>
      <trkpt lat="-37.82003" lon="144.96856"/>
      <trkpt lat="-37.81999" lon="144.96854"/>
      <trkpt lat="-37.81979" lon="144.96845"/>
      <trkpt lat="-37.81881" lon="144.96801"/>
      <trkpt lat="-37.81876" lon="144.96798"/>
      <trkpt lat="-37.81873" lon="144.96796"/>
      <trkpt lat="-37.8187" lon="144.96794"/>
      <trkpt lat="-37.81868" lon="144.96793"/>
      <trkpt lat="-37.81864" lon="144.9679"/>
      <trkpt lat="-37.81861" lon="144.96788"/>
      <trkpt lat="-37.81859" lon="144.96787"/>
      <trkpt lat="-37.81858" lon="144.96786"/>
      <trkpt lat="-37.81857" lon="144.96785"/>
      <trkpt lat="-37.81856" lon="144.96784"/>
      <trkpt lat="-37.81855" lon="144.96783"/>
      <trkpt lat="-37.81853" lon="144.96782"/>
      <trkpt lat="-37.81849" lon="144.96779"/>
      <trkpt lat="-37.81836" lon="144.96774"/>
      <trkpt lat="-37.81796" lon="144.96755"/>
      <trkpt lat="-37.81789" lon="144.96753"/>
      <trkpt lat="-37.81781" lon="144.96749"/>
      <trkpt lat="-37.8177" lon="144.96745"/>
      <trkpt lat="-37.81766" lon="144.96744"/>
      <trkpt lat="-37.81763" lon="144.96743"/>
      <trkpt lat="-37.81761" lon="144.96742"/>
      <trkpt lat="-37.81758" lon="144.96742"/>
      <trkpt lat="-37.81755" lon="144.96741"/>
      <trkpt lat="-37.81753" lon="144.96741"/>
      <trkpt lat="-37.81751" lon="144.96741"/>
      <trkpt lat="-37.81747" lon="144.96741"/>
      <trkpt lat="-37.81745" lon="144.96741"/>
      <trkpt lat="-37.81744" lon="144.96741"/>
      <trkpt lat="-37.81743" lon="144.96741"/>
      <trkpt lat="-37.81742" lon="144.96741"/>
      <trkpt lat="-37.8174" lon="144.96741"/>
      <trkpt lat="-37.81739" lon="144.96743"/>
      <trkpt lat="-37.81736" lon="144.96756"/>
      <trkpt lat="-37.81734" lon="144.9676"/>
      <trkpt lat="-37.81729" lon="144.96779"/>
      <trkpt lat="-37.8172" lon="144.96806"/>
      <trkpt lat="-37.81716" lon="144.96821"/>
      <trkpt lat="-37.81688" lon="144.96921"/>
      <trkpt lat="-37.81686" lon="144.96926"/>
      <trkpt lat="-37.81685" lon="144.96931"/>
      <trkpt lat="-37.81674" lon="144.96968"/>
      <trkpt lat="-37.81669" lon="144.96984"/>
      <trkpt lat="-37.81666" lon="144.96995"/>
      <trkpt lat="-37.81663" lon="144.97004"/>
      <trkpt lat="-37.81652" lon="144.97033"/>
      <trkpt lat="-37.81637" lon="144.97085"/>
      <trkpt lat="-37.81635" lon="144.97093"/>
      <trkpt lat="-37.81629" lon="144.97112"/>
      <trkpt lat="-37.81597" lon="144.97216"/>
      <trkpt lat="-37.81596" lon="144.9722"/>
      <trkpt lat="-37.81594" lon="144.97229"/>
      <trkpt lat="-37.81591" lon="144.97243"/>
      <trkpt lat="-37.81596" lon="144.97246"/>
      <trkpt lat="-37.81599" lon="144.97248"/>
      <trkpt lat="-37.81603" lon="144.97251"/>
      <trkpt lat="-37.81609" lon="144.97254"/>
      <trkpt lat="-37.8161" lon="144.97255"/>
      <trkpt lat="-37.8162" lon="144.97261"/>
      <trkpt lat="-37.8163" lon="144.97267"/>
      <trkpt lat="-37.8164" lon="144.97274"/>
      <trkpt lat="-37.81652" lon="144.97284"/>
      <trkpt lat="-37.8166" lon="144.97291"/>
      <trkpt lat="-37.81669" lon="144.97298"/>
      <trkpt lat="-37.81677" lon="144.97306"/>
      <trkpt lat="-37.81685" lon="144.97315"/>
      <trkpt lat="-37.81693" lon="144.97323"/>
      <trkpt lat="-37.81701" lon="144.97334"/>
      <trkpt lat="-37.81708" lon="144.97344"/>
      <trkpt lat="-37.81714" lon="144.97354"/>
      <trkpt lat="-37.81721" lon="144.97365"/>
      <trkpt lat="-37.81726" lon="144.97376"/>
      <trkpt lat="-37.81732" lon="144.97387"/>
      <trkpt lat="-37.81739" lon="144.97399"/>
      <trkpt lat="-37.81744" lon="144.9741"/>
      <trkpt lat="-37.81774" lon="144.97469"/>
      <trkpt lat="-37.81779" lon="144.97477"/>
      <trkpt lat="-37.81785" lon="144.97488"/>
      <trkpt lat="-37.8179" lon="144.97499"/>
      <trkpt lat="-37.81801" lon="144.97516"/>
      <trkpt lat="-37.81814" lon="144.97533"/>
      <trkpt lat="-37.81827" lon="144.97552"/>
      <trkpt lat="-37.81831" lon="144.97556"/>
      <trkpt lat="-37.81834" lon="144.97559"/>
      <trkpt lat="-37.81837" lon="144.97562"/>
      <trkpt lat="-37.81839" lon="144.97564"/>
      <trkpt lat="-37.81841" lon="144.97566"/>
      <trkpt lat="-37.8185" lon="144.97574"/>
      <trkpt lat="-37.81854" lon="144.97577"/>
      <trkpt lat="-37.81858" lon="144.97562"/>
      <trkpt lat="-37.8185" lon="144.97555"/>
      <trkpt lat="-37.81847" lon="144.97551"/>
      <trkpt lat="-37.81841" lon="144.97544"/>
      <trkpt lat="-37.81836" lon="144.97538"/>
      <trkpt lat="-37.81833" lon="144.97534"/>
      <trkpt lat="-37.81826" lon="144.97527"/>
      <trkpt lat="-37.81819" lon="144.97518"/>
      <trkpt lat="-37.81813" lon="144.97508"/>
      <trkpt lat="-37.81806" lon="144.97498"/>
      <trkpt lat="-37.81796" lon="144.9748"/>
      <trkpt lat="-37.81785" lon="144.9746"/>
      <trkpt lat="-37.81775" lon="144.97439"/>
      <trkpt lat="-37.81754" lon="144.97399"/>
      <trkpt lat="-37.81753" lon="144.97398"/>
      <trkpt lat="-37.81737" lon="144.97366"/>
      <trkpt lat="-37.81731" lon="144.97356"/>
      <trkpt lat="-37.81725" lon="144.97345"/>
      <trkpt lat="-37.81719" lon="144.97335"/>
      <trkpt lat="-37.8171" lon="144.97323"/>
      <trkpt lat="-37.81702" lon="144.97313"/>
      <trkpt lat="-37.81694" lon="144.97303"/>
      <trkpt lat="-37.81678" lon="144.97287"/>
      <trkpt lat="-37.8167" lon="144.97278"/>
      <trkpt lat="-37.81661" lon="144.9727"/>
      <trkpt lat="-37.81653" lon="144.97264"/>
      <trkpt lat="-37.81647" lon="144.97259"/>
      <trkpt lat="-37.8164" lon="144.97254"/>
      <trkpt lat="-37.81632" lon="144.97249"/>
      <trkpt lat="-37.81621" lon="144.97242"/>
      <trkpt lat="-37.81614" lon="144.97239"/>
      <trkpt lat="-37.81614" lon="144.97238"/>
      <trkpt lat="-37.8161" lon="144.97236"/>
      <trkpt lat="-37.81608" lon="144.97235"/>
      <trkpt lat="-37.81604" lon="144.97233"/>
      <trkpt lat="-37.81603" lon="144.97233"/>
      <trkpt lat="-37.81601" lon="144.97232"/>
      <trkpt lat="-37.81594" lon="144.97229"/>
      <trkpt lat="-37.81591" lon="144.97243"/>
      <trkpt lat="-37.81589" lon="144.97252"/>
      <trkpt lat="-37.81585" lon="144.97266"/>
      <trkpt lat="-37.81583" lon="144.97275"/>
      <trkpt lat="-37.81561" lon="144.97349"/>
      <trkpt lat="-37.81558" lon="144.9736"/>
      <trkpt lat="-37.8155" lon="144.97382"/>
      <trkpt lat="-37.81545" lon="144.97396"/>
      <trkpt lat="-37.81527" lon="144.97458"/>
      <trkpt lat="-37.81525" lon="144.97466"/>
      <trkpt lat="-37.81523" lon="144.97475"/>
      <trkpt lat="-37.81522" lon="144.97478"/>
      <trkpt lat="-37.81521" lon="144.97482"/>
      <trkpt lat="-37.8152" lon="144.97485"/>
      <trkpt lat="-37.8152" lon="144.97487"/>
      <trkpt lat="-37.81519" lon="144.9749"/>
      <trkpt lat="-37.81519" lon="144.97493"/>
      <trkpt lat="-37.81519" lon="144.97496"/>
      <trkpt lat="-37.81519" lon="144.97499"/>
      <trkpt lat="-37.81519" lon="144.97503"/>
      <trkpt lat="-37.8152" lon="144.97509"/>
      <trkpt lat="-37.81521" lon="144.9752"/>
      <trkpt lat="-37.81522" lon="144.97532"/>
      <trkpt lat="-37.81534" lon="144.97642"/>
      <trkpt lat="-37.81535" lon="144.97649"/>
      <trkpt lat="-37.81536" lon="144.97676"/>
      <trkpt lat="-37.81542" lon="144.9772"/>
      <trkpt lat="-37.81542" lon="144.97724"/>
      <trkpt lat="-37.81543" lon="144.97733"/>
      <trkpt lat="-37.81545" lon="144.97751"/>
      <trkpt lat="-37.81546" lon="144.97758"/>
      <trkpt lat="-37.81551" lon="144.97803"/>
      <trkpt lat="-37.81554" lon="144.97829"/>
      <trkpt lat="-37.81561" lon="144.97894"/>
      <trkpt lat="-37.81562" lon="144.97898"/>
      <trkpt lat="-37.81562" lon="144.97901"/>
      <trkpt lat="-37.81563" lon="144.97902"/>
      <trkpt lat="-37.81564" lon="144.97903"/>
      <trkpt lat="-37.81564" lon="144.97905"/>
      <trkpt lat="-37.81565" lon="144.97906"/>
      <trkpt lat="-37.81565" lon="144.97907"/>
      <trkpt lat="-37.81566" lon="144.97908"/>
      <trkpt lat="-37.81567" lon="144.97909"/>
      <trkpt lat="-37.81568" lon="144.9791"/>
      <trkpt lat="-37.81569" lon="144.97911"/>
      <trkpt lat="-37.8157" lon="144.97912"/>
      <trkpt lat="-37.81571" lon="144.97913"/>
      <trkpt lat="-37.81575" lon="144.97914"/>
      <trkpt lat="-37.81577" lon="144.97915"/>
      <trkpt lat="-37.81579" lon="144.97916"/>
      <trkpt lat="-37.8158" lon="144.97916"/>
      <trkpt lat="-37.81581" lon="144.97916"/>
      <trkpt lat="-37.81582" lon="144.97916"/>
      <trkpt lat="-37.81583" lon="144.97916"/>
      <trkpt lat="-37.81584" lon="144.97916"/>
      <trkpt lat="-37.81592" lon="144.97915"/>
      <trkpt lat="-37.81635" lon="144.97908"/>
      <trkpt lat="-37.81638" lon="144.97908"/>
      <trkpt lat="-37.81646" lon="144.97906"/>
      <trkpt lat="-37.81644" lon="144.97894"/>
      <trkpt lat="-37.81636" lon="144.97895"/>
      <trkpt lat="-37.8163" lon="144.97896"/>
      <trkpt lat="-37.81607" lon="144.979"/>
      <trkpt lat="-37.816" lon="144.97901"/>
      <trkpt lat="-37.81584" lon="144.97904"/>
      <trkpt lat="-37.81583" lon="144.97904"/>
      <trkpt lat="-37.81582" lon="144.97904"/>
      <trkpt lat="-37.81581" lon="144.97903"/>
      <trkpt lat="-37.8158" lon="144.97903"/>
      <trkpt lat="-37.81579" lon="144.97903"/>
      <trkpt lat="-37.81577" lon="144.97902"/>
      <trkpt lat="-37.81576" lon="144.97901"/>
      <trkpt lat="-37.81576" lon="144.979"/>
      <trkpt lat="-37.81575" lon="144.97899"/>
      <trkpt lat="-37.81568" lon="144.97835"/>
      <trkpt lat="-37.81564" lon="144.97794"/>
      <trkpt lat="-37.81559" lon="144.97751"/>
      <trkpt lat="-37.81559" lon="144.9775"/>
      <trkpt lat="-37.81558" lon="144.97738"/>
      <trkpt lat="-37.81556" lon="144.97721"/>
      <trkpt lat="-37.81555" lon="144.97712"/>
      <trkpt lat="-37.81547" lon="144.97637"/>
      <trkpt lat="-37.81538" lon="144.9755"/>
      <trkpt lat="-37.81534" lon="144.9752"/>
      <trkpt lat="-37.81533" lon="144.97517"/>
      <trkpt lat="-37.81533" lon="144.97513"/>
      <trkpt lat="-37.81533" lon="144.9751"/>
      <trkpt lat="-37.81533" lon="144.97502"/>
      <trkpt lat="-37.81536" lon="144.97489"/>
      <trkpt lat="-37.8154" lon="144.97474"/>
      <trkpt lat="-37.81543" lon="144.97463"/>
      <trkpt lat="-37.81547" lon="144.97448"/>
      <trkpt lat="-37.81558" lon="144.97407"/>
      <trkpt lat="-37.8156" lon="144.97401"/>
      <trkpt lat="-37.81564" lon="144.97389"/>
      <trkpt lat="-37.81566" lon="144.97382"/>
      <trkpt lat="-37.81571" lon="144.97362"/>
      <trkpt lat="-37.81578" lon="144.9734"/>
      <trkpt lat="-37.81582" lon="144.9732"/>
      <trkpt lat="-37.81584" lon="144.97313"/>
      <trkpt lat="-37.81589" lon="144.97296"/>
      <trkpt lat="-37.81599" lon="144.97262"/>
      <trkpt lat="-37.81601" lon="144.97258"/>
      <trkpt lat="-37.81603" lon="144.97251"/>
      <trkpt lat="-37.81609" lon="144.97254"/>
      <trkpt lat="-37.8161" lon="144.97255"/>
      <trkpt lat="-37.8162" lon="144.97261"/>
      <trkpt lat="-37.8163" lon="144.97267"/>
      <trkpt lat="-37.8164" lon="144.97274"/>
      <trkpt lat="-37.81652" lon="144.97284"/>
      <trkpt lat="-37.8166" lon="144.97291"/>
      <trkpt lat="-37.81669" lon="144.97298"/>
      <trkpt lat="-37.81677" lon="144.97306"/>
      <trkpt lat="-37.81685" lon="144.97315"/>
      <trkpt lat="-37.81693" lon="144.97323"/>
      <trkpt lat="-37.81701" lon="144.97334"/>
      <trkpt lat="-37.81708" lon="144.97344"/>
      <trkpt lat="-37.81714" lon="144.97354"/>
      <trkpt lat="-37.81721" lon="144.97365"/>
      <trkpt lat="-37.81726" lon="144.97376"/>
      <trkpt lat="-37.81732" lon="144.97387"/>
      <trkpt lat="-37.81739" lon="144.97399"/>
      <trkpt lat="-37.81744" lon="144.9741"/>
      <trkpt lat="-37.81774" lon="144.97469"/>
      <trkpt lat="-37.81779" lon="144.97477"/>
      <trkpt lat="-37.81785" lon="144.97488"/>
      <trkpt lat="-37.8179" lon="144.97499"/>
      <trkpt lat="-37.81801" lon="144.97516"/>
      <trkpt lat="-37.81814" lon="144.97533"/>
      <trkpt lat="-37.81827" lon="144.97552"/>
      <trkpt lat="-37.81831" lon="144.97556"/>
      <trkpt lat="-37.81834" lon="144.97559"/>
      <trkpt lat="-37.81837" lon="144.97562"/>
      <trkpt lat="-37.81839" lon="144.97564"/>
      <trkpt lat="-37.81841" lon="144.97566"/>
      <trkpt lat="-37.8185" lon="144.97574"/>
      <trkpt lat="-37.81854" lon="144.97577"/>
      <trkpt lat="-37.81851" lon="144.97587"/>
      <trkpt lat="-37.81849" lon="144.97592"/>
      <trkpt lat="-37.81847" lon="144.97601"/>
      <trkpt lat="-37.81842" lon="144.9763"/>
      <trkpt lat="-37.81841" lon="144.97635"/>
      <trkpt lat="-37.8184" lon="144.97641"/>
      <trkpt lat="-37.8184" lon="144.97645"/>
      <trkpt lat="-37.8184" lon="144.97649"/>
      <trkpt lat="-37.81841" lon="144.97653"/>
      <trkpt lat="-37.81842" lon="144.97655"/>
      <trkpt lat="-37.81843" lon="144.97659"/>
      <trkpt lat="-37.81845" lon="144.97662"/>
      <trkpt lat="-37.81847" lon="144.97668"/>
      <trkpt lat="-37.81854" lon="144.97681"/>
      <trkpt lat="-37.81859" lon="144.97692"/>
      <trkpt lat="-37.81862" lon="144.97697"/>
      <trkpt lat="-37.81866" lon="144.97702"/>
      <trkpt lat="-37.81872" lon="144.97711"/>
      <trkpt lat="-37.81875" lon="144.97717"/>
      <trkpt lat="-37.81879" lon="144.97724"/>
      <trkpt lat="-37.81883" lon="144.97733"/>
      <trkpt lat="-37.81886" lon="144.97736"/>
      <trkpt lat="-37.81888" lon="144.97741"/>
      <trkpt lat="-37.81901" lon="144.97762"/>
      <trkpt lat="-37.81908" lon="144.97772"/>
      <trkpt lat="-37.81911" lon="144.97777"/>
      <trkpt lat="-37.81916" lon="144.97787"/>
      <trkpt lat="-37.81926" lon="144.97805"/>
      <trkpt lat="-37.81929" lon="144.9781"/>
      <trkpt lat="-37.8193" lon="144.97813"/>
      <trkpt lat="-37.81932" lon="144.97816"/>
      <trkpt lat="-37.81936" lon="144.97821"/>
      <trkpt lat="-37.81938" lon="144.97825"/>
      <trkpt lat="-37.8194" lon="144.97828"/>
      <trkpt lat="-37.81957" lon="144.97864"/>
      <trkpt lat="-37.81968" lon="144.97886"/>
      <trkpt lat="-37.81977" lon="144.97904"/>
      <trkpt lat="-37.81981" lon="144.97912"/>
      <trkpt lat="-37.81984" lon="144.97918"/>
      <trkpt lat="-37.81999" lon="144.97949"/>
      <trkpt lat="-37.82006" lon="144.97965"/>
      <trkpt lat="-37.82015" lon="144.97984"/>
      <trkpt lat="-37.82038" lon="144.98025"/>
      <trkpt lat="-37.82058" lon="144.98052"/>
      <trkpt lat="-37.82066" lon="144.98062"/>
      <trkpt lat="-37.82079" lon="144.98072"/>
      <trkpt lat="-37.82087" lon="144.98092"/>
      <trkpt lat="-37.82097" lon="144.98104"/>
      <trkpt lat="-37.8212" lon="144.98132"/>
      <trkpt lat="-37.82141" lon="144.98161"/>
      <trkpt lat="-37.82149" lon="144.98172"/>
      <trkpt lat="-37.82162" lon="144.98191"/>
      <trkpt lat="-37.82184" lon="144.98218"/>
      <trkpt lat="-37.82192" lon="144.98228"/>
      <trkpt lat="-37.82214" lon="144.98252"/>
      <trkpt lat="-37.82217" lon="144.98256"/>
      <trkpt lat="-37.82229" lon="144.9827"/>
      <trkpt lat="-37.82236" lon="144.98275"/>
      <trkpt lat="-37.82238" lon="144.98277"/>
      <trkpt lat="-37.82249" lon="144.98286"/>
      <trkpt lat="-37.82247" lon="144.9829"/>
      <trkpt lat="-37.82247" lon="144.98294"/>
      <trkpt lat="-37.82248" lon="144.98299"/>
      <trkpt lat="-37.8225" lon="144.98302"/>
      <trkpt lat="-37.82252" lon="144.98305"/>
      <trkpt lat="-37.82256" lon="144.98306"/>
      <trkpt lat="-37.82259" lon="144.98306"/>
      <trkpt lat="-37.82262" lon="144.98305"/>
      <trkpt lat="-37.82265" lon="144.98303"/>
      <trkpt lat="-37.82267" lon="144.98299"/>
      <trkpt lat="-37.82267" lon="144.98297"/>
      <trkpt lat="-37.82276" lon="144.98294"/>
      <trkpt lat="-37.82342" lon="144.98281"/>
      <trkpt lat="-37.82369" lon="144.98277"/>
      <trkpt lat="-37.82371" lon="144.98277"/>
      <trkpt lat="-37.82372" lon="144.98276"/>
      <trkpt lat="-37.82379" lon="144.98273"/>
      <trkpt lat="-37.82385" lon="144.98266"/>
      <trkpt lat="-37.82388" lon="144.9829"/>
      <trkpt lat="-37.82388" lon="144.98291"/>
      <trkpt lat="-37.82389" lon="144.98298"/>
      <trkpt lat="-37.82393" lon="144.98332"/>
      <trkpt lat="-37.82399" lon="144.98378"/>
      <trkpt lat="-37.82406" lon="144.9843"/>
      <trkpt lat="-37.82409" lon="144.98451"/>
      <trkpt lat="-37.82412" lon="144.98478"/>
      <trkpt lat="-37.82413" lon="144.98482"/>
      <trkpt lat="-37.82413" lon="144.98484"/>
      <trkpt lat="-37.82415" lon="144.98504"/>
      <trkpt lat="-37.82413" lon="144.98513"/>
      <trkpt lat="-37.82422" lon="144.98592"/>
      <trkpt lat="-37.82424" lon="144.98605"/>
      <trkpt lat="-37.82427" lon="144.98635"/>
      <trkpt lat="-37.82428" lon="144.98654"/>
      <trkpt lat="-37.82429" lon="144.98656"/>
      <trkpt lat="-37.8243" lon="144.9867"/>
      <trkpt lat="-37.82431" lon="144.98676"/>
      <trkpt lat="-37.82432" lon="144.98684"/>
      <trkpt lat="-37.82433" lon="144.98698"/>
      <trkpt lat="-37.82432" lon="144.98718"/>
      <trkpt lat="-37.82429" lon="144.98744"/>
      <trkpt lat="-37.82428" lon="144.98753"/>
      <trkpt lat="-37.82428" lon="144.98758"/>
      <trkpt lat="-37.82428" lon="144.98767"/>
      <trkpt lat="-37.82428" lon="144.98776"/>
      <trkpt lat="-37.82428" lon="144.98785"/>
      <trkpt lat="-37.82428" lon="144.98798"/>
      <trkpt lat="-37.82429" lon="144.98809"/>
      <trkpt lat="-37.8243" lon="144.98821"/>
      <trkpt lat="-37.82431" lon="144.98828"/>
      <trkpt lat="-37.82432" lon="144.98842"/>
      <trkpt lat="-37.82433" lon="144.98848"/>
      <trkpt lat="-37.82433" lon="144.98851"/>
      <trkpt lat="-37.82433" lon="144.98855"/>
      <trkpt lat="-37.82433" lon="144.98858"/>
      <trkpt lat="-37.82432" lon="144.98861"/>
      <trkpt lat="-37.82431" lon="144.98863"/>
      <trkpt lat="-37.8243" lon="144.98866"/>
      <trkpt lat="-37.82425" lon="144.98877"/>
      <trkpt lat="-37.82402" lon="144.98881"/>
      <trkpt lat="-37.82348" lon="144.98892"/>
      <trkpt lat="-37.82339" lon="144.98893"/>
      <trkpt lat="-37.82333" lon="144.98894"/>
      <trkpt lat="-37.82323" lon="144.98887"/>
      <trkpt lat="-37.82321" lon="144.98885"/>
      <trkpt lat="-37.82319" lon="144.98884"/>
      <trkpt lat="-37.82317" lon="144.98882"/>
      <trkpt lat="-37.82315" lon="144.9888"/>
      <trkpt lat="-37.82314" lon="144.98878"/>
      <trkpt lat="-37.82313" lon="144.98875"/>
      <trkpt lat="-37.82311" lon="144.98867"/>
      <trkpt lat="-37.82303" lon="144.98847"/>
      <trkpt lat="-37.82302" lon="144.98839"/>
      <trkpt lat="-37.82298" lon="144.98807"/>
      <trkpt lat="-37.82295" lon="144.98781"/>
      <trkpt lat="-37.82294" lon="144.98772"/>
      <trkpt lat="-37.82293" lon="144.98762"/>
      <trkpt lat="-37.8229" lon="144.9874"/>
      <trkpt lat="-37.82289" lon="144.9873"/>
      <trkpt lat="-37.82288" lon="144.98722"/>
      <trkpt lat="-37.82286" lon="144.98711"/>
      <trkpt lat="-37.82285" lon="144.98703"/>
      <trkpt lat="-37.8228" lon="144.98685"/>
      <trkpt lat="-37.82275" lon="144.98666"/>
      <trkpt lat="-37.82262" lon="144.98626"/>
      <trkpt lat="-37.8225" lon="144.98588"/>
      <trkpt lat="-37.82233" lon="144.98544"/>
      <trkpt lat="-37.82189" lon="144.98439"/>
      <trkpt lat="-37.82176" lon="144.98406"/>
      <trkpt lat="-37.82165" lon="144.98385"/>
      <trkpt lat="-37.82137" lon="144.98331"/>
      <trkpt lat="-37.82131" lon="144.98319"/>
      <trkpt lat="-37.82127" lon="144.98314"/>
      <trkpt lat="-37.82096" lon="144.98259"/>
      <trkpt lat="-37.82084" lon="144.98239"/>
    </trkseg>
  </trk>
</gpx>