<?xml version="1.0" encoding="UTF-8"?>
<gpx version="1.1" creator="CheerRunners Live" xmlns="http://www.topografix.com/GPX/1/1">
  <metadata><name>Melbourne Marathon Sunday 21.1k Half Marathon</name></metadata>
  <trk>
    <name>Melbourne Marathon Sunday 21.1k Half Marathon</name>
    <trkseg>
      <trkpt lat="-37.82079" lon="144.97611"/>
      <trkpt lat="-37.82064" lon="144.97611"/>
      <trkpt lat="-37.8199" lon="144.97617"/>
      <trkpt lat="-37.8196" lon="144.97614"/>
      <trkpt lat="-37.81945" lon="144.97611"/>
      <trkpt lat="-37.81935" lon="144.97608"/>
      <trkpt lat="-37.81924" lon="144.97604"/>
      <trkpt lat="-37.81914" lon="144.976"/>
      <trkpt lat="-37.81904" lon="144.97595"/>
      <trkpt lat="-37.81894" lon="144.9759"/>
      <trkpt lat="-37.81885" lon="144.97584"/>
      <trkpt lat="-37.81875" lon="144.97577"/>
      <trkpt lat="-37.81869" lon="144.97572"/>
      <trkpt lat="-37.81858" lon="144.97562"/>
      <trkpt lat="-37.8185" lon="144.97555"/>
      <trkpt lat="-37.81847" lon="144.97551"/>
      <trkpt lat="-37.81841" lon="144.97544"/>
      <trkpt lat="-37.81836" lon="144.97538"/>
      <trkpt lat="-37.81833" lon="144.97534"/>
      <trkpt lat="-37.81826" lon="144.97527"/>
      <trkpt lat="-37.81819" lon="144.97518"/>
      <trkpt lat="-37.81813" lon="144.97508"/>
      <trkpt lat="-37.81806" lon="144.97498"/>
      <trkpt lat="-37.81796" lon="144.9748"/>
      <trkpt lat="-37.81785" lon="144.9746"/>
      <trkpt lat="-37.81775" lon="144.97439"/>
      <trkpt lat="-37.81754" lon="144.97399"/>
      <trkpt lat="-37.81737" lon="144.97366"/>
      <trkpt lat="-37.81731" lon="144.97356"/>
      <trkpt lat="-37.81725" lon="144.97345"/>
      <trkpt lat="-37.81719" lon="144.97335"/>
      <trkpt lat="-37.8171" lon="144.97323"/>
      <trkpt lat="-37.81702" lon="144.97313"/>
      <trkpt lat="-37.81694" lon="144.97303"/>
      <trkpt lat="-37.81678" lon="144.97287"/>
      <trkpt lat="-37.8167" lon="144.97278"/>
      <trkpt lat="-37.81661" lon="144.9727"/>
      <trkpt lat="-37.81653" lon="144.97264"/>
      <trkpt lat="-37.81647" lon="144.97259"/>
      <trkpt lat="-37.8164" lon="144.97254"/>
      <trkpt lat="-37.81632" lon="144.97249"/>
      <trkpt lat="-37.81621" lon="144.97242"/>
      <trkpt lat="-37.81614" lon="144.97239"/>
      <trkpt lat="-37.81614" lon="144.97238"/>
      <trkpt lat="-37.8161" lon="144.97236"/>
      <trkpt lat="-37.81608" lon="144.97235"/>
      <trkpt lat="-37.81608" lon="144.97233"/>
      <trkpt lat="-37.81611" lon="144.97224"/>
      <trkpt lat="-37.81644" lon="144.9711"/>
      <trkpt lat="-37.81647" lon="144.97102"/>
      <trkpt lat="-37.81674" lon="144.97014"/>
      <trkpt lat="-37.81676" lon="144.97009"/>
      <trkpt lat="-37.81678" lon="144.96999"/>
      <trkpt lat="-37.81679" lon="144.96996"/>
      <trkpt lat="-37.81696" lon="144.96937"/>
      <trkpt lat="-37.81697" lon="144.96931"/>
      <trkpt lat="-37.81732" lon="144.96812"/>
      <trkpt lat="-37.81738" lon="144.96795"/>
      <trkpt lat="-37.81745" lon="144.96771"/>
      <trkpt lat="-37.81748" lon="144.96761"/>
      <trkpt lat="-37.81751" lon="144.96753"/>
      <trkpt lat="-37.8176" lon="144.96757"/>
      <trkpt lat="-37.81763" lon="144.96758"/>
      <trkpt lat="-37.81765" lon="144.96759"/>
      <trkpt lat="-37.8177" lon="144.96762"/>
      <trkpt lat="-37.81771" lon="144.96763"/>
      <trkpt lat="-37.81773" lon="144.96764"/>
      <trkpt lat="-37.81781" lon="144.96769"/>
      <trkpt lat="-37.81784" lon="144.96772"/>
      <trkpt lat="-37.81787" lon="144.96774"/>
      <trkpt lat="-37.81791" lon="144.96776"/>
      <trkpt lat="-37.81795" lon="144.96778"/>
      <trkpt lat="-37.81797" lon="144.9678"/>
      <trkpt lat="-37.818" lon="144.96781"/>
      <trkpt lat="-37.81805" lon="144.96783"/>
      <trkpt lat="-37.8183" lon="144.96795"/>
      <trkpt lat="-37.81843" lon="144.96801"/>
      <trkpt lat="-37.81846" lon="144.96802"/>
      <trkpt lat="-37.81848" lon="144.96803"/>
      <trkpt lat="-37.81851" lon="144.96804"/>
      <trkpt lat="-37.81853" lon="144.96805"/>
      <trkpt lat="-37.81856" lon="144.96805"/>
      <trkpt lat="-37.81859" lon="144.96807"/>
      <trkpt lat="-37.81862" lon="144.96807"/>
      <trkpt lat="-37.81866" lon="144.96808"/>
      <trkpt lat="-37.81871" lon="144.9681"/>
      <trkpt lat="-37.81875" lon="144.96811"/>
      <trkpt lat="-37.81878" lon="144.96812"/>
      <trkpt lat="-37.8188" lon="144.96812"/>
      <trkpt lat="-37.81978" lon="144.96857"/>
      <trkpt lat="-37.81998" lon="144.96866"/>
      <trkpt lat="-37.82" lon="144.96867"/>
      <trkpt lat="-37.82002" lon="144.96868"/>
      <trkpt lat="-37.82004" lon="144.96869"/>
      <trkpt lat="-37.82011" lon="144.96872"/>
      <trkpt lat="-37.82015" lon="144.96875"/>
      <trkpt lat="-37.82022" lon="144.9688"/>
      <trkpt lat="-37.82029" lon="144.96886"/>
      <trkpt lat="-37.82038" lon="144.96892"/>
      <trkpt lat="-37.82048" lon="144.96897"/>
      <trkpt lat="-37.82059" lon="144.96902"/>
      <trkpt lat="-37.8209" lon="144.96915"/>
      <trkpt lat="-37.82135" lon="144.96935"/>
      <trkpt lat="-37.82141" lon="144.96937"/>
      <trkpt lat="-37.82153" lon="144.96942"/>
      <trkpt lat="-37.82169" lon="144.96948"/>
      <trkpt lat="-37.82182" lon="144.96954"/>
      <trkpt lat="-37.82201" lon="144.96962"/>
      <trkpt lat="-37.82208" lon="144.96966"/>
      <trkpt lat="-37.82315" lon="144.97014"/>
      <trkpt lat="-37.82318" lon="144.97016"/>
      <trkpt lat="-37.82327" lon="144.9702"/>
      <trkpt lat="-37.8233" lon="144.97021"/>
      <trkpt lat="-37.82333" lon="144.97016"/>
      <trkpt lat="-37.82335" lon="144.97012"/>
      <trkpt lat="-37.82337" lon="144.97007"/>
      <trkpt lat="-37.82328" lon="144.97002"/>
      <trkpt lat="-37.82321" lon="144.96999"/>
      <trkpt lat="-37.82318" lon="144.96998"/>
      <trkpt lat="-37.82216" lon="144.9695"/>
      <trkpt lat="-37.82209" lon="144.96947"/>
      <trkpt lat="-37.82174" lon="144.96931"/>
      <trkpt lat="-37.82162" lon="144.96925"/>
      <trkpt lat="-37.82142" lon="144.96914"/>
      <trkpt lat="-37.82105" lon="144.96896"/>
      <trkpt lat="-37.82099" lon="144.96893"/>
      <trkpt lat="-37.82046" lon="144.96869"/>
      <trkpt lat="-37.8204" lon="144.96867"/>
      <trkpt lat="-37.8203" lon="144.96864"/>
      <trkpt lat="-37.82024" lon="144.96863"/>
      <trkpt lat="-37.82019" lon="144.96861"/>
      <trkpt lat="-37.82013" lon="144.9686"/>
      <trkpt lat="-37.82008" lon="144.96858"/>
      <trkpt lat="-37.82005" lon="144.96857"/>
      <trkpt lat="-37.82003" lon="144.96856"/>
      <trkpt lat="-37.81999" lon="144.96854"/>
      <trkpt lat="-37.81979" lon="144.96845"/>
      <trkpt lat="-37.81881" lon="144.96801"/>
      <trkpt lat="-37.81876" lon="144.96798"/>
      <trkpt lat="-37.81873" lon="144.96796"/>
      <trkpt lat="-37.8187" lon="144.96794"/>
      <trkpt lat="-37.81868" lon="144.96793"/>
      <trkpt lat="-37.81864" lon="144.9679"/>
      <trkpt lat="-37.81861" lon="144.96788"/>
      <trkpt lat="-37.81859" lon="144.96787"/>
      <trkpt lat="-37.81858" lon="144.96786"/>
      <trkpt lat="-37.81857" lon="144.96785"/>
      <trkpt lat="-37.81856" lon="144.96784"/>
      <trkpt lat="-37.81855" lon="144.96783"/>
      <trkpt lat="-37.81853" lon="144.96782"/>
      <trkpt lat="-37.81849" lon="144.96779"/>
      <trkpt lat="-37.81836" lon="144.96774"/>
      <trkpt lat="-37.81796" lon="144.96755"/>
      <trkpt lat="-37.81789" lon="144.96753"/>
      <trkpt lat="-37.81781" lon="144.96749"/>
      <trkpt lat="-37.8177" lon="144.96745"/>
      <trkpt lat="-37.81766" lon="144.96744"/>
      <trkpt lat="-37.81763" lon="144.96743"/>
      <trkpt lat="-37.81761" lon="144.96742"/>
      <trkpt lat="-37.81758" lon="144.96742"/>
      <trkpt lat="-37.81755" lon="144.96741"/>
      <trkpt lat="-37.81753" lon="144.96741"/>
      <trkpt lat="-37.81751" lon="144.96741"/>
      <trkpt lat="-37.81747" lon="144.96741"/>
      <trkpt lat="-37.81745" lon="144.96741"/>
      <trkpt lat="-37.81744" lon="144.96741"/>
      <trkpt lat="-37.81743" lon="144.96741"/>
      <trkpt lat="-37.81742" lon="144.96741"/>
      <trkpt lat="-37.8174" lon="144.96741"/>
      <trkpt lat="-37.81739" lon="144.96743"/>
      <trkpt lat="-37.81736" lon="144.96756"/>
      <trkpt lat="-37.81734" lon="144.9676"/>
      <trkpt lat="-37.81729" lon="144.96779"/>
      <trkpt lat="-37.8172" lon="144.96806"/>
      <trkpt lat="-37.81716" lon="144.96821"/>
      <trkpt lat="-37.81688" lon="144.96921"/>
      <trkpt lat="-37.81686" lon="144.96926"/>
      <trkpt lat="-37.81685" lon="144.96931"/>
      <trkpt lat="-37.81674" lon="144.96968"/>
      <trkpt lat="-37.81669" lon="144.96984"/>
      <trkpt lat="-37.81666" lon="144.96995"/>
      <trkpt lat="-37.81669" lon="144.96996"/>
      <trkpt lat="-37.81673" lon="144.96998"/>
      <trkpt lat="-37.81678" lon="144.96999"/>
      <trkpt lat="-37.81679" lon="144.96996"/>
      <trkpt lat="-37.81696" lon="144.96937"/>
      <trkpt lat="-37.81697" lon="144.96931"/>
      <trkpt lat="-37.81732" lon="144.96812"/>
      <trkpt lat="-37.81738" lon="144.96795"/>
      <trkpt lat="-37.81745" lon="144.96771"/>
      <trkpt lat="-37.81748" lon="144.96761"/>
      <trkpt lat="-37.81751" lon="144.96753"/>
      <trkpt lat="-37.8176" lon="144.96757"/>
      <trkpt lat="-37.81763" lon="144.96758"/>
      <trkpt lat="-37.81765" lon="144.96759"/>
      <trkpt lat="-37.8177" lon="144.96762"/>
      <trkpt lat="-37.81771" lon="144.96763"/>
      <trkpt lat="-37.81773" lon="144.96764"/>
      <trkpt lat="-37.81781" lon="144.96769"/>
      <trkpt lat="-37.81784" lon="144.96772"/>
      <trkpt lat="-37.81787" lon="144.96774"/>
      <trkpt lat="-37.81791" lon="144.96776"/>
      <trkpt lat="-37.81795" lon="144.96778"/>
      <trkpt lat="-37.81797" lon="144.9678"/>
      <trkpt lat="-37.818" lon="144.96781"/>
      <trkpt lat="-37.8183" lon="144.96795"/>
      <trkpt lat="-37.81843" lon="144.96801"/>
      <trkpt lat="-37.81846" lon="144.96802"/>
      <trkpt lat="-37.81848" lon="144.96803"/>
      <trkpt lat="-37.81851" lon="144.96804"/>
      <trkpt lat="-37.81853" lon="144.96805"/>
      <trkpt lat="-37.81856" lon="144.96805"/>
      <trkpt lat="-37.81859" lon="144.96807"/>
      <trkpt lat="-37.81862" lon="144.96807"/>
      <trkpt lat="-37.81866" lon="144.96808"/>
      <trkpt lat="-37.81871" lon="144.9681"/>
      <trkpt lat="-37.81875" lon="144.96811"/>
      <trkpt lat="-37.81878" lon="144.96812"/>
      <trkpt lat="-37.8188" lon="144.96812"/>
      <trkpt lat="-37.81978" lon="144.96857"/>
      <trkpt lat="-37.81998" lon="144.96866"/>
      <trkpt lat="-37.82" lon="144.96867"/>
      <trkpt lat="-37.82002" lon="144.96868"/>
      <trkpt lat="-37.82004" lon="144.96869"/>
      <trkpt lat="-37.82011" lon="144.96872"/>
      <trkpt lat="-37.82015" lon="144.96875"/>
      <trkpt lat="-37.82022" lon="144.9688"/>
      <trkpt lat="-37.82029" lon="144.96886"/>
      <trkpt lat="-37.82038" lon="144.96892"/>
      <trkpt lat="-37.82048" lon="144.96897"/>
      <trkpt lat="-37.82059" lon="144.96902"/>
      <trkpt lat="-37.8209" lon="144.96915"/>
      <trkpt lat="-37.82135" lon="144.96935"/>
      <trkpt lat="-37.82141" lon="144.96937"/>
      <trkpt lat="-37.82153" lon="144.96942"/>
      <trkpt lat="-37.82169" lon="144.96948"/>
      <trkpt lat="-37.82182" lon="144.96954"/>
      <trkpt lat="-37.82201" lon="144.96962"/>
      <trkpt lat="-37.82208" lon="144.96966"/>
      <trkpt lat="-37.82315" lon="144.97014"/>
      <trkpt lat="-37.82318" lon="144.97016"/>
      <trkpt lat="-37.82327" lon="144.9702"/>
      <trkpt lat="-37.8233" lon="144.97021"/>
      <trkpt lat="-37.82342" lon="144.97027"/>
      <trkpt lat="-37.82374" lon="144.97042"/>
      <trkpt lat="-37.82421" lon="144.97064"/>
      <trkpt lat="-37.82471" lon="144.97087"/>
      <trkpt lat="-37.82478" lon="144.9709"/>
      <trkpt lat="-37.82489" lon="144.97095"/>
      <trkpt lat="-37.82511" lon="144.97104"/>
      <trkpt lat="-37.82525" lon="144.97109"/>
      <trkpt lat="-37.82538" lon="144.97114"/>
      <trkpt lat="-37.82557" lon="144.9712"/>
      <trkpt lat="-37.82582" lon="144.97128"/>
      <trkpt lat="-37.82597" lon="144.97132"/>
      <trkpt lat="-37.82609" lon="144.97135"/>
      <trkpt lat="-37.82626" lon="144.97138"/>
      <trkpt lat="-37.82654" lon="144.97142"/>
      <trkpt lat="-37.82683" lon="144.97147"/>
      <trkpt lat="-37.827" lon="144.97149"/>
      <trkpt lat="-37.82713" lon="144.97151"/>
      <trkpt lat="-37.82721" lon="144.97151"/>
      <trkpt lat="-37.82737" lon="144.9715"/>
      <trkpt lat="-37.82752" lon="144.97148"/>
      <trkpt lat="-37.82764" lon="144.97147"/>
      <trkpt lat="-37.82777" lon="144.97147"/>
      <trkpt lat="-37.828" lon="144.97146"/>
      <trkpt lat="-37.82824" lon="144.97145"/>
      <trkpt lat="-37.82851" lon="144.97143"/>
      <trkpt lat="-37.82869" lon="144.97141"/>
      <trkpt lat="-37.82886" lon="144.9714"/>
      <trkpt lat="-37.82891" lon="144.97139"/>
      <trkpt lat="-37.82907" lon="144.97136"/>
      <trkpt lat="-37.82919" lon="144.97136"/>
      <trkpt lat="-37.82935" lon="144.97136"/>
      <trkpt lat="-37.8298" lon="144.97138"/>
      <trkpt lat="-37.82983" lon="144.97139"/>
      <trkpt lat="-37.82992" lon="144.9714"/>
      <trkpt lat="-37.82996" lon="144.9714"/>
      <trkpt lat="-37.83007" lon="144.97141"/>
      <trkpt lat="-37.83059" lon="144.97143"/>
      <trkpt lat="-37.8308" lon="144.97144"/>
      <trkpt lat="-37.83101" lon="144.97145"/>
      <trkpt lat="-37.8312" lon="144.97146"/>
      <trkpt lat="-37.8313" lon="144.97149"/>
      <trkpt lat="-37.83141" lon="144.97152"/>
      <trkpt lat="-37.83149" lon="144.97153"/>
      <trkpt lat="-37.83161" lon="144.97155"/>
      <trkpt lat="-37.83171" lon="144.9716"/>
      <trkpt lat="-37.83183" lon="144.97168"/>
      <trkpt lat="-37.83189" lon="144.97173"/>
      <trkpt lat="-37.83199" lon="144.97182"/>
      <trkpt lat="-37.83205" lon="144.97185"/>
      <trkpt lat="-37.8321" lon="144.97188"/>
      <trkpt lat="-37.83218" lon="144.97194"/>
      <trkpt lat="-37.83228" lon="144.97202"/>
      <trkpt lat="-37.83241" lon="144.97213"/>
      <trkpt lat="-37.83254" lon="144.97225"/>
      <trkpt lat="-37.83266" lon="144.97235"/>
      <trkpt lat="-37.8327" lon="144.9724"/>
      <trkpt lat="-37.83275" lon="144.97244"/>
      <trkpt lat="-37.83277" lon="144.97246"/>
      <trkpt lat="-37.83285" lon="144.97253"/>
      <trkpt lat="-37.8329" lon="144.97258"/>
      <trkpt lat="-37.83293" lon="144.97262"/>
      <trkpt lat="-37.83307" lon="144.9728"/>
      <trkpt lat="-37.83314" lon="144.9729"/>
      <trkpt lat="-37.8332" lon="144.97298"/>
      <trkpt lat="-37.83342" lon="144.97333"/>
      <trkpt lat="-37.83353" lon="144.9735"/>
      <trkpt lat="-37.83366" lon="144.97369"/>
      <trkpt lat="-37.83371" lon="144.97376"/>
      <trkpt lat="-37.83379" lon="144.97386"/>
      <trkpt lat="-37.83392" lon="144.97402"/>
      <trkpt lat="-37.83402" lon="144.97414"/>
      <trkpt lat="-37.83414" lon="144.97429"/>
      <trkpt lat="-37.8343" lon="144.97446"/>
      <trkpt lat="-37.83442" lon="144.97458"/>
      <trkpt lat="-37.8345" lon="144.97465"/>
      <trkpt lat="-37.83461" lon="144.97475"/>
      <trkpt lat="-37.83478" lon="144.97489"/>
      <trkpt lat="-37.83489" lon="144.97498"/>
      <trkpt lat="-37.83506" lon="144.9751"/>
      <trkpt lat="-37.83516" lon="144.97516"/>
      <trkpt lat="-37.83518" lon="144.97517"/>
      <trkpt lat="-37.83523" lon="144.9752"/>
      <trkpt lat="-37.83536" lon="144.97528"/>
      <trkpt lat="-37.83547" lon="144.97535"/>
      <trkpt lat="-37.8355" lon="144.97537"/>
      <trkpt lat="-37.83566" lon="144.97547"/>
      <trkpt lat="-37.83593" lon="144.97562"/>
      <trkpt lat="-37.83602" lon="144.97567"/>
      <trkpt lat="-37.83607" lon="144.97569"/>
      <trkpt lat="-37.83611" lon="144.9757"/>
      <trkpt lat="-37.83613" lon="144.97571"/>
      <trkpt lat="-37.8363" lon="144.97575"/>
      <trkpt lat="-37.8363" lon="144.97573"/>
      <trkpt lat="-37.8363" lon="144.97564"/>
      <trkpt lat="-37.8363" lon="144.97558"/>
      <trkpt lat="-37.8363" lon="144.97556"/>
      <trkpt lat="-37.8363" lon="144.97554"/>
      <trkpt lat="-37.8363" lon="144.9755"/>
      <trkpt lat="-37.8363" lon="144.97547"/>
      <trkpt lat="-37.8363" lon="144.97544"/>
      <trkpt lat="-37.83631" lon="144.9754"/>
      <trkpt lat="-37.83633" lon="144.97531"/>
      <trkpt lat="-37.83634" lon="144.97525"/>
      <trkpt lat="-37.83634" lon="144.97522"/>
      <trkpt lat="-37.83648" lon="144.97457"/>
      <trkpt lat="-37.8365" lon="144.97449"/>
      <trkpt lat="-37.83653" lon="144.97435"/>
      <trkpt lat="-37.83661" lon="144.97438"/>
      <trkpt lat="-37.83671" lon="144.97441"/>
      <trkpt lat="-37.83705" lon="144.97454"/>
      <trkpt lat="-37.83766" lon="144.97476"/>
      <trkpt lat="-37.8379" lon="144.97485"/>
      <trkpt lat="-37.83796" lon="144.97487"/>
      <trkpt lat="-37.83803" lon="144.97489"/>
      <trkpt lat="-37.83817" lon="144.97495"/>
      <trkpt lat="-37.83823" lon="144.97497"/>
      <trkpt lat="-37.8385" lon="144.97507"/>
      <trkpt lat="-37.83872" lon="144.97515"/>
      <trkpt lat="-37.83894" lon="144.97523"/>
      <trkpt lat="-37.83926" lon="144.97535"/>
      <trkpt lat="-37.83934" lon="144.97537"/>
      <trkpt lat="-37.83935" lon="144.97533"/>
      <trkpt lat="-37.83945" lon="144.97489"/>
      <trkpt lat="-37.83953" lon="144.97458"/>
      <trkpt lat="-37.83955" lon="144.97448"/>
      <trkpt lat="-37.83958" lon="144.97437"/>
      <trkpt lat="-37.84103" lon="144.97489"/>
      <trkpt lat="-37.84185" lon="144.97519"/>
      <trkpt lat="-37.84316" lon="144.97566"/>
      <trkpt lat="-37.84388" lon="144.97593"/>
      <trkpt lat="-37.84455" lon="144.97617"/>
      <trkpt lat="-37.8458" lon="144.97662"/>
      <trkpt lat="-37.84648" lon="144.97687"/>
      <trkpt lat="-37.84684" lon="144.977"/>
      <trkpt lat="-37.84746" lon="144.97722"/>
      <trkpt lat="-37.84772" lon="144.97732"/>
      <trkpt lat="-37.84819" lon="144.97749"/>
      <trkpt lat="-37.84824" lon="144.97751"/>
      <trkpt lat="-37.84821" lon="144.97763"/>
      <trkpt lat="-37.84799" lon="144.97852"/>
      <trkpt lat="-37.84808" lon="144.97855"/>
      <trkpt lat="-37.85037" lon="144.97938"/>
      <trkpt lat="-37.85049" lon="144.97943"/>
      <trkpt lat="-37.85054" lon="144.97917"/>
      <trkpt lat="-37.85067" lon="144.97859"/>
      <trkpt lat="-37.85068" lon="144.97853"/>
      <trkpt lat="-37.8507" lon="144.97842"/>
      <trkpt lat="-37.85074" lon="144.97824"/>
      <trkpt lat="-37.85019" lon="144.97807"/>
      <trkpt lat="-37.84984" lon="144.97795"/>
      <trkpt lat="-37.84964" lon="144.97789"/>
      <trkpt lat="-37.84958" lon="144.97775"/>
      <trkpt lat="-37.84955" lon="144.97766"/>
      <trkpt lat="-37.84953" lon="144.97738"/>
      <trkpt lat="-37.84952" lon="144.97723"/>
      <trkpt lat="-37.84952" lon="144.97719"/>
      <trkpt lat="-37.84951" lon="144.97697"/>
      <trkpt lat="-37.84942" lon="144.97686"/>
      <trkpt lat="-37.84937" lon="144.9768"/>
      <trkpt lat="-37.84927" lon="144.97664"/>
      <trkpt lat="-37.84918" lon="144.97651"/>
      <trkpt lat="-37.84902" lon="144.97626"/>
      <trkpt lat="-37.84878" lon="144.97591"/>
      <trkpt lat="-37.84862" lon="144.97624"/>
      <trkpt lat="-37.84855" lon="144.97639"/>
      <trkpt lat="-37.84853" lon="144.97643"/>
      <trkpt lat="-37.84855" lon="144.97639"/>
      <trkpt lat="-37.84882" lon="144.97662"/>
      <trkpt lat="-37.8489" lon="144.97647"/>
      <trkpt lat="-37.84902" lon="144.97626"/>
      <trkpt lat="-37.84918" lon="144.97651"/>
      <trkpt lat="-37.84927" lon="144.97664"/>
      <trkpt lat="-37.84937" lon="144.9768"/>
      <trkpt lat="-37.84942" lon="144.97686"/>
      <trkpt lat="-37.84951" lon="144.97697"/>
      <trkpt lat="-37.84958" lon="144.97704"/>
      <trkpt lat="-37.84965" lon="144.97712"/>
      <trkpt lat="-37.84966" lon="144.97713"/>
      <trkpt lat="-37.84971" lon="144.97718"/>
      <trkpt lat="-37.84975" lon="144.97723"/>
      <trkpt lat="-37.84983" lon="144.9773"/>
      <trkpt lat="-37.84992" lon="144.97737"/>
      <trkpt lat="-37.85001" lon="144.97744"/>
      <trkpt lat="-37.85012" lon="144.9775"/>
      <trkpt lat="-37.85027" lon="144.97759"/>
      <trkpt lat="-37.85039" lon="144.97765"/>
      <trkpt lat="-37.85054" lon="144.97771"/>
      <trkpt lat="-37.8507" lon="144.97777"/>
      <trkpt lat="-37.8509" lon="144.97785"/>
      <trkpt lat="-37.85121" lon="144.97796"/>
      <trkpt lat="-37.85185" lon="144.97819"/>
      <trkpt lat="-37.85196" lon="144.97824"/>
      <trkpt lat="-37.8521" lon="144.97829"/>
      <trkpt lat="-37.85227" lon="144.97835"/>
      <trkpt lat="-37.85262" lon="144.97847"/>
      <trkpt lat="-37.85277" lon="144.97851"/>
      <trkpt lat="-37.8529" lon="144.97856"/>
      <trkpt lat="-37.85315" lon="144.97861"/>
      <trkpt lat="-37.85337" lon="144.97866"/>
      <trkpt lat="-37.85356" lon="144.97869"/>
      <trkpt lat="-37.85371" lon="144.9787"/>
      <trkpt lat="-37.85392" lon="144.97872"/>
      <trkpt lat="-37.85413" lon="144.97873"/>
      <trkpt lat="-37.8544" lon="144.97873"/>
      <trkpt lat="-37.85459" lon="144.97872"/>
      <trkpt lat="-37.85484" lon="144.97871"/>
      <trkpt lat="-37.85508" lon="144.97875"/>
      <trkpt lat="-37.85529" lon="144.97877"/>
      <trkpt lat="-37.85543" lon="144.97878"/>
      <trkpt lat="-37.85557" lon="144.9788"/>
      <trkpt lat="-37.85575" lon="144.97885"/>
      <trkpt lat="-37.8559" lon="144.97889"/>
      <trkpt lat="-37.85598" lon="144.97892"/>
      <trkpt lat="-37.85627" lon="144.97905"/>
      <trkpt lat="-37.85645" lon="144.97914"/>
      <trkpt lat="-37.85657" lon="144.9792"/>
      <trkpt lat="-37.85667" lon="144.97926"/>
      <trkpt lat="-37.85673" lon="144.9793"/>
      <trkpt lat="-37.8568" lon="144.97935"/>
      <trkpt lat="-37.8569" lon="144.97942"/>
      <trkpt lat="-37.85705" lon="144.97956"/>
      <trkpt lat="-37.8572" lon="144.97969"/>
      <trkpt lat="-37.85733" lon="144.97982"/>
      <trkpt lat="-37.85754" lon="144.98004"/>
      <trkpt lat="-37.85768" lon="144.98018"/>
      <trkpt lat="-37.85779" lon="144.98029"/>
      <trkpt lat="-37.85782" lon="144.98031"/>
      <trkpt lat="-37.85789" lon="144.98037"/>
      <trkpt lat="-37.85794" lon="144.98041"/>
      <trkpt lat="-37.85798" lon="144.98043"/>
      <trkpt lat="-37.85804" lon="144.98046"/>
      <trkpt lat="-37.8581" lon="144.98034"/>
      <trkpt lat="-37.85818" lon="144.98019"/>
      <trkpt lat="-37.85822" lon="144.98013"/>
      <trkpt lat="-37.85832" lon="144.97995"/>
      <trkpt lat="-37.85878" lon="144.97916"/>
      <trkpt lat="-37.85896" lon="144.97886"/>
      <trkpt lat="-37.85893" lon="144.97882"/>
      <trkpt lat="-37.8589" lon="144.97879"/>
      <trkpt lat="-37.85887" lon="144.97876"/>
      <trkpt lat="-37.85883" lon="144.97882"/>
      <trkpt lat="-37.8587" lon="144.97905"/>
      <trkpt lat="-37.85845" lon="144.97946"/>
      <trkpt lat="-37.85813" lon="144.97998"/>
      <trkpt lat="-37.85809" lon="144.98004"/>
      <trkpt lat="-37.85805" lon="144.9801"/>
      <trkpt lat="-37.858" lon="144.9801"/>
      <trkpt lat="-37.85794" lon="144.9801"/>
      <trkpt lat="-37.85791" lon="144.9801"/>
      <trkpt lat="-37.85787" lon="144.9801"/>
      <trkpt lat="-37.85784" lon="144.98009"/>
      <trkpt lat="-37.8578" lon="144.98011"/>
      <trkpt lat="-37.85767" lon="144.97997"/>
      <trkpt lat="-37.85754" lon="144.97985"/>
      <trkpt lat="-37.85739" lon="144.97971"/>
      <trkpt lat="-37.85708" lon="144.97941"/>
      <trkpt lat="-37.85697" lon="144.97932"/>
      <trkpt lat="-37.85686" lon="144.97923"/>
      <trkpt lat="-37.85665" lon="144.97907"/>
      <trkpt lat="-37.85654" lon="144.97901"/>
      <trkpt lat="-37.85641" lon="144.97893"/>
      <trkpt lat="-37.8563" lon="144.97888"/>
      <trkpt lat="-37.85614" lon="144.97881"/>
      <trkpt lat="-37.85601" lon="144.97877"/>
      <trkpt lat="-37.85598" lon="144.97892"/>
      <trkpt lat="-37.85627" lon="144.97905"/>
      <trkpt lat="-37.85645" lon="144.97914"/>
      <trkpt lat="-37.85657" lon="144.9792"/>
      <trkpt lat="-37.85667" lon="144.97926"/>
      <trkpt lat="-37.85673" lon="144.9793"/>
      <trkpt lat="-37.8568" lon="144.97935"/>
      <trkpt lat="-37.8569" lon="144.97942"/>
      <trkpt lat="-37.85705" lon="144.97956"/>
      <trkpt lat="-37.8572" lon="144.97969"/>
      <trkpt lat="-37.85733" lon="144.97982"/>
      <trkpt lat="-37.85754" lon="144.98004"/>
      <trkpt lat="-37.85768" lon="144.98018"/>
      <trkpt lat="-37.85779" lon="144.98029"/>
      <trkpt lat="-37.85782" lon="144.98031"/>
      <trkpt lat="-37.85789" lon="144.98037"/>
      <trkpt lat="-37.85794" lon="144.98041"/>
      <trkpt lat="-37.85798" lon="144.98043"/>
      <trkpt lat="-37.85804" lon="144.98046"/>
      <trkpt lat="-37.8581" lon="144.98034"/>
      <trkpt lat="-37.85818" lon="144.98019"/>
      <trkpt lat="-37.85822" lon="144.98013"/>
      <trkpt lat="-37.85832" lon="144.97995"/>
      <trkpt lat="-37.85878" lon="144.97916"/>
      <trkpt lat="-37.85896" lon="144.97886"/>
      <trkpt lat="-37.85933" lon="144.97825"/>
      <trkpt lat="-37.85954" lon="144.97789"/>
      <trkpt lat="-37.85969" lon="144.97765"/>
      <trkpt lat="-37.85971" lon="144.97762"/>
      <trkpt lat="-37.85972" lon="144.97761"/>
      <trkpt lat="-37.85977" lon="144.97753"/>
      <trkpt lat="-37.8598" lon="144.97747"/>
      <trkpt lat="-37.85982" lon="144.97743"/>
      <trkpt lat="-37.85982" lon="144.97739"/>
      <trkpt lat="-37.85981" lon="144.97734"/>
      <trkpt lat="-37.8598" lon="144.97728"/>
      <trkpt lat="-37.8598" lon="144.97727"/>
      <trkpt lat="-37.8598" lon="144.97724"/>
      <trkpt lat="-37.85979" lon="144.97723"/>
      <trkpt lat="-37.85979" lon="144.97719"/>
      <trkpt lat="-37.85977" lon="144.97713"/>
      <trkpt lat="-37.85975" lon="144.97709"/>
      <trkpt lat="-37.85974" lon="144.97707"/>
      <trkpt lat="-37.85974" lon="144.97706"/>
      <trkpt lat="-37.85972" lon="144.97704"/>
      <trkpt lat="-37.85971" lon="144.97702"/>
      <trkpt lat="-37.85933" lon="144.97666"/>
      <trkpt lat="-37.85891" lon="144.97626"/>
      <trkpt lat="-37.85887" lon="144.97622"/>
      <trkpt lat="-37.85874" lon="144.9761"/>
      <trkpt lat="-37.85862" lon="144.97599"/>
      <trkpt lat="-37.859" lon="144.97538"/>
      <trkpt lat="-37.85914" lon="144.97513"/>
      <trkpt lat="-37.859" lon="144.97538"/>
      <trkpt lat="-37.85862" lon="144.97599"/>
      <trkpt lat="-37.85852" lon="144.97588"/>
      <trkpt lat="-37.85844" lon="144.9758"/>
      <trkpt lat="-37.85837" lon="144.97571"/>
      <trkpt lat="-37.8582" lon="144.97552"/>
      <trkpt lat="-37.85774" lon="144.97501"/>
      <trkpt lat="-37.85756" lon="144.97482"/>
      <trkpt lat="-37.85751" lon="144.97476"/>
      <trkpt lat="-37.85734" lon="144.97456"/>
      <trkpt lat="-37.85717" lon="144.97438"/>
      <trkpt lat="-37.85672" lon="144.97388"/>
      <trkpt lat="-37.85549" lon="144.97251"/>
      <trkpt lat="-37.8554" lon="144.9724"/>
      <trkpt lat="-37.85535" lon="144.97234"/>
      <trkpt lat="-37.85487" lon="144.97169"/>
      <trkpt lat="-37.8547" lon="144.97144"/>
      <trkpt lat="-37.85458" lon="144.97129"/>
      <trkpt lat="-37.85445" lon="144.97111"/>
      <trkpt lat="-37.85419" lon="144.97076"/>
      <trkpt lat="-37.85415" lon="144.9707"/>
      <trkpt lat="-37.85383" lon="144.97026"/>
      <trkpt lat="-37.85374" lon="144.97014"/>
      <trkpt lat="-37.85375" lon="144.97009"/>
      <trkpt lat="-37.85378" lon="144.97002"/>
      <trkpt lat="-37.85388" lon="144.96971"/>
      <trkpt lat="-37.85394" lon="144.96957"/>
      <trkpt lat="-37.85415" lon="144.96895"/>
      <trkpt lat="-37.85442" lon="144.96948"/>
      <trkpt lat="-37.85478" lon="144.97018"/>
      <trkpt lat="-37.85442" lon="144.96948"/>
      <trkpt lat="-37.85415" lon="144.96895"/>
      <trkpt lat="-37.85272" lon="144.96712"/>
      <trkpt lat="-37.85269" lon="144.96709"/>
      <trkpt lat="-37.85227" lon="144.96743"/>
      <trkpt lat="-37.85196" lon="144.96769"/>
      <trkpt lat="-37.85188" lon="144.96776"/>
      <trkpt lat="-37.85181" lon="144.96767"/>
      <trkpt lat="-37.85151" lon="144.96727"/>
      <trkpt lat="-37.85127" lon="144.96697"/>
      <trkpt lat="-37.85095" lon="144.96656"/>
      <trkpt lat="-37.85068" lon="144.96624"/>
      <trkpt lat="-37.85021" lon="144.96567"/>
      <trkpt lat="-37.84978" lon="144.96517"/>
      <trkpt lat="-37.84973" lon="144.96511"/>
      <trkpt lat="-37.84962" lon="144.96499"/>
      <trkpt lat="-37.84966" lon="144.96496"/>
      <trkpt lat="-37.84972" lon="144.9649"/>
      <trkpt lat="-37.84989" lon="144.96477"/>
      <trkpt lat="-37.84972" lon="144.9649"/>
      <trkpt lat="-37.84966" lon="144.96496"/>
      <trkpt lat="-37.84962" lon="144.96499"/>
      <trkpt lat="-37.84947" lon="144.96483"/>
      <trkpt lat="-37.84913" lon="144.96449"/>
      <trkpt lat="-37.8488" lon="144.96415"/>
      <trkpt lat="-37.84845" lon="144.96379"/>
      <trkpt lat="-37.84836" lon="144.96371"/>
      <trkpt lat="-37.84811" lon="144.96348"/>
      <trkpt lat="-37.84783" lon="144.96322"/>
      <trkpt lat="-37.84776" lon="144.96316"/>
      <trkpt lat="-37.84767" lon="144.96307"/>
      <trkpt lat="-37.84743" lon="144.96285"/>
      <trkpt lat="-37.84719" lon="144.96264"/>
      <trkpt lat="-37.84702" lon="144.96249"/>
      <trkpt lat="-37.84677" lon="144.96228"/>
      <trkpt lat="-37.84581" lon="144.96149"/>
      <trkpt lat="-37.84576" lon="144.96145"/>
      <trkpt lat="-37.84562" lon="144.96133"/>
      <trkpt lat="-37.84527" lon="144.96108"/>
      <trkpt lat="-37.84492" lon="144.96085"/>
      <trkpt lat="-37.8445" lon="144.96057"/>
      <trkpt lat="-37.84428" lon="144.96043"/>
      <trkpt lat="-37.84408" lon="144.96029"/>
      <trkpt lat="-37.84406" lon="144.96028"/>
      <trkpt lat="-37.84403" lon="144.96025"/>
      <trkpt lat="-37.84399" lon="144.96022"/>
      <trkpt lat="-37.84392" lon="144.96018"/>
      <trkpt lat="-37.84387" lon="144.96015"/>
      <trkpt lat="-37.84285" lon="144.95954"/>
      <trkpt lat="-37.84273" lon="144.95946"/>
      <trkpt lat="-37.84245" lon="144.95929"/>
      <trkpt lat="-37.84243" lon="144.95928"/>
      <trkpt lat="-37.84233" lon="144.95922"/>
      <trkpt lat="-37.84213" lon="144.95912"/>
      <trkpt lat="-37.84206" lon="144.95925"/>
      <trkpt lat="-37.84202" lon="144.95935"/>
      <trkpt lat="-37.84199" lon="144.9594"/>
      <trkpt lat="-37.84197" lon="144.95945"/>
      <trkpt lat="-37.84195" lon="144.95947"/>
      <trkpt lat="-37.84193" lon="144.9595"/>
      <trkpt lat="-37.8419" lon="144.95953"/>
      <trkpt lat="-37.84187" lon="144.95957"/>
      <trkpt lat="-37.84182" lon="144.95962"/>
      <trkpt lat="-37.84178" lon="144.95966"/>
      <trkpt lat="-37.84171" lon="144.95973"/>
      <trkpt lat="-37.84161" lon="144.95983"/>
      <trkpt lat="-37.84153" lon="144.9599"/>
      <trkpt lat="-37.84143" lon="144.96"/>
      <trkpt lat="-37.8413" lon="144.96012"/>
      <trkpt lat="-37.84121" lon="144.96022"/>
      <trkpt lat="-37.8412" lon="144.96032"/>
      <trkpt lat="-37.84102" lon="144.96053"/>
      <trkpt lat="-37.84075" lon="144.96086"/>
      <trkpt lat="-37.84064" lon="144.961"/>
      <trkpt lat="-37.84059" lon="144.96106"/>
      <trkpt lat="-37.84055" lon="144.9611"/>
      <trkpt lat="-37.84054" lon="144.96112"/>
      <trkpt lat="-37.84052" lon="144.96114"/>
      <trkpt lat="-37.84046" lon="144.96121"/>
      <trkpt lat="-37.84042" lon="144.96128"/>
      <trkpt lat="-37.84037" lon="144.96134"/>
      <trkpt lat="-37.84024" lon="144.96151"/>
      <trkpt lat="-37.8402" lon="144.96156"/>
      <trkpt lat="-37.84016" lon="144.96161"/>
      <trkpt lat="-37.84009" lon="144.96172"/>
      <trkpt lat="-37.84002" lon="144.96183"/>
      <trkpt lat="-37.83995" lon="144.96194"/>
      <trkpt lat="-37.8398" lon="144.96217"/>
      <trkpt lat="-37.8397" lon="144.96234"/>
      <trkpt lat="-37.83967" lon="144.96238"/>
      <trkpt lat="-37.83964" lon="144.96243"/>
      <trkpt lat="-37.83959" lon="144.96251"/>
      <trkpt lat="-37.83956" lon="144.96257"/>
      <trkpt lat="-37.83954" lon="144.9626"/>
      <trkpt lat="-37.83952" lon="144.96264"/>
      <trkpt lat="-37.8395" lon="144.96269"/>
      <trkpt lat="-37.83938" lon="144.96292"/>
      <trkpt lat="-37.83922" lon="144.96319"/>
      <trkpt lat="-37.83921" lon="144.96321"/>
      <trkpt lat="-37.8392" lon="144.96323"/>
      <trkpt lat="-37.83918" lon="144.96327"/>
      <trkpt lat="-37.83916" lon="144.9633"/>
      <trkpt lat="-37.83914" lon="144.96333"/>
      <trkpt lat="-37.83912" lon="144.96335"/>
      <trkpt lat="-37.83911" lon="144.96337"/>
      <trkpt lat="-37.8391" lon="144.96338"/>
      <trkpt lat="-37.83909" lon="144.9634"/>
      <trkpt lat="-37.83908" lon="144.96342"/>
      <trkpt lat="-37.83906" lon="144.96344"/>
      <trkpt lat="-37.83905" lon="144.96346"/>
      <trkpt lat="-37.83918" lon="144.96349"/>
      <trkpt lat="-37.83932" lon="144.96355"/>
      <trkpt lat="-37.83942" lon="144.96359"/>
      <trkpt lat="-37.83948" lon="144.96356"/>
      <trkpt lat="-37.83966" lon="144.96363"/>
      <trkpt lat="-37.83985" lon="144.96367"/>
      <trkpt lat="-37.83991" lon="144.96368"/>
      <trkpt lat="-37.83992" lon="144.96368"/>
      <trkpt lat="-37.83998" lon="144.96368"/>
      <trkpt lat="-37.84019" lon="144.96369"/>
      <trkpt lat="-37.84023" lon="144.96369"/>
      <trkpt lat="-37.84026" lon="144.96369"/>
      <trkpt lat="-37.84031" lon="144.96369"/>
      <trkpt lat="-37.84033" lon="144.96369"/>
      <trkpt lat="-37.84036" lon="144.96369"/>
      <trkpt lat="-37.84039" lon="144.96368"/>
      <trkpt lat="-37.84045" lon="144.96366"/>
      <trkpt lat="-37.8405" lon="144.96364"/>
      <trkpt lat="-37.84053" lon="144.96362"/>
      <trkpt lat="-37.84057" lon="144.9636"/>
      <trkpt lat="-37.84062" lon="144.96357"/>
      <trkpt lat="-37.84067" lon="144.96354"/>
      <trkpt lat="-37.84072" lon="144.9635"/>
      <trkpt lat="-37.84077" lon="144.96347"/>
      <trkpt lat="-37.84098" lon="144.96336"/>
      <trkpt lat="-37.84102" lon="144.96334"/>
      <trkpt lat="-37.84107" lon="144.96333"/>
      <trkpt lat="-37.84114" lon="144.96332"/>
      <trkpt lat="-37.84115" lon="144.96333"/>
      <trkpt lat="-37.84117" lon="144.96333"/>
      <trkpt lat="-37.84118" lon="144.96335"/>
      <trkpt lat="-37.8412" lon="144.96337"/>
      <trkpt lat="-37.84122" lon="144.96339"/>
      <trkpt lat="-37.84126" lon="144.96344"/>
      <trkpt lat="-37.84128" lon="144.96348"/>
      <trkpt lat="-37.84129" lon="144.96353"/>
      <trkpt lat="-37.84132" lon="144.96362"/>
      <trkpt lat="-37.84145" lon="144.96356"/>
      <trkpt lat="-37.84138" lon="144.96333"/>
      <trkpt lat="-37.84152" lon="144.96327"/>
      <trkpt lat="-37.84166" lon="144.9632"/>
      <trkpt lat="-37.84191" lon="144.96309"/>
      <trkpt lat="-37.84196" lon="144.9631"/>
      <trkpt lat="-37.84191" lon="144.96309"/>
      <trkpt lat="-37.84166" lon="144.9632"/>
      <trkpt lat="-37.84152" lon="144.96327"/>
      <trkpt lat="-37.84138" lon="144.96333"/>
      <trkpt lat="-37.84145" lon="144.96356"/>
      <trkpt lat="-37.84132" lon="144.96362"/>
      <trkpt lat="-37.84129" lon="144.96353"/>
      <trkpt lat="-37.84128" lon="144.96348"/>
      <trkpt lat="-37.84126" lon="144.96344"/>
      <trkpt lat="-37.84123" lon="144.96338"/>
      <trkpt lat="-37.84122" lon="144.96334"/>
      <trkpt lat="-37.84121" lon="144.9633"/>
      <trkpt lat="-37.84121" lon="144.96328"/>
      <trkpt lat="-37.84122" lon="144.96327"/>
      <trkpt lat="-37.84121" lon="144.96325"/>
      <trkpt lat="-37.84121" lon="144.96324"/>
      <trkpt lat="-37.84121" lon="144.96323"/>
      <trkpt lat="-37.8412" lon="144.96322"/>
      <trkpt lat="-37.84119" lon="144.96321"/>
      <trkpt lat="-37.84118" lon="144.9632"/>
      <trkpt lat="-37.84117" lon="144.9632"/>
      <trkpt lat="-37.84115" lon="144.9632"/>
      <trkpt lat="-37.84114" lon="144.96321"/>
      <trkpt lat="-37.84113" lon="144.96322"/>
      <trkpt lat="-37.84112" lon="144.96323"/>
      <trkpt lat="-37.84108" lon="144.96327"/>
      <trkpt lat="-37.84105" lon="144.96331"/>
      <trkpt lat="-37.84102" lon="144.96334"/>
      <trkpt lat="-37.84098" lon="144.96336"/>
      <trkpt lat="-37.84077" lon="144.96347"/>
      <trkpt lat="-37.84072" lon="144.9635"/>
      <trkpt lat="-37.84067" lon="144.96354"/>
      <trkpt lat="-37.84062" lon="144.96357"/>
      <trkpt lat="-37.84057" lon="144.9636"/>
      <trkpt lat="-37.84053" lon="144.96362"/>
      <trkpt lat="-37.8405" lon="144.96364"/>
      <trkpt lat="-37.84045" lon="144.96366"/>
      <trkpt lat="-37.84039" lon="144.96368"/>
      <trkpt lat="-37.84036" lon="144.96369"/>
      <trkpt lat="-37.84033" lon="144.96369"/>
      <trkpt lat="-37.84031" lon="144.96369"/>
      <trkpt lat="-37.84026" lon="144.96369"/>
      <trkpt lat="-37.84023" lon="144.96369"/>
      <trkpt lat="-37.84019" lon="144.96369"/>
      <trkpt lat="-37.83998" lon="144.96368"/>
      <trkpt lat="-37.83992" lon="144.96368"/>
      <trkpt lat="-37.83991" lon="144.96368"/>
      <trkpt lat="-37.83985" lon="144.96367"/>
      <trkpt lat="-37.83966" lon="144.96363"/>
      <trkpt lat="-37.83948" lon="144.96356"/>
      <trkpt lat="-37.83944" lon="144.96349"/>
      <trkpt lat="-37.83942" lon="144.96348"/>
      <trkpt lat="-37.83938" lon="144.96346"/>
      <trkpt lat="-37.83926" lon="144.96341"/>
      <trkpt lat="-37.83919" lon="144.96338"/>
      <trkpt lat="-37.83912" lon="144.96335"/>
      <trkpt lat="-37.83911" lon="144.96337"/>
      <trkpt lat="-37.8391" lon="144.96338"/>
      <trkpt lat="-37.83909" lon="144.9634"/>
      <trkpt lat="-37.83908" lon="144.96342"/>
      <trkpt lat="-37.83906" lon="144.96344"/>
      <trkpt lat="-37.83905" lon="144.96346"/>
      <trkpt lat="-37.83902" lon="144.96352"/>
      <trkpt lat="-37.83899" lon="144.96357"/>
      <trkpt lat="-37.83894" lon="144.96368"/>
      <trkpt lat="-37.83877" lon="144.96399"/>
      <trkpt lat="-37.83876" lon="144.96403"/>
      <trkpt lat="-37.83855" lon="144.96445"/>
      <trkpt lat="-37.83847" lon="144.96463"/>
      <trkpt lat="-37.83842" lon="144.96475"/>
      <trkpt lat="-37.83838" lon="144.96485"/>
      <trkpt lat="-37.83834" lon="144.96495"/>
      <trkpt lat="-37.83829" lon="144.96508"/>
      <trkpt lat="-37.83819" lon="144.96532"/>
      <trkpt lat="-37.83812" lon="144.96538"/>
      <trkpt lat="-37.83807" lon="144.9655"/>
      <trkpt lat="-37.83805" lon="144.96555"/>
      <trkpt lat="-37.83801" lon="144.96564"/>
      <trkpt lat="-37.83797" lon="144.96575"/>
      <trkpt lat="-37.83799" lon="144.96582"/>
      <trkpt lat="-37.83796" lon="144.96589"/>
      <trkpt lat="-37.83786" lon="144.96617"/>
      <trkpt lat="-37.83771" lon="144.96659"/>
      <trkpt lat="-37.83765" lon="144.96678"/>
      <trkpt lat="-37.83755" lon="144.96707"/>
      <trkpt lat="-37.83751" lon="144.96722"/>
      <trkpt lat="-37.8375" lon="144.96726"/>
      <trkpt lat="-37.83746" lon="144.9674"/>
      <trkpt lat="-37.8374" lon="144.96748"/>
      <trkpt lat="-37.83737" lon="144.96754"/>
      <trkpt lat="-37.83736" lon="144.96755"/>
      <trkpt lat="-37.8374" lon="144.96767"/>
      <trkpt lat="-37.83741" lon="144.96769"/>
      <trkpt lat="-37.83742" lon="144.96771"/>
      <trkpt lat="-37.83742" lon="144.96772"/>
      <trkpt lat="-37.83743" lon="144.96774"/>
      <trkpt lat="-37.83744" lon="144.96775"/>
      <trkpt lat="-37.83745" lon="144.96777"/>
      <trkpt lat="-37.83747" lon="144.96778"/>
      <trkpt lat="-37.83748" lon="144.96779"/>
      <trkpt lat="-37.83751" lon="144.96782"/>
      <trkpt lat="-37.83755" lon="144.96784"/>
      <trkpt lat="-37.83759" lon="144.96785"/>
      <trkpt lat="-37.83762" lon="144.96787"/>
      <trkpt lat="-37.83766" lon="144.96789"/>
      <trkpt lat="-37.83775" lon="144.96793"/>
      <trkpt lat="-37.8379" lon="144.96795"/>
      <trkpt lat="-37.83792" lon="144.96796"/>
      <trkpt lat="-37.83798" lon="144.96801"/>
      <trkpt lat="-37.83805" lon="144.96807"/>
      <trkpt lat="-37.83811" lon="144.96813"/>
      <trkpt lat="-37.83817" lon="144.9682"/>
      <trkpt lat="-37.8382" lon="144.96824"/>
      <trkpt lat="-37.83823" lon="144.96828"/>
      <trkpt lat="-37.83826" lon="144.96832"/>
      <trkpt lat="-37.83829" lon="144.96837"/>
      <trkpt lat="-37.83831" lon="144.9684"/>
      <trkpt lat="-37.83833" lon="144.96843"/>
      <trkpt lat="-37.83835" lon="144.96847"/>
      <trkpt lat="-37.83837" lon="144.96852"/>
      <trkpt lat="-37.83839" lon="144.96856"/>
      <trkpt lat="-37.83841" lon="144.9686"/>
      <trkpt lat="-37.83843" lon="144.96866"/>
      <trkpt lat="-37.83845" lon="144.96872"/>
      <trkpt lat="-37.83846" lon="144.96877"/>
      <trkpt lat="-37.83848" lon="144.96883"/>
      <trkpt lat="-37.83849" lon="144.9689"/>
      <trkpt lat="-37.8385" lon="144.96896"/>
      <trkpt lat="-37.83852" lon="144.96912"/>
      <trkpt lat="-37.83853" lon="144.96931"/>
      <trkpt lat="-37.83854" lon="144.96945"/>
      <trkpt lat="-37.83854" lon="144.96956"/>
      <trkpt lat="-37.83856" lon="144.9697"/>
      <trkpt lat="-37.83858" lon="144.96984"/>
      <trkpt lat="-37.83861" lon="144.96997"/>
      <trkpt lat="-37.83864" lon="144.97008"/>
      <trkpt lat="-37.83869" lon="144.97022"/>
      <trkpt lat="-37.83873" lon="144.97035"/>
      <trkpt lat="-37.83878" lon="144.97044"/>
      <trkpt lat="-37.83887" lon="144.97061"/>
      <trkpt lat="-37.83899" lon="144.9708"/>
      <trkpt lat="-37.8391" lon="144.97094"/>
      <trkpt lat="-37.83923" lon="144.97108"/>
      <trkpt lat="-37.83933" lon="144.97116"/>
      <trkpt lat="-37.83943" lon="144.97124"/>
      <trkpt lat="-37.83952" lon="144.9713"/>
      <trkpt lat="-37.83966" lon="144.97138"/>
      <trkpt lat="-37.83976" lon="144.97142"/>
      <trkpt lat="-37.83988" lon="144.97146"/>
      <trkpt lat="-37.8402" lon="144.97154"/>
      <trkpt lat="-37.84102" lon="144.97174"/>
      <trkpt lat="-37.84124" lon="144.97177"/>
      <trkpt lat="-37.84139" lon="144.97177"/>
      <trkpt lat="-37.84148" lon="144.97177"/>
      <trkpt lat="-37.84155" lon="144.97176"/>
      <trkpt lat="-37.84164" lon="144.97175"/>
      <trkpt lat="-37.84175" lon="144.97173"/>
      <trkpt lat="-37.84183" lon="144.97171"/>
      <trkpt lat="-37.84195" lon="144.97167"/>
      <trkpt lat="-37.84206" lon="144.97163"/>
      <trkpt lat="-37.84216" lon="144.97159"/>
      <trkpt lat="-37.84231" lon="144.97153"/>
      <trkpt lat="-37.84241" lon="144.97148"/>
      <trkpt lat="-37.84249" lon="144.97144"/>
      <trkpt lat="-37.84257" lon="144.97139"/>
      <trkpt lat="-37.84265" lon="144.97135"/>
      <trkpt lat="-37.84274" lon="144.97131"/>
      <trkpt lat="-37.8428" lon="144.97128"/>
      <trkpt lat="-37.8429" lon="144.97123"/>
      <trkpt lat="-37.84304" lon="144.97115"/>
      <trkpt lat="-37.84334" lon="144.97101"/>
      <trkpt lat="-37.84365" lon="144.97085"/>
      <trkpt lat="-37.84385" lon="144.97078"/>
      <trkpt lat="-37.84416" lon="144.97067"/>
      <trkpt lat="-37.84429" lon="144.97064"/>
      <trkpt lat="-37.84438" lon="144.97063"/>
      <trkpt lat="-37.84451" lon="144.97062"/>
      <trkpt lat="-37.84471" lon="144.97061"/>
      <trkpt lat="-37.84483" lon="144.97061"/>
      <trkpt lat="-37.84492" lon="144.97062"/>
      <trkpt lat="-37.84508" lon="144.97063"/>
      <trkpt lat="-37.84518" lon="144.97064"/>
      <trkpt lat="-37.84537" lon="144.97068"/>
      <trkpt lat="-37.84548" lon="144.97071"/>
      <trkpt lat="-37.84556" lon="144.97074"/>
      <trkpt lat="-37.84568" lon="144.97078"/>
      <trkpt lat="-37.84589" lon="144.97086"/>
      <trkpt lat="-37.84604" lon="144.97094"/>
      <trkpt lat="-37.8462" lon="144.97104"/>
      <trkpt lat="-37.84637" lon="144.97116"/>
      <trkpt lat="-37.84655" lon="144.97129"/>
      <trkpt lat="-37.8467" lon="144.97142"/>
      <trkpt lat="-37.84686" lon="144.97157"/>
      <trkpt lat="-37.84699" lon="144.97172"/>
      <trkpt lat="-37.84712" lon="144.97189"/>
      <trkpt lat="-37.84734" lon="144.97221"/>
      <trkpt lat="-37.84757" lon="144.97254"/>
      <trkpt lat="-37.8479" lon="144.97302"/>
      <trkpt lat="-37.84798" lon="144.97319"/>
      <trkpt lat="-37.84803" lon="144.97331"/>
      <trkpt lat="-37.84806" lon="144.97341"/>
      <trkpt lat="-37.84808" lon="144.97349"/>
      <trkpt lat="-37.8481" lon="144.97366"/>
      <trkpt lat="-37.8481" lon="144.97384"/>
      <trkpt lat="-37.8481" lon="144.97405"/>
      <trkpt lat="-37.84809" lon="144.97413"/>
      <trkpt lat="-37.84809" lon="144.97422"/>
      <trkpt lat="-37.84808" lon="144.97448"/>
      <trkpt lat="-37.84808" lon="144.9746"/>
      <trkpt lat="-37.84809" lon="144.97472"/>
      <trkpt lat="-37.84811" lon="144.97481"/>
      <trkpt lat="-37.84814" lon="144.97489"/>
      <trkpt lat="-37.84819" lon="144.97499"/>
      <trkpt lat="-37.84827" lon="144.97515"/>
      <trkpt lat="-37.84842" lon="144.97538"/>
      <trkpt lat="-37.84878" lon="144.97591"/>
      <trkpt lat="-37.84902" lon="144.97626"/>
      <trkpt lat="-37.84918" lon="144.97651"/>
      <trkpt lat="-37.84927" lon="144.97664"/>
      <trkpt lat="-37.84937" lon="144.9768"/>
      <trkpt lat="-37.84942" lon="144.97686"/>
      <trkpt lat="-37.84951" lon="144.97697"/>
      <trkpt lat="-37.84958" lon="144.97704"/>
      <trkpt lat="-37.84965" lon="144.97712"/>
      <trkpt lat="-37.84966" lon="144.97713"/>
      <trkpt lat="-37.84971" lon="144.97718"/>
      <trkpt lat="-37.84975" lon="144.97723"/>
      <trkpt lat="-37.84983" lon="144.9773"/>
      <trkpt lat="-37.84992" lon="144.97737"/>
      <trkpt lat="-37.85001" lon="144.97744"/>
      <trkpt lat="-37.85012" lon="144.9775"/>
      <trkpt lat="-37.85027" lon="144.97759"/>
      <trkpt lat="-37.85039" lon="144.97765"/>
      <trkpt lat="-37.85054" lon="144.97771"/>
      <trkpt lat="-37.8507" lon="144.97777"/>
      <trkpt lat="-37.8509" lon="144.97785"/>
      <trkpt lat="-37.85121" lon="144.97796"/>
      <trkpt lat="-37.85185" lon="144.97819"/>
      <trkpt lat="-37.85196" lon="144.97824"/>
      <trkpt lat="-37.8521" lon="144.97829"/>
      <trkpt lat="-37.85227" lon="144.97835"/>
      <trkpt lat="-37.85262" lon="144.97847"/>
      <trkpt lat="-37.85277" lon="144.97851"/>
      <trkpt lat="-37.8529" lon="144.97856"/>
      <trkpt lat="-37.85315" lon="144.97861"/>
      <trkpt lat="-37.85337" lon="144.97866"/>
      <trkpt lat="-37.85355" lon="144.97768"/>
      <trkpt lat="-37.85361" lon="144.97732"/>
      <trkpt lat="-37.85368" lon="144.97701"/>
      <trkpt lat="-37.85371" lon="144.97686"/>
      <trkpt lat="-37.85374" lon="144.97672"/>
      <trkpt lat="-37.85378" lon="144.97657"/>
      <trkpt lat="-37.85381" lon="144.97645"/>
      <trkpt lat="-37.85383" lon="144.97635"/>
      <trkpt lat="-37.85388" lon="144.97615"/>
      <trkpt lat="-37.85389" lon="144.97609"/>
      <trkpt lat="-37.85389" lon="144.97604"/>
      <trkpt lat="-37.8539" lon="144.976"/>
      <trkpt lat="-37.85389" lon="144.97592"/>
      <trkpt lat="-37.85389" lon="144.97587"/>
      <trkpt lat="-37.85388" lon="144.97582"/>
      <trkpt lat="-37.85386" lon="144.97575"/>
      <trkpt lat="-37.85384" lon="144.97569"/>
      <trkpt lat="-37.85381" lon="144.97561"/>
      <trkpt lat="-37.85378" lon="144.97555"/>
      <trkpt lat="-37.85375" lon="144.97549"/>
      <trkpt lat="-37.85371" lon="144.97545"/>
      <trkpt lat="-37.85366" lon="144.97539"/>
      <trkpt lat="-37.8536" lon="144.97533"/>
      <trkpt lat="-37.85264" lon="144.97467"/>
      <trkpt lat="-37.85225" lon="144.97437"/>
      <trkpt lat="-37.85216" lon="144.97429"/>
      <trkpt lat="-37.85211" lon="144.97424"/>
      <trkpt lat="-37.85208" lon="144.9742"/>
      <trkpt lat="-37.85207" lon="144.97416"/>
      <trkpt lat="-37.85206" lon="144.97411"/>
      <trkpt lat="-37.85206" lon="144.97406"/>
      <trkpt lat="-37.85208" lon="144.97403"/>
      <trkpt lat="-37.85209" lon="144.974"/>
      <trkpt lat="-37.85214" lon="144.97394"/>
      <trkpt lat="-37.8524" lon="144.97365"/>
      <trkpt lat="-37.8526" lon="144.97343"/>
      <trkpt lat="-37.85268" lon="144.97334"/>
      <trkpt lat="-37.85274" lon="144.97327"/>
      <trkpt lat="-37.85278" lon="144.97322"/>
      <trkpt lat="-37.85281" lon="144.97315"/>
      <trkpt lat="-37.85283" lon="144.97307"/>
      <trkpt lat="-37.85286" lon="144.97298"/>
      <trkpt lat="-37.85288" lon="144.97287"/>
      <trkpt lat="-37.85288" lon="144.97277"/>
      <trkpt lat="-37.85287" lon="144.97267"/>
      <trkpt lat="-37.85284" lon="144.97257"/>
      <trkpt lat="-37.85281" lon="144.97248"/>
      <trkpt lat="-37.85278" lon="144.97241"/>
      <trkpt lat="-37.85282" lon="144.97237"/>
      <trkpt lat="-37.85296" lon="144.97226"/>
      <trkpt lat="-37.85302" lon="144.97221"/>
      <trkpt lat="-37.85307" lon="144.97218"/>
      <trkpt lat="-37.85302" lon="144.97221"/>
      <trkpt lat="-37.85296" lon="144.97226"/>
      <trkpt lat="-37.85282" lon="144.97237"/>
      <trkpt lat="-37.85278" lon="144.97241"/>
      <trkpt lat="-37.85281" lon="144.97248"/>
      <trkpt lat="-37.85284" lon="144.97257"/>
      <trkpt lat="-37.85287" lon="144.97267"/>
      <trkpt lat="-37.85288" lon="144.97277"/>
      <trkpt lat="-37.85288" lon="144.97287"/>
      <trkpt lat="-37.85286" lon="144.97298"/>
      <trkpt lat="-37.85283" lon="144.97307"/>
      <trkpt lat="-37.85281" lon="144.97315"/>
      <trkpt lat="-37.85278" lon="144.97322"/>
      <trkpt lat="-37.85274" lon="144.97327"/>
      <trkpt lat="-37.85268" lon="144.97334"/>
      <trkpt lat="-37.8526" lon="144.97343"/>
      <trkpt lat="-37.8524" lon="144.97365"/>
      <trkpt lat="-37.85214" lon="144.97394"/>
      <trkpt lat="-37.85209" lon="144.974"/>
      <trkpt lat="-37.85208" lon="144.97403"/>
      <trkpt lat="-37.85206" lon="144.97406"/>
      <trkpt lat="-37.85206" lon="144.97411"/>
      <trkpt lat="-37.85207" lon="144.97416"/>
      <trkpt lat="-37.85208" lon="144.9742"/>
      <trkpt lat="-37.85211" lon="144.97424"/>
      <trkpt lat="-37.85216" lon="144.97429"/>
      <trkpt lat="-37.85225" lon="144.97437"/>
      <trkpt lat="-37.85264" lon="144.97467"/>
      <trkpt lat="-37.8536" lon="144.97533"/>
      <trkpt lat="-37.85366" lon="144.97539"/>
      <trkpt lat="-37.85371" lon="144.97545"/>
      <trkpt lat="-37.85375" lon="144.97549"/>
      <trkpt lat="-37.85378" lon="144.97555"/>
      <trkpt lat="-37.85381" lon="144.97561"/>
      <trkpt lat="-37.85384" lon="144.97569"/>
      <trkpt lat="-37.85386" lon="144.97575"/>
      <trkpt lat="-37.85388" lon="144.97582"/>
      <trkpt lat="-37.85389" lon="144.97587"/>
      <trkpt lat="-37.85389" lon="144.97592"/>
      <trkpt lat="-37.85396" lon="144.97591"/>
      <trkpt lat="-37.85404" lon="144.9759"/>
      <trkpt lat="-37.85431" lon="144.97595"/>
      <trkpt lat="-37.85448" lon="144.97598"/>
      <trkpt lat="-37.85449" lon="144.97603"/>
      <trkpt lat="-37.8545" lon="144.97608"/>
      <trkpt lat="-37.85451" lon="144.97612"/>
      <trkpt lat="-37.85452" lon="144.97616"/>
      <trkpt lat="-37.85455" lon="144.9762"/>
      <trkpt lat="-37.85471" lon="144.9765"/>
      <trkpt lat="-37.85533" lon="144.97747"/>
      <trkpt lat="-37.85596" lon="144.97841"/>
      <trkpt lat="-37.856" lon="144.97846"/>
      <trkpt lat="-37.85601" lon="144.97849"/>
      <trkpt lat="-37.85602" lon="144.97852"/>
      <trkpt lat="-37.85602" lon="144.97855"/>
      <trkpt lat="-37.85602" lon="144.97858"/>
      <trkpt lat="-37.85602" lon="144.97863"/>
      <trkpt lat="-37.85601" lon="144.97873"/>
      <trkpt lat="-37.85601" lon="144.97877"/>
      <trkpt lat="-37.85598" lon="144.97892"/>
      <trkpt lat="-37.85627" lon="144.97905"/>
      <trkpt lat="-37.85645" lon="144.97914"/>
      <trkpt lat="-37.85657" lon="144.9792"/>
      <trkpt lat="-37.85667" lon="144.97926"/>
      <trkpt lat="-37.85673" lon="144.9793"/>
      <trkpt lat="-37.8568" lon="144.97935"/>
      <trkpt lat="-37.8569" lon="144.97942"/>
      <trkpt lat="-37.85705" lon="144.97956"/>
      <trkpt lat="-37.8572" lon="144.97969"/>
      <trkpt lat="-37.85733" lon="144.97982"/>
      <trkpt lat="-37.85754" lon="144.98004"/>
      <trkpt lat="-37.85768" lon="144.98018"/>
      <trkpt lat="-37.85779" lon="144.98029"/>
      <trkpt lat="-37.85782" lon="144.98031"/>
      <trkpt lat="-37.85789" lon="144.98037"/>
      <trkpt lat="-37.85794" lon="144.98041"/>
      <trkpt lat="-37.85798" lon="144.98043"/>
      <trkpt lat="-37.85804" lon="144.98046"/>
      <trkpt lat="-37.8581" lon="144.98034"/>
      <trkpt lat="-37.85818" lon="144.98019"/>
      <trkpt lat="-37.85822" lon="144.98013"/>
      <trkpt lat="-37.85832" lon="144.97995"/>
      <trkpt lat="-37.85878" lon="144.97916"/>
      <trkpt lat="-37.85896" lon="144.97886"/>
      <trkpt lat="-37.85933" lon="144.97825"/>
      <trkpt lat="-37.85954" lon="144.97789"/>
      <trkpt lat="-37.85969" lon="144.97765"/>
      <trkpt lat="-37.85971" lon="144.97762"/>
      <trkpt lat="-37.85972" lon="144.97761"/>
      <trkpt lat="-37.85977" lon="144.97753"/>
      <trkpt lat="-37.8598" lon="144.97747"/>
      <trkpt lat="-37.85982" lon="144.97743"/>
      <trkpt lat="-37.85982" lon="144.97739"/>
      <trkpt lat="-37.85981" lon="144.97734"/>
      <trkpt lat="-37.8598" lon="144.97728"/>
      <trkpt lat="-37.8598" lon="144.97727"/>
      <trkpt lat="-37.8598" lon="144.97724"/>
      <trkpt lat="-37.85979" lon="144.97723"/>
      <trkpt lat="-37.85979" lon="144.97719"/>
      <trkpt lat="-37.85977" lon="144.97713"/>
      <trkpt lat="-37.85975" lon="144.97709"/>
      <trkpt lat="-37.85974" lon="144.97707"/>
      <trkpt lat="-37.85974" lon="144.97706"/>
      <trkpt lat="-37.85972" lon="144.97704"/>
      <trkpt lat="-37.85971" lon="144.97702"/>
      <trkpt lat="-37.85933" lon="144.97666"/>
      <trkpt lat="-37.85891" lon="144.97626"/>
      <trkpt lat="-37.85887" lon="144.97622"/>
      <trkpt lat="-37.85874" lon="144.9761"/>
      <trkpt lat="-37.85862" lon="144.97599"/>
      <trkpt lat="-37.85852" lon="144.97588"/>
      <trkpt lat="-37.85844" lon="144.9758"/>
      <trkpt lat="-37.85837" lon="144.97571"/>
      <trkpt lat="-37.8582" lon="144.97552"/>
      <trkpt lat="-37.85774" lon="144.97501"/>
      <trkpt lat="-37.85756" lon="144.97482"/>
      <trkpt lat="-37.85751" lon="144.97476"/>
      <trkpt lat="-37.85734" lon="144.97456"/>
      <trkpt lat="-37.85717" lon="144.97438"/>
      <trkpt lat="-37.85672" lon="144.97388"/>
      <trkpt lat="-37.85701" lon="144.97343"/>
      <trkpt lat="-37.85726" lon="144.97301"/>
      <trkpt lat="-37.85733" lon="144.97291"/>
      <trkpt lat="-37.85738" lon="144.97283"/>
      <trkpt lat="-37.85738" lon="144.97196"/>
      <trkpt lat="-37.85739" lon="144.97139"/>
      <trkpt lat="-37.85742" lon="144.97131"/>
      <trkpt lat="-37.85743" lon="144.97127"/>
      <trkpt lat="-37.85744" lon="144.97125"/>
      <trkpt lat="-37.85746" lon="144.97123"/>
      <trkpt lat="-37.85747" lon="144.97121"/>
      <trkpt lat="-37.85747" lon="144.9712"/>
      <trkpt lat="-37.8575" lon="144.97118"/>
      <trkpt lat="-37.85757" lon="144.97111"/>
      <trkpt lat="-37.85758" lon="144.9711"/>
      <trkpt lat="-37.85754" lon="144.97102"/>
      <trkpt lat="-37.85743" lon="144.97081"/>
      <trkpt lat="-37.85741" lon="144.97076"/>
      <trkpt lat="-37.85738" lon="144.97072"/>
      <trkpt lat="-37.8574" lon="144.97071"/>
      <trkpt lat="-37.85741" lon="144.97069"/>
      <trkpt lat="-37.85742" lon="144.97066"/>
      <trkpt lat="-37.85742" lon="144.97063"/>
      <trkpt lat="-37.85742" lon="144.9706"/>
      <trkpt lat="-37.85741" lon="144.97057"/>
      <trkpt lat="-37.8574" lon="144.97055"/>
      <trkpt lat="-37.85738" lon="144.97053"/>
      <trkpt lat="-37.85736" lon="144.97052"/>
      <trkpt lat="-37.85734" lon="144.97051"/>
      <trkpt lat="-37.85732" lon="144.97051"/>
      <trkpt lat="-37.8573" lon="144.97052"/>
      <trkpt lat="-37.85728" lon="144.97053"/>
      <trkpt lat="-37.85723" lon="144.97042"/>
      <trkpt lat="-37.85597" lon="144.96802"/>
      <trkpt lat="-37.85723" lon="144.97042"/>
      <trkpt lat="-37.85728" lon="144.97053"/>
      <trkpt lat="-37.85727" lon="144.97054"/>
      <trkpt lat="-37.85726" lon="144.97056"/>
      <trkpt lat="-37.85725" lon="144.97059"/>
      <trkpt lat="-37.85724" lon="144.97062"/>
      <trkpt lat="-37.8572" lon="144.97068"/>
      <trkpt lat="-37.85716" lon="144.97072"/>
      <trkpt lat="-37.85708" lon="144.97084"/>
      <trkpt lat="-37.85686" lon="144.97102"/>
      <trkpt lat="-37.85692" lon="144.97114"/>
      <trkpt lat="-37.85693" lon="144.97117"/>
      <trkpt lat="-37.85694" lon="144.9712"/>
      <trkpt lat="-37.85694" lon="144.97123"/>
      <trkpt lat="-37.85694" lon="144.97126"/>
      <trkpt lat="-37.85694" lon="144.97129"/>
      <trkpt lat="-37.85693" lon="144.97135"/>
      <trkpt lat="-37.85693" lon="144.97138"/>
      <trkpt lat="-37.85693" lon="144.97142"/>
      <trkpt lat="-37.85693" lon="144.97144"/>
      <trkpt lat="-37.85694" lon="144.97148"/>
      <trkpt lat="-37.85695" lon="144.9715"/>
      <trkpt lat="-37.85696" lon="144.97153"/>
      <trkpt lat="-37.85702" lon="144.97163"/>
      <trkpt lat="-37.85704" lon="144.97167"/>
      <trkpt lat="-37.85711" lon="144.97173"/>
      <trkpt lat="-37.85727" lon="144.97186"/>
      <trkpt lat="-37.85738" lon="144.97196"/>
      <trkpt lat="-37.85738" lon="144.97283"/>
      <trkpt lat="-37.85733" lon="144.97291"/>
      <trkpt lat="-37.85726" lon="144.97301"/>
      <trkpt lat="-37.85701" lon="144.97343"/>
      <trkpt lat="-37.85672" lon="144.97388"/>
      <trkpt lat="-37.85667" lon="144.97398"/>
      <trkpt lat="-37.85704" lon="144.97439"/>
      <trkpt lat="-37.85737" lon="144.97476"/>
      <trkpt lat="-37.8574" lon="144.97479"/>
      <trkpt lat="-37.85745" lon="144.97484"/>
      <trkpt lat="-37.85775" lon="144.97518"/>
      <trkpt lat="-37.85814" lon="144.97562"/>
      <trkpt lat="-37.8582" lon="144.97552"/>
      <trkpt lat="-37.85788" lon="144.97517"/>
      <trkpt lat="-37.85774" lon="144.97501"/>
      <trkpt lat="-37.85756" lon="144.97482"/>
      <trkpt lat="-37.85751" lon="144.97476"/>
      <trkpt lat="-37.85734" lon="144.97456"/>
      <trkpt lat="-37.85717" lon="144.97438"/>
      <trkpt lat="-37.85672" lon="144.97388"/>
      <trkpt lat="-37.85667" lon="144.97398"/>
      <trkpt lat="-37.85704" lon="144.97439"/>
      <trkpt lat="-37.85737" lon="144.97476"/>
      <trkpt lat="-37.8574" lon="144.97479"/>
      <trkpt lat="-37.85745" lon="144.97484"/>
      <trkpt lat="-37.85775" lon="144.97518"/>
      <trkpt lat="-37.85814" lon="144.97562"/>
      <trkpt lat="-37.85847" lon="144.97599"/>
      <trkpt lat="-37.8588" lon="144.97631"/>
      <trkpt lat="-37.85885" lon="144.97635"/>
      <trkpt lat="-37.85933" lon="144.97681"/>
      <trkpt lat="-37.85959" lon="144.97707"/>
      <trkpt lat="-37.85961" lon="144.9771"/>
      <trkpt lat="-37.85963" lon="144.97712"/>
      <trkpt lat="-37.85965" lon="144.97714"/>
      <trkpt lat="-37.85966" lon="144.97716"/>
      <trkpt lat="-37.85967" lon="144.97718"/>
      <trkpt lat="-37.85967" lon="144.97719"/>
      <trkpt lat="-37.85968" lon="144.97721"/>
      <trkpt lat="-37.85969" lon="144.97723"/>
      <trkpt lat="-37.8597" lon="144.97725"/>
      <trkpt lat="-37.8597" lon="144.97728"/>
      <trkpt lat="-37.85971" lon="144.97732"/>
      <trkpt lat="-37.85961" lon="144.97747"/>
      <trkpt lat="-37.85951" lon="144.97765"/>
      <trkpt lat="-37.85948" lon="144.97771"/>
      <trkpt lat="-37.85923" lon="144.97815"/>
      <trkpt lat="-37.85898" lon="144.97857"/>
      <trkpt lat="-37.85887" lon="144.97876"/>
      <trkpt lat="-37.85883" lon="144.97882"/>
      <trkpt lat="-37.8587" lon="144.97905"/>
      <trkpt lat="-37.85845" lon="144.97946"/>
      <trkpt lat="-37.85813" lon="144.97998"/>
      <trkpt lat="-37.85809" lon="144.98004"/>
      <trkpt lat="-37.85805" lon="144.9801"/>
      <trkpt lat="-37.85794" lon="144.9801"/>
      <trkpt lat="-37.85791" lon="144.9801"/>
      <trkpt lat="-37.85787" lon="144.9801"/>
      <trkpt lat="-37.85784" lon="144.98009"/>
      <trkpt lat="-37.8578" lon="144.98011"/>
      <trkpt lat="-37.85767" lon="144.97997"/>
      <trkpt lat="-37.85754" lon="144.97985"/>
      <trkpt lat="-37.85739" lon="144.97971"/>
      <trkpt lat="-37.85708" lon="144.97941"/>
      <trkpt lat="-37.85697" lon="144.97932"/>
      <trkpt lat="-37.85686" lon="144.97923"/>
      <trkpt lat="-37.85665" lon="144.97907"/>
      <trkpt lat="-37.85654" lon="144.97901"/>
      <trkpt lat="-37.85641" lon="144.97893"/>
      <trkpt lat="-37.8563" lon="144.97888"/>
      <trkpt lat="-37.85614" lon="144.97881"/>
      <trkpt lat="-37.85601" lon="144.97877"/>
      <trkpt lat="-37.85585" lon="144.97872"/>
      <trkpt lat="-37.85566" lon="144.97868"/>
      <trkpt lat="-37.85549" lon="144.97866"/>
      <trkpt lat="-37.85532" lon="144.97864"/>
      <trkpt lat="-37.85508" lon="144.97865"/>
      <trkpt lat="-37.85484" lon="144.97871"/>
      <trkpt lat="-37.85459" lon="144.97872"/>
      <trkpt lat="-37.8544" lon="144.97873"/>
      <trkpt lat="-37.85413" lon="144.97873"/>
      <trkpt lat="-37.85392" lon="144.97872"/>
      <trkpt lat="-37.85371" lon="144.9787"/>
      <trkpt lat="-37.85356" lon="144.97869"/>
      <trkpt lat="-37.85337" lon="144.97866"/>
      <trkpt lat="-37.85315" lon="144.97861"/>
      <trkpt lat="-37.8529" lon="144.97856"/>
      <trkpt lat="-37.85277" lon="144.97851"/>
      <trkpt lat="-37.85262" lon="144.97847"/>
      <trkpt lat="-37.85227" lon="144.97835"/>
      <trkpt lat="-37.8521" lon="144.97829"/>
      <trkpt lat="-37.85196" lon="144.97824"/>
      <trkpt lat="-37.85185" lon="144.97819"/>
      <trkpt lat="-37.85121" lon="144.97796"/>
      <trkpt lat="-37.8509" lon="144.97785"/>
      <trkpt lat="-37.8507" lon="144.97777"/>
      <trkpt lat="-37.85054" lon="144.97771"/>
      <trkpt lat="-37.85039" lon="144.97765"/>
      <trkpt lat="-37.85027" lon="144.97759"/>
      <trkpt lat="-37.85012" lon="144.9775"/>
      <trkpt lat="-37.85001" lon="144.97744"/>
      <trkpt lat="-37.84992" lon="144.97737"/>
      <trkpt lat="-37.84983" lon="144.9773"/>
      <trkpt lat="-37.84975" lon="144.97723"/>
      <trkpt lat="-37.84971" lon="144.97718"/>
      <trkpt lat="-37.84966" lon="144.97713"/>
      <trkpt lat="-37.84965" lon="144.97712"/>
      <trkpt lat="-37.84958" lon="144.97704"/>
      <trkpt lat="-37.84951" lon="144.97697"/>
      <trkpt lat="-37.84942" lon="144.97686"/>
      <trkpt lat="-37.84937" lon="144.9768"/>
      <trkpt lat="-37.84932" lon="144.97673"/>
      <trkpt lat="-37.84937" lon="144.9768"/>
      <trkpt lat="-37.84942" lon="144.97686"/>
      <trkpt lat="-37.84944" lon="144.97715"/>
      <trkpt lat="-37.84947" lon="144.97773"/>
      <trkpt lat="-37.84947" lon="144.97776"/>
      <trkpt lat="-37.84947" lon="144.97786"/>
      <trkpt lat="-37.84937" lon="144.97783"/>
      <trkpt lat="-37.84904" lon="144.97779"/>
      <trkpt lat="-37.8483" lon="144.97753"/>
      <trkpt lat="-37.84824" lon="144.97751"/>
      <trkpt lat="-37.84819" lon="144.97749"/>
      <trkpt lat="-37.84772" lon="144.97732"/>
      <trkpt lat="-37.84746" lon="144.97722"/>
      <trkpt lat="-37.84684" lon="144.977"/>
      <trkpt lat="-37.84648" lon="144.97687"/>
      <trkpt lat="-37.8458" lon="144.97662"/>
      <trkpt lat="-37.84455" lon="144.97617"/>
      <trkpt lat="-37.84388" lon="144.97593"/>
      <trkpt lat="-37.84316" lon="144.97566"/>
      <trkpt lat="-37.84185" lon="144.97519"/>
      <trkpt lat="-37.84103" lon="144.97489"/>
      <trkpt lat="-37.83958" lon="144.97437"/>
      <trkpt lat="-37.83915" lon="144.97421"/>
      <trkpt lat="-37.83913" lon="144.97433"/>
      <trkpt lat="-37.8391" lon="144.97448"/>
      <trkpt lat="-37.83913" lon="144.97433"/>
      <trkpt lat="-37.83915" lon="144.97421"/>
      <trkpt lat="-37.83958" lon="144.97437"/>
      <trkpt lat="-37.83955" lon="144.97448"/>
      <trkpt lat="-37.83953" lon="144.97458"/>
      <trkpt lat="-37.83945" lon="144.97489"/>
      <trkpt lat="-37.83935" lon="144.97533"/>
      <trkpt lat="-37.83934" lon="144.97537"/>
      <trkpt lat="-37.83926" lon="144.97535"/>
      <trkpt lat="-37.83894" lon="144.97523"/>
      <trkpt lat="-37.83872" lon="144.97515"/>
      <trkpt lat="-37.8385" lon="144.97507"/>
      <trkpt lat="-37.83823" lon="144.97497"/>
      <trkpt lat="-37.83817" lon="144.97495"/>
      <trkpt lat="-37.83803" lon="144.97489"/>
      <trkpt lat="-37.83796" lon="144.97487"/>
      <trkpt lat="-37.8379" lon="144.97485"/>
      <trkpt lat="-37.83766" lon="144.97476"/>
      <trkpt lat="-37.83705" lon="144.97454"/>
      <trkpt lat="-37.83671" lon="144.97441"/>
      <trkpt lat="-37.83661" lon="144.97438"/>
      <trkpt lat="-37.83653" lon="144.97435"/>
      <trkpt lat="-37.83656" lon="144.97419"/>
      <trkpt lat="-37.83657" lon="144.97414"/>
      <trkpt lat="-37.83657" lon="144.9741"/>
      <trkpt lat="-37.83657" lon="144.97404"/>
      <trkpt lat="-37.83657" lon="144.974"/>
      <trkpt lat="-37.83657" lon="144.97394"/>
      <trkpt lat="-37.83656" lon="144.97387"/>
      <trkpt lat="-37.83655" lon="144.97381"/>
      <trkpt lat="-37.83653" lon="144.97375"/>
      <trkpt lat="-37.83652" lon="144.97369"/>
      <trkpt lat="-37.8365" lon="144.97363"/>
      <trkpt lat="-37.83648" lon="144.97356"/>
      <trkpt lat="-37.83646" lon="144.97351"/>
      <trkpt lat="-37.83645" lon="144.97347"/>
      <trkpt lat="-37.83635" lon="144.97321"/>
      <trkpt lat="-37.83633" lon="144.97315"/>
      <trkpt lat="-37.8363" lon="144.97309"/>
      <trkpt lat="-37.83626" lon="144.97301"/>
      <trkpt lat="-37.83622" lon="144.97295"/>
      <trkpt lat="-37.83619" lon="144.9729"/>
      <trkpt lat="-37.83614" lon="144.97284"/>
      <trkpt lat="-37.83612" lon="144.97282"/>
      <trkpt lat="-37.83607" lon="144.97275"/>
      <trkpt lat="-37.836" lon="144.97264"/>
      <trkpt lat="-37.83595" lon="144.97255"/>
      <trkpt lat="-37.83581" lon="144.97225"/>
      <trkpt lat="-37.83574" lon="144.97212"/>
      <trkpt lat="-37.83556" lon="144.97174"/>
      <trkpt lat="-37.83543" lon="144.97151"/>
      <trkpt lat="-37.83535" lon="144.97134"/>
      <trkpt lat="-37.83528" lon="144.97122"/>
      <trkpt lat="-37.83526" lon="144.97119"/>
      <trkpt lat="-37.83522" lon="144.97112"/>
      <trkpt lat="-37.83514" lon="144.97099"/>
      <trkpt lat="-37.835" lon="144.97108"/>
      <trkpt lat="-37.83491" lon="144.97114"/>
      <trkpt lat="-37.83479" lon="144.97122"/>
      <trkpt lat="-37.83469" lon="144.97131"/>
      <trkpt lat="-37.83458" lon="144.97137"/>
      <trkpt lat="-37.83442" lon="144.97147"/>
      <trkpt lat="-37.83428" lon="144.97154"/>
      <trkpt lat="-37.83416" lon="144.97159"/>
      <trkpt lat="-37.83391" lon="144.97165"/>
      <trkpt lat="-37.83351" lon="144.97174"/>
      <trkpt lat="-37.83347" lon="144.97175"/>
      <trkpt lat="-37.83331" lon="144.97174"/>
      <trkpt lat="-37.83322" lon="144.97175"/>
      <trkpt lat="-37.83315" lon="144.97177"/>
      <trkpt lat="-37.8331" lon="144.97179"/>
      <trkpt lat="-37.83304" lon="144.97181"/>
      <trkpt lat="-37.83297" lon="144.97183"/>
      <trkpt lat="-37.8329" lon="144.97185"/>
      <trkpt lat="-37.83281" lon="144.9718"/>
      <trkpt lat="-37.83268" lon="144.97174"/>
      <trkpt lat="-37.83251" lon="144.97168"/>
      <trkpt lat="-37.83249" lon="144.97167"/>
      <trkpt lat="-37.83246" lon="144.97166"/>
      <trkpt lat="-37.83241" lon="144.97164"/>
      <trkpt lat="-37.83239" lon="144.97163"/>
      <trkpt lat="-37.83232" lon="144.97161"/>
      <trkpt lat="-37.83227" lon="144.97159"/>
      <trkpt lat="-37.83219" lon="144.97154"/>
      <trkpt lat="-37.83195" lon="144.97142"/>
      <trkpt lat="-37.83145" lon="144.97124"/>
      <trkpt lat="-37.8313" lon="144.9712"/>
      <trkpt lat="-37.8312" lon="144.97118"/>
      <trkpt lat="-37.83105" lon="144.97117"/>
      <trkpt lat="-37.83091" lon="144.97116"/>
      <trkpt lat="-37.83044" lon="144.97112"/>
      <trkpt lat="-37.83018" lon="144.97111"/>
      <trkpt lat="-37.82997" lon="144.9711"/>
      <trkpt lat="-37.82982" lon="144.9711"/>
      <trkpt lat="-37.82891" lon="144.97111"/>
      <trkpt lat="-37.82884" lon="144.97111"/>
      <trkpt lat="-37.82877" lon="144.97111"/>
      <trkpt lat="-37.82868" lon="144.97112"/>
      <trkpt lat="-37.82863" lon="144.97112"/>
      <trkpt lat="-37.82864" lon="144.97124"/>
      <trkpt lat="-37.82856" lon="144.97124"/>
      <trkpt lat="-37.82829" lon="144.97128"/>
      <trkpt lat="-37.82774" lon="144.97133"/>
      <trkpt lat="-37.82745" lon="144.97136"/>
      <trkpt lat="-37.82728" lon="144.97136"/>
      <trkpt lat="-37.82715" lon="144.97136"/>
      <trkpt lat="-37.82714" lon="144.97141"/>
      <trkpt lat="-37.82714" lon="144.97145"/>
      <trkpt lat="-37.82713" lon="144.97151"/>
      <trkpt lat="-37.82721" lon="144.97151"/>
      <trkpt lat="-37.82737" lon="144.9715"/>
      <trkpt lat="-37.82752" lon="144.97148"/>
      <trkpt lat="-37.82764" lon="144.97147"/>
      <trkpt lat="-37.82777" lon="144.97147"/>
      <trkpt lat="-37.828" lon="144.97146"/>
      <trkpt lat="-37.82824" lon="144.97145"/>
      <trkpt lat="-37.82851" lon="144.97143"/>
      <trkpt lat="-37.82869" lon="144.97141"/>
      <trkpt lat="-37.82886" lon="144.9714"/>
      <trkpt lat="-37.82891" lon="144.97139"/>
      <trkpt lat="-37.82907" lon="144.97136"/>
      <trkpt lat="-37.82919" lon="144.97136"/>
      <trkpt lat="-37.82935" lon="144.97136"/>
      <trkpt lat="-37.8298" lon="144.97138"/>
      <trkpt lat="-37.82983" lon="144.97139"/>
      <trkpt lat="-37.82992" lon="144.9714"/>
      <trkpt lat="-37.82992" lon="144.97134"/>
      <trkpt lat="-37.82993" lon="144.9713"/>
      <trkpt lat="-37.82993" lon="144.97127"/>
      <trkpt lat="-37.82994" lon="144.97123"/>
      <trkpt lat="-37.82997" lon="144.9711"/>
      <trkpt lat="-37.82982" lon="144.9711"/>
      <trkpt lat="-37.82891" lon="144.97111"/>
      <trkpt lat="-37.82884" lon="144.97111"/>
      <trkpt lat="-37.82877" lon="144.97111"/>
      <trkpt lat="-37.82868" lon="144.97112"/>
      <trkpt lat="-37.82863" lon="144.97112"/>
      <trkpt lat="-37.82818" lon="144.97115"/>
      <trkpt lat="-37.82782" lon="144.97119"/>
      <trkpt lat="-37.82762" lon="144.9712"/>
      <trkpt lat="-37.82746" lon="144.97121"/>
      <trkpt lat="-37.8273" lon="144.97122"/>
      <trkpt lat="-37.82677" lon="144.97118"/>
      <trkpt lat="-37.82653" lon="144.97115"/>
      <trkpt lat="-37.82632" lon="144.97112"/>
      <trkpt lat="-37.82613" lon="144.97108"/>
      <trkpt lat="-37.82599" lon="144.97104"/>
      <trkpt lat="-37.82572" lon="144.97097"/>
      <trkpt lat="-37.82535" lon="144.97084"/>
      <trkpt lat="-37.82501" lon="144.97069"/>
      <trkpt lat="-37.8249" lon="144.97064"/>
      <trkpt lat="-37.82483" lon="144.97061"/>
      <trkpt lat="-37.82468" lon="144.97053"/>
      <trkpt lat="-37.82462" lon="144.97063"/>
      <trkpt lat="-37.82413" lon="144.97041"/>
      <trkpt lat="-37.82381" lon="144.97027"/>
      <trkpt lat="-37.82349" lon="144.97012"/>
      <trkpt lat="-37.82346" lon="144.97011"/>
      <trkpt lat="-37.82337" lon="144.97007"/>
      <trkpt lat="-37.82328" lon="144.97002"/>
      <trkpt lat="-37.82321" lon="144.96999"/>
      <trkpt lat="-37.82318" lon="144.96998"/>
      <trkpt lat="-37.82216" lon="144.9695"/>
      <trkpt lat="-37.82209" lon="144.96947"/>
      <trkpt lat="-37.82174" lon="144.96931"/>
      <trkpt lat="-37.82162" lon="144.96925"/>
      <trkpt lat="-37.82142" lon="144.96914"/>
      <trkpt lat="-37.82105" lon="144.96896"/>
      <trkpt lat="-37.82099" lon="144.96893"/>
      <trkpt lat="-37.82046" lon="144.96869"/>
      <trkpt lat="-37.8204" lon="144.96867"/>
      <trkpt lat="-37.8203" lon="144.96864"/>
      <trkpt lat="-37.82024" lon="144.96863"/>
      <trkpt lat="-37.82019" lon="144.96861"/>
      <trkpt lat="-37.82013" lon="144.9686"/>
      <trkpt lat="-37.82008" lon="144.96858"/>
      <trkpt lat="-37.82005" lon="144.96857"/>
      <trkpt lat="-37.82003" lon="144.96856"/>
      <trkpt lat="-37.81999" lon="144.96854"/>
      <trkpt lat="-37.81979" lon="144.96845"/>
      <trkpt lat="-37.81881" lon="144.96801"/>
      <trkpt lat="-37.81876" lon="144.96798"/>
      <trkpt lat="-37.81873" lon="144.96796"/>
      <trkpt lat="-37.8187" lon="144.96794"/>
      <trkpt lat="-37.81868" lon="144.96793"/>
      <trkpt lat="-37.81864" lon="144.9679"/>
      <trkpt lat="-37.81861" lon="144.96788"/>
      <trkpt lat="-37.81859" lon="144.96787"/>
      <trkpt lat="-37.81858" lon="144.96786"/>
      <trkpt lat="-37.81857" lon="144.96785"/>
      <trkpt lat="-37.81856" lon="144.96784"/>
      <trkpt lat="-37.81855" lon="144.96783"/>
      <trkpt lat="-37.81853" lon="144.96782"/>
      <trkpt lat="-37.81849" lon="144.96779"/>
      <trkpt lat="-37.81836" lon="144.96774"/>
      <trkpt lat="-37.81796" lon="144.96755"/>
      <trkpt lat="-37.81789" lon="144.96753"/>
      <trkpt lat="-37.81781" lon="144.96749"/>
      <trkpt lat="-37.8177" lon="144.96745"/>
      <trkpt lat="-37.81766" lon="144.96744"/>
      <trkpt lat="-37.81763" lon="144.96743"/>
      <trkpt lat="-37.81761" lon="144.96742"/>
      <trkpt lat="-37.81758" lon="144.96742"/>
      <trkpt lat="-37.81755" lon="144.96741"/>
      <trkpt lat="-37.81753" lon="144.96741"/>
      <trkpt lat="-37.81751" lon="144.96741"/>
      <trkpt lat="-37.81747" lon="144.96741"/>
      <trkpt lat="-37.81745" lon="144.96741"/>
      <trkpt lat="-37.81744" lon="144.96741"/>
      <trkpt lat="-37.81743" lon="144.96741"/>
      <trkpt lat="-37.81742" lon="144.96741"/>
      <trkpt lat="-37.8174" lon="144.96741"/>
      <trkpt lat="-37.81739" lon="144.96743"/>
      <trkpt lat="-37.81736" lon="144.96756"/>
      <trkpt lat="-37.81734" lon="144.9676"/>
      <trkpt lat="-37.81729" lon="144.96779"/>
      <trkpt lat="-37.8172" lon="144.96806"/>
      <trkpt lat="-37.81716" lon="144.96821"/>
      <trkpt lat="-37.81688" lon="144.96921"/>
      <trkpt lat="-37.81686" lon="144.96926"/>
      <trkpt lat="-37.81685" lon="144.96931"/>
      <trkpt lat="-37.81674" lon="144.96968"/>
      <trkpt lat="-37.81669" lon="144.96984"/>
      <trkpt lat="-37.81666" lon="144.96995"/>
      <trkpt lat="-37.81663" lon="144.97004"/>
      <trkpt lat="-37.81652" lon="144.97033"/>
      <trkpt lat="-37.81637" lon="144.97085"/>
      <trkpt lat="-37.81635" lon="144.97093"/>
      <trkpt lat="-37.81629" lon="144.97112"/>
      <trkpt lat="-37.81597" lon="144.97216"/>
      <trkpt lat="-37.81596" lon="144.9722"/>
      <trkpt lat="-37.81594" lon="144.97229"/>
      <trkpt lat="-37.81591" lon="144.97243"/>
      <trkpt lat="-37.81589" lon="144.97252"/>
      <trkpt lat="-37.81585" lon="144.97266"/>
      <trkpt lat="-37.81583" lon="144.97275"/>
      <trkpt lat="-37.81561" lon="144.97349"/>
      <trkpt lat="-37.81558" lon="144.9736"/>
      <trkpt lat="-37.8155" lon="144.97382"/>
      <trkpt lat="-37.81545" lon="144.97396"/>
      <trkpt lat="-37.81527" lon="144.97458"/>
      <trkpt lat="-37.81525" lon="144.97466"/>
      <trkpt lat="-37.81523" lon="144.97475"/>
      <trkpt lat="-37.81522" lon="144.97478"/>
      <trkpt lat="-37.81521" lon="144.97482"/>
      <trkpt lat="-37.8152" lon="144.97485"/>
      <trkpt lat="-37.8152" lon="144.97487"/>
      <trkpt lat="-37.81519" lon="144.9749"/>
      <trkpt lat="-37.81519" lon="144.97493"/>
      <trkpt lat="-37.81519" lon="144.97496"/>
      <trkpt lat="-37.81519" lon="144.97499"/>
      <trkpt lat="-37.81519" lon="144.97503"/>
      <trkpt lat="-37.8152" lon="144.97509"/>
      <trkpt lat="-37.81521" lon="144.9752"/>
      <trkpt lat="-37.81522" lon="144.97532"/>
      <trkpt lat="-37.81534" lon="144.97642"/>
      <trkpt lat="-37.81535" lon="144.97649"/>
      <trkpt lat="-37.81536" lon="144.97676"/>
      <trkpt lat="-37.81542" lon="144.9772"/>
      <trkpt lat="-37.81542" lon="144.97724"/>
      <trkpt lat="-37.81543" lon="144.97733"/>
      <trkpt lat="-37.81545" lon="144.97751"/>
      <trkpt lat="-37.81546" lon="144.97758"/>
      <trkpt lat="-37.81551" lon="144.97803"/>
      <trkpt lat="-37.81554" lon="144.97829"/>
      <trkpt lat="-37.81561" lon="144.97894"/>
      <trkpt lat="-37.81562" lon="144.97898"/>
      <trkpt lat="-37.81565" lon="144.9793"/>
      <trkpt lat="-37.81566" lon="144.97944"/>
      <trkpt lat="-37.81569" lon="144.97974"/>
      <trkpt lat="-37.81573" lon="144.97995"/>
      <trkpt lat="-37.81575" lon="144.98015"/>
      <trkpt lat="-37.81576" lon="144.98023"/>
      <trkpt lat="-37.81591" lon="144.98152"/>
      <trkpt lat="-37.81593" lon="144.98177"/>
      <trkpt lat="-37.81594" lon="144.98183"/>
      <trkpt lat="-37.81594" lon="144.98191"/>
      <trkpt lat="-37.81595" lon="144.98198"/>
      <trkpt lat="-37.81595" lon="144.98205"/>
      <trkpt lat="-37.81599" lon="144.98239"/>
      <trkpt lat="-37.81599" lon="144.98245"/>
      <trkpt lat="-37.816" lon="144.98254"/>
      <trkpt lat="-37.81603" lon="144.9827"/>
      <trkpt lat="-37.81608" lon="144.98269"/>
      <trkpt lat="-37.81611" lon="144.98267"/>
      <trkpt lat="-37.81616" lon="144.98264"/>
      <trkpt lat="-37.81614" lon="144.98247"/>
      <trkpt lat="-37.81611" lon="144.98226"/>
      <trkpt lat="-37.81607" lon="144.98197"/>
      <trkpt lat="-37.81605" lon="144.98179"/>
      <trkpt lat="-37.81602" lon="144.98156"/>
      <trkpt lat="-37.81586" lon="144.98009"/>
      <trkpt lat="-37.81585" lon="144.98003"/>
      <trkpt lat="-37.81584" lon="144.97987"/>
      <trkpt lat="-37.81583" lon="144.97979"/>
      <trkpt lat="-37.81583" lon="144.97964"/>
      <trkpt lat="-37.8158" lon="144.97934"/>
      <trkpt lat="-37.81579" lon="144.9793"/>
      <trkpt lat="-37.81577" lon="144.97915"/>
      <trkpt lat="-37.81575" lon="144.97899"/>
      <trkpt lat="-37.81568" lon="144.97835"/>
      <trkpt lat="-37.81564" lon="144.97794"/>
      <trkpt lat="-37.81559" lon="144.97751"/>
      <trkpt lat="-37.81559" lon="144.9775"/>
      <trkpt lat="-37.81558" lon="144.97738"/>
      <trkpt lat="-37.81556" lon="144.97721"/>
      <trkpt lat="-37.81555" lon="144.97712"/>
      <trkpt lat="-37.81547" lon="144.97637"/>
      <trkpt lat="-37.81538" lon="144.9755"/>
      <trkpt lat="-37.81534" lon="144.9752"/>
      <trkpt lat="-37.81533" lon="144.97517"/>
      <trkpt lat="-37.81533" lon="144.97513"/>
      <trkpt lat="-37.81533" lon="144.9751"/>
      <trkpt lat="-37.81533" lon="144.97502"/>
      <trkpt lat="-37.81536" lon="144.97489"/>
      <trkpt lat="-37.8154" lon="144.97474"/>
      <trkpt lat="-37.81543" lon="144.97463"/>
      <trkpt lat="-37.81547" lon="144.97448"/>
      <trkpt lat="-37.81558" lon="144.97407"/>
      <trkpt lat="-37.8156" lon="144.97401"/>
      <trkpt lat="-37.81564" lon="144.97389"/>
      <trkpt lat="-37.81566" lon="144.97382"/>
      <trkpt lat="-37.81571" lon="144.97362"/>
      <trkpt lat="-37.81578" lon="144.9734"/>
      <trkpt lat="-37.81582" lon="144.9732"/>
      <trkpt lat="-37.81584" lon="144.97313"/>
      <trkpt lat="-37.81589" lon="144.97296"/>
      <trkpt lat="-37.81599" lon="144.97262"/>
      <trkpt lat="-37.81601" lon="144.97258"/>
      <trkpt lat="-37.81603" lon="144.97251"/>
      <trkpt lat="-37.81609" lon="144.97254"/>
      <trkpt lat="-37.8161" lon="144.97255"/>
      <trkpt lat="-37.8162" lon="144.97261"/>
      <trkpt lat="-37.8163" lon="144.97267"/>
      <trkpt lat="-37.8164" lon="144.97274"/>
      <trkpt lat="-37.81652" lon="144.97284"/>
      <trkpt lat="-37.8166" lon="144.97291"/>
      <trkpt lat="-37.81669" lon="144.97298"/>
      <trkpt lat="-37.81677" lon="144.97306"/>
      <trkpt lat="-37.81685" lon="144.97315"/>
      <trkpt lat="-37.81693" lon="144.97323"/>
      <trkpt lat="-37.81701" lon="144.97334"/>
      <trkpt lat="-37.81708" lon="144.97344"/>
      <trkpt lat="-37.81714" lon="144.97354"/>
      <trkpt lat="-37.81721" lon="144.97365"/>
      <trkpt lat="-37.81726" lon="144.97376"/>
      <trkpt lat="-37.81732" lon="144.97387"/>
      <trkpt lat="-37.81739" lon="144.97399"/>
      <trkpt lat="-37.81744" lon="144.9741"/>
      <trkpt lat="-37.81774" lon="144.97469"/>
      <trkpt lat="-37.81779" lon="144.97477"/>
      <trkpt lat="-37.81785" lon="144.97488"/>
      <trkpt lat="-37.8179" lon="144.97499"/>
      <trkpt lat="-37.81801" lon="144.97516"/>
      <trkpt lat="-37.81814" lon="144.97533"/>
      <trkpt lat="-37.81827" lon="144.97552"/>
      <trkpt lat="-37.81831" lon="144.97556"/>
      <trkpt lat="-37.81834" lon="144.97559"/>
      <trkpt lat="-37.81837" lon="144.97562"/>
      <trkpt lat="-37.81839" lon="144.97564"/>
      <trkpt lat="-37.81841" lon="144.97566"/>
      <trkpt lat="-37.8185" lon="144.97574"/>
      <trkpt lat="-37.81854" lon="144.97577"/>
      <trkpt lat="-37.81851" lon="144.97587"/>
      <trkpt lat="-37.81849" lon="144.97592"/>
      <trkpt lat="-37.81847" lon="144.97601"/>
      <trkpt lat="-37.81842" lon="144.9763"/>
      <trkpt lat="-37.81841" lon="144.97635"/>
      <trkpt lat="-37.8184" lon="144.97641"/>
      <trkpt lat="-37.8184" lon="144.97645"/>
      <trkpt lat="-37.8184" lon="144.97649"/>
      <trkpt lat="-37.81841" lon="144.97653"/>
      <trkpt lat="-37.81842" lon="144.97655"/>
      <trkpt lat="-37.81843" lon="144.97659"/>
      <trkpt lat="-37.81845" lon="144.97662"/>
      <trkpt lat="-37.81847" lon="144.97668"/>
      <trkpt lat="-37.81854" lon="144.97681"/>
      <trkpt lat="-37.81859" lon="144.97692"/>
      <trkpt lat="-37.81862" lon="144.97697"/>
      <trkpt lat="-37.81866" lon="144.97702"/>
      <trkpt lat="-37.81872" lon="144.97711"/>
      <trkpt lat="-37.81875" lon="144.97717"/>
      <trkpt lat="-37.81879" lon="144.97724"/>
      <trkpt lat="-37.81883" lon="144.97733"/>
      <trkpt lat="-37.81886" lon="144.97736"/>
      <trkpt lat="-37.81888" lon="144.97741"/>
      <trkpt lat="-37.81901" lon="144.97762"/>
      <trkpt lat="-37.81908" lon="144.97772"/>
      <trkpt lat="-37.81911" lon="144.97777"/>
      <trkpt lat="-37.81916" lon="144.97787"/>
      <trkpt lat="-37.81926" lon="144.97805"/>
      <trkpt lat="-37.81929" lon="144.9781"/>
      <trkpt lat="-37.8193" lon="144.97813"/>
      <trkpt lat="-37.81932" lon="144.97816"/>
      <trkpt lat="-37.81936" lon="144.97821"/>
      <trkpt lat="-37.81938" lon="144.97825"/>
      <trkpt lat="-37.8194" lon="144.97828"/>
      <trkpt lat="-37.81957" lon="144.97864"/>
      <trkpt lat="-37.81968" lon="144.97886"/>
      <trkpt lat="-37.81977" lon="144.97904"/>
      <trkpt lat="-37.81981" lon="144.97912"/>
      <trkpt lat="-37.81984" lon="144.97918"/>
      <trkpt lat="-37.81999" lon="144.97949"/>
      <trkpt lat="-37.82006" lon="144.97965"/>
      <trkpt lat="-37.82015" lon="144.97984"/>
      <trkpt lat="-37.82038" lon="144.98025"/>
      <trkpt lat="-37.82058" lon="144.98052"/>
      <trkpt lat="-37.82066" lon="144.98062"/>
      <trkpt lat="-37.82079" lon="144.98072"/>
      <trkpt lat="-37.82087" lon="144.98092"/>
      <trkpt lat="-37.82097" lon="144.98104"/>
      <trkpt lat="-37.8212" lon="144.98132"/>
      <trkpt lat="-37.82141" lon="144.98161"/>
      <trkpt lat="-37.82149" lon="144.98172"/>
      <trkpt lat="-37.82162" lon="144.98191"/>
      <trkpt lat="-37.82184" lon="144.98218"/>
      <trkpt lat="-37.82192" lon="144.98228"/>
      <trkpt lat="-37.82214" lon="144.98252"/>
      <trkpt lat="-37.82217" lon="144.98256"/>
      <trkpt lat="-37.82229" lon="144.9827"/>
      <trkpt lat="-37.82236" lon="144.98275"/>
      <trkpt lat="-37.82238" lon="144.98277"/>
      <trkpt lat="-37.82249" lon="144.98286"/>
      <trkpt lat="-37.82247" lon="144.9829"/>
      <trkpt lat="-37.82247" lon="144.98294"/>
      <trkpt lat="-37.82248" lon="144.98299"/>
      <trkpt lat="-37.8225" lon="144.98302"/>
      <trkpt lat="-37.82252" lon="144.98305"/>
      <trkpt lat="-37.82256" lon="144.98306"/>
      <trkpt lat="-37.82259" lon="144.98306"/>
      <trkpt lat="-37.82262" lon="144.98305"/>
      <trkpt lat="-37.82265" lon="144.98303"/>
      <trkpt lat="-37.82267" lon="144.98299"/>
      <trkpt lat="-37.82267" lon="144.98297"/>
      <trkpt lat="-37.82276" lon="144.98294"/>
      <trkpt lat="-37.82342" lon="144.98281"/>
      <trkpt lat="-37.82369" lon="144.98277"/>
      <trkpt lat="-37.82371" lon="144.98277"/>
      <trkpt lat="-37.82372" lon="144.98276"/>
      <trkpt lat="-37.82379" lon="144.98273"/>
      <trkpt lat="-37.82385" lon="144.98266"/>
      <trkpt lat="-37.82388" lon="144.9829"/>
      <trkpt lat="-37.82388" lon="144.98291"/>
      <trkpt lat="-37.82389" lon="144.98298"/>
      <trkpt lat="-37.82393" lon="144.98332"/>
      <trkpt lat="-37.82399" lon="144.98378"/>
      <trkpt lat="-37.82406" lon="144.9843"/>
      <trkpt lat="-37.82409" lon="144.98451"/>
      <trkpt lat="-37.82412" lon="144.98478"/>
      <trkpt lat="-37.82413" lon="144.98482"/>
      <trkpt lat="-37.82413" lon="144.98484"/>
      <trkpt lat="-37.82415" lon="144.98504"/>
      <trkpt lat="-37.82413" lon="144.98513"/>
      <trkpt lat="-37.82422" lon="144.98592"/>
      <trkpt lat="-37.82424" lon="144.98605"/>
      <trkpt lat="-37.82427" lon="144.98635"/>
      <trkpt lat="-37.82428" lon="144.98654"/>
      <trkpt lat="-37.82429" lon="144.98656"/>
      <trkpt lat="-37.8243" lon="144.9867"/>
      <trkpt lat="-37.82431" lon="144.98676"/>
      <trkpt lat="-37.82432" lon="144.98684"/>
      <trkpt lat="-37.82433" lon="144.98698"/>
      <trkpt lat="-37.82432" lon="144.98718"/>
      <trkpt lat="-37.82429" lon="144.98744"/>
      <trkpt lat="-37.82428" lon="144.98753"/>
      <trkpt lat="-37.82428" lon="144.98758"/>
      <trkpt lat="-37.82428" lon="144.98767"/>
      <trkpt lat="-37.82428" lon="144.98776"/>
      <trkpt lat="-37.82428" lon="144.98785"/>
      <trkpt lat="-37.82428" lon="144.98798"/>
      <trkpt lat="-37.82429" lon="144.98809"/>
      <trkpt lat="-37.8243" lon="144.98821"/>
      <trkpt lat="-37.82431" lon="144.98828"/>
      <trkpt lat="-37.82432" lon="144.98842"/>
      <trkpt lat="-37.82433" lon="144.98848"/>
      <trkpt lat="-37.82433" lon="144.98851"/>
      <trkpt lat="-37.82433" lon="144.98855"/>
      <trkpt lat="-37.82433" lon="144.98858"/>
      <trkpt lat="-37.82432" lon="144.98861"/>
      <trkpt lat="-37.82431" lon="144.98863"/>
      <trkpt lat="-37.8243" lon="144.98866"/>
      <trkpt lat="-37.82425" lon="144.98877"/>
      <trkpt lat="-37.82402" lon="144.98881"/>
      <trkpt lat="-37.82348" lon="144.98892"/>
      <trkpt lat="-37.82339" lon="144.98893"/>
      <trkpt lat="-37.82333" lon="144.98894"/>
      <trkpt lat="-37.82323" lon="144.98887"/>
      <trkpt lat="-37.82321" lon="144.98885"/>
      <trkpt lat="-37.82319" lon="144.98884"/>
      <trkpt lat="-37.82317" lon="144.98882"/>
      <trkpt lat="-37.82315" lon="144.9888"/>
      <trkpt lat="-37.82314" lon="144.98878"/>
      <trkpt lat="-37.82313" lon="144.98875"/>
      <trkpt lat="-37.82311" lon="144.98867"/>
      <trkpt lat="-37.82303" lon="144.98847"/>
      <trkpt lat="-37.82302" lon="144.98839"/>
      <trkpt lat="-37.82298" lon="144.98807"/>
      <trkpt lat="-37.82295" lon="144.98781"/>
      <trkpt lat="-37.82294" lon="144.98772"/>
      <trkpt lat="-37.82293" lon="144.98762"/>
      <trkpt lat="-37.8229" lon="144.9874"/>
      <trkpt lat="-37.82289" lon="144.9873"/>
      <trkpt lat="-37.82288" lon="144.98722"/>
      <trkpt lat="-37.82286" lon="144.98711"/>
      <trkpt lat="-37.82285" lon="144.98703"/>
      <trkpt lat="-37.8228" lon="144.98685"/>
      <trkpt lat="-37.82275" lon="144.98666"/>
      <trkpt lat="-37.82262" lon="144.98626"/>
      <trkpt lat="-37.8225" lon="144.98588"/>
      <trkpt lat="-37.82233" lon="144.98544"/>
      <trkpt lat="-37.82189" lon="144.98439"/>
      <trkpt lat="-37.82176" lon="144.98406"/>
      <trkpt lat="-37.82165" lon="144.98385"/>
      <trkpt lat="-37.82137" lon="144.98331"/>
      <trkpt lat="-37.82131" lon="144.98319"/>
      <trkpt lat="-37.82127" lon="144.98314"/>
      <trkpt lat="-37.82096" lon="144.98259"/>
      <trkpt lat="-37.82084" lon="144.98239"/>
    </trkseg>
  </trk>
</gpx>