<?xml version="1.0" encoding="UTF-8"?>
<gpx version="1.1" creator="CheerRunners Live" xmlns="http://www.topografix.com/GPX/1/1">
  <metadata><name>Melbourne Marathon Saturday 10k</name></metadata>
  <trk>
    <name>Melbourne Marathon Saturday 10k</name>
    <trkseg>
      <trkpt lat="-37.82079" lon="144.97611"/>
      <trkpt lat="-37.82064" lon="144.97611"/>
      <trkpt lat="-37.8199" lon="144.97617"/>
      <trkpt lat="-37.8196" lon="144.97614"/>
      <trkpt lat="-37.81945" lon="144.97611"/>
      <trkpt lat="-37.81935" lon="144.97608"/>
      <trkpt lat="-37.81924" lon="144.97604"/>
      <trkpt lat="-37.81914" lon="144.976"/>
      <trkpt lat="-37.81904" lon="144.97595"/>
      <trkpt lat="-37.81894" lon="144.9759"/>
      <trkpt lat="-37.81885" lon="144.97584"/>
      <trkpt lat="-37.81875" lon="144.97577"/>
      <trkpt lat="-37.81869" lon="144.97572"/>
      <trkpt lat="-37.81858" lon="144.97562"/>
      <trkpt lat="-37.8185" lon="144.97555"/>
      <trkpt lat="-37.81847" lon="144.97551"/>
      <trkpt lat="-37.81841" lon="144.97544"/>
      <trkpt lat="-37.81836" lon="144.97538"/>
      <trkpt lat="-37.81833" lon="144.97534"/>
      <trkpt lat="-37.81826" lon="144.97527"/>
      <trkpt lat="-37.81819" lon="144.97518"/>
      <trkpt lat="-37.81813" lon="144.97508"/>
      <trkpt lat="-37.81806" lon="144.97498"/>
      <trkpt lat="-37.81796" lon="144.9748"/>
      <trkpt lat="-37.81785" lon="144.9746"/>
      <trkpt lat="-37.81775" lon="144.97439"/>
      <trkpt lat="-37.81754" lon="144.97399"/>
      <trkpt lat="-37.81737" lon="144.97366"/>
      <trkpt lat="-37.81731" lon="144.97356"/>
      <trkpt lat="-37.81725" lon="144.97345"/>
      <trkpt lat="-37.81719" lon="144.97335"/>
      <trkpt lat="-37.8171" lon="144.97323"/>
      <trkpt lat="-37.81702" lon="144.97313"/>
      <trkpt lat="-37.81694" lon="144.97303"/>
      <trkpt lat="-37.81678" lon="144.97287"/>
      <trkpt lat="-37.8167" lon="144.97278"/>
      <trkpt lat="-37.81661" lon="144.9727"/>
      <trkpt lat="-37.81653" lon="144.97264"/>
      <trkpt lat="-37.81647" lon="144.97259"/>
      <trkpt lat="-37.8164" lon="144.97254"/>
      <trkpt lat="-37.81632" lon="144.97249"/>
      <trkpt lat="-37.81621" lon="144.97242"/>
      <trkpt lat="-37.81614" lon="144.97239"/>
      <trkpt lat="-37.81614" lon="144.97238"/>
      <trkpt lat="-37.8161" lon="144.97236"/>
      <trkpt lat="-37.81608" lon="144.97235"/>
      <trkpt lat="-37.81608" lon="144.97233"/>
      <trkpt lat="-37.81611" lon="144.97224"/>
      <trkpt lat="-37.81644" lon="144.9711"/>
      <trkpt lat="-37.81647" lon="144.97102"/>
      <trkpt lat="-37.81674" lon="144.97014"/>
      <trkpt lat="-37.81676" lon="144.97009"/>
      <trkpt lat="-37.81678" lon="144.96999"/>
      <trkpt lat="-37.81679" lon="144.96996"/>
      <trkpt lat="-37.81696" lon="144.96937"/>
      <trkpt lat="-37.81697" lon="144.96931"/>
      <trkpt lat="-37.81732" lon="144.96812"/>
      <trkpt lat="-37.81738" lon="144.96795"/>
      <trkpt lat="-37.81745" lon="144.96771"/>
      <trkpt lat="-37.81748" lon="144.96761"/>
      <trkpt lat="-37.81751" lon="144.96753"/>
      <trkpt lat="-37.8176" lon="144.96757"/>
      <trkpt lat="-37.81763" lon="144.96758"/>
      <trkpt lat="-37.81765" lon="144.96759"/>
      <trkpt lat="-37.8177" lon="144.96762"/>
      <trkpt lat="-37.81771" lon="144.96763"/>
      <trkpt lat="-37.81773" lon="144.96764"/>
      <trkpt lat="-37.81781" lon="144.96769"/>
      <trkpt lat="-37.81784" lon="144.96772"/>
      <trkpt lat="-37.81787" lon="144.96774"/>
      <trkpt lat="-37.81791" lon="144.96776"/>
      <trkpt lat="-37.81795" lon="144.96778"/>
      <trkpt lat="-37.81797" lon="144.9678"/>
      <trkpt lat="-37.818" lon="144.96781"/>
      <trkpt lat="-37.81805" lon="144.96783"/>
      <trkpt lat="-37.8183" lon="144.96795"/>
      <trkpt lat="-37.81843" lon="144.96801"/>
      <trkpt lat="-37.81846" lon="144.96802"/>
      <trkpt lat="-37.81848" lon="144.96803"/>
      <trkpt lat="-37.81851" lon="144.96804"/>
      <trkpt lat="-37.81853" lon="144.96805"/>
      <trkpt lat="-37.81856" lon="144.96805"/>
      <trkpt lat="-37.81859" lon="144.96807"/>
      <trkpt lat="-37.81862" lon="144.96807"/>
      <trkpt lat="-37.81866" lon="144.96808"/>
      <trkpt lat="-37.81871" lon="144.9681"/>
      <trkpt lat="-37.81875" lon="144.96811"/>
      <trkpt lat="-37.81878" lon="144.96812"/>
      <trkpt lat="-37.8188" lon="144.96812"/>
      <trkpt lat="-37.81978" lon="144.96857"/>
      <trkpt lat="-37.81998" lon="144.96866"/>
      <trkpt lat="-37.82" lon="144.96867"/>
      <trkpt lat="-37.82002" lon="144.96868"/>
      <trkpt lat="-37.82004" lon="144.96869"/>
      <trkpt lat="-37.82011" lon="144.96872"/>
      <trkpt lat="-37.82015" lon="144.96875"/>
      <trkpt lat="-37.82022" lon="144.9688"/>
      <trkpt lat="-37.82029" lon="144.96886"/>
      <trkpt lat="-37.82038" lon="144.96892"/>
      <trkpt lat="-37.82048" lon="144.96897"/>
      <trkpt lat="-37.82059" lon="144.96902"/>
      <trkpt lat="-37.8209" lon="144.96915"/>
      <trkpt lat="-37.82135" lon="144.96935"/>
      <trkpt lat="-37.82141" lon="144.96937"/>
      <trkpt lat="-37.82153" lon="144.96942"/>
      <trkpt lat="-37.82169" lon="144.96948"/>
      <trkpt lat="-37.82182" lon="144.96954"/>
      <trkpt lat="-37.82201" lon="144.96962"/>
      <trkpt lat="-37.82208" lon="144.96966"/>
      <trkpt lat="-37.82315" lon="144.97014"/>
      <trkpt lat="-37.82318" lon="144.97016"/>
      <trkpt lat="-37.82327" lon="144.9702"/>
      <trkpt lat="-37.8233" lon="144.97021"/>
      <trkpt lat="-37.82333" lon="144.97016"/>
      <trkpt lat="-37.82335" lon="144.97012"/>
      <trkpt lat="-37.82337" lon="144.97007"/>
      <trkpt lat="-37.82328" lon="144.97002"/>
      <trkpt lat="-37.82321" lon="144.96999"/>
      <trkpt lat="-37.82318" lon="144.96998"/>
      <trkpt lat="-37.82216" lon="144.9695"/>
      <trkpt lat="-37.82209" lon="144.96947"/>
      <trkpt lat="-37.82174" lon="144.96931"/>
      <trkpt lat="-37.82162" lon="144.96925"/>
      <trkpt lat="-37.82142" lon="144.96914"/>
      <trkpt lat="-37.82105" lon="144.96896"/>
      <trkpt lat="-37.82099" lon="144.96893"/>
      <trkpt lat="-37.82046" lon="144.96869"/>
      <trkpt lat="-37.8204" lon="144.96867"/>
      <trkpt lat="-37.8203" lon="144.96864"/>
      <trkpt lat="-37.82024" lon="144.96863"/>
      <trkpt lat="-37.82019" lon="144.96861"/>
      <trkpt lat="-37.82013" lon="144.9686"/>
      <trkpt lat="-37.82008" lon="144.96858"/>
      <trkpt lat="-37.82005" lon="144.96857"/>
      <trkpt lat="-37.82003" lon="144.96856"/>
      <trkpt lat="-37.81999" lon="144.96854"/>
      <trkpt lat="-37.81979" lon="144.96845"/>
      <trkpt lat="-37.81881" lon="144.96801"/>
      <trkpt lat="-37.81876" lon="144.96798"/>
      <trkpt lat="-37.81873" lon="144.96796"/>
      <trkpt lat="-37.8187" lon="144.96794"/>
      <trkpt lat="-37.81868" lon="144.96793"/>
      <trkpt lat="-37.81864" lon="144.9679"/>
      <trkpt lat="-37.81861" lon="144.96788"/>
      <trkpt lat="-37.81859" lon="144.96787"/>
      <trkpt lat="-37.81858" lon="144.96786"/>
      <trkpt lat="-37.81857" lon="144.96785"/>
      <trkpt lat="-37.81856" lon="144.96784"/>
      <trkpt lat="-37.81855" lon="144.96783"/>
      <trkpt lat="-37.81853" lon="144.96782"/>
      <trkpt lat="-37.81849" lon="144.96779"/>
      <trkpt lat="-37.81836" lon="144.96774"/>
      <trkpt lat="-37.81796" lon="144.96755"/>
      <trkpt lat="-37.81789" lon="144.96753"/>
      <trkpt lat="-37.81781" lon="144.96749"/>
      <trkpt lat="-37.8177" lon="144.96745"/>
      <trkpt lat="-37.81766" lon="144.96744"/>
      <trkpt lat="-37.81763" lon="144.96743"/>
      <trkpt lat="-37.81761" lon="144.96742"/>
      <trkpt lat="-37.81758" lon="144.96742"/>
      <trkpt lat="-37.81755" lon="144.96741"/>
      <trkpt lat="-37.81753" lon="144.96741"/>
      <trkpt lat="-37.81751" lon="144.96741"/>
      <trkpt lat="-37.81747" lon="144.96741"/>
      <trkpt lat="-37.81745" lon="144.96741"/>
      <trkpt lat="-37.81744" lon="144.96741"/>
      <trkpt lat="-37.81743" lon="144.96741"/>
      <trkpt lat="-37.81742" lon="144.96741"/>
      <trkpt lat="-37.8174" lon="144.96741"/>
      <trkpt lat="-37.81739" lon="144.96743"/>
      <trkpt lat="-37.81736" lon="144.96756"/>
      <trkpt lat="-37.81734" lon="144.9676"/>
      <trkpt lat="-37.81729" lon="144.96779"/>
      <trkpt lat="-37.8172" lon="144.96806"/>
      <trkpt lat="-37.81716" lon="144.96821"/>
      <trkpt lat="-37.81688" lon="144.96921"/>
      <trkpt lat="-37.81686" lon="144.96926"/>
      <trkpt lat="-37.81685" lon="144.96931"/>
      <trkpt lat="-37.81674" lon="144.96968"/>
      <trkpt lat="-37.81669" lon="144.96984"/>
      <trkpt lat="-37.81666" lon="144.96995"/>
      <trkpt lat="-37.81669" lon="144.96996"/>
      <trkpt lat="-37.81673" lon="144.96998"/>
      <trkpt lat="-37.81678" lon="144.96999"/>
      <trkpt lat="-37.81679" lon="144.96996"/>
      <trkpt lat="-37.81696" lon="144.96937"/>
      <trkpt lat="-37.81697" lon="144.96931"/>
      <trkpt lat="-37.81732" lon="144.96812"/>
      <trkpt lat="-37.81738" lon="144.96795"/>
      <trkpt lat="-37.81745" lon="144.96771"/>
      <trkpt lat="-37.81748" lon="144.96761"/>
      <trkpt lat="-37.81751" lon="144.96753"/>
      <trkpt lat="-37.8176" lon="144.96757"/>
      <trkpt lat="-37.81763" lon="144.96758"/>
      <trkpt lat="-37.81765" lon="144.96759"/>
      <trkpt lat="-37.8177" lon="144.96762"/>
      <trkpt lat="-37.81771" lon="144.96763"/>
      <trkpt lat="-37.81773" lon="144.96764"/>
      <trkpt lat="-37.81781" lon="144.96769"/>
      <trkpt lat="-37.81784" lon="144.96772"/>
      <trkpt lat="-37.81787" lon="144.96774"/>
      <trkpt lat="-37.81791" lon="144.96776"/>
      <trkpt lat="-37.81795" lon="144.96778"/>
      <trkpt lat="-37.81797" lon="144.9678"/>
      <trkpt lat="-37.818" lon="144.96781"/>
      <trkpt lat="-37.8183" lon="144.96795"/>
      <trkpt lat="-37.81843" lon="144.96801"/>
      <trkpt lat="-37.81846" lon="144.96802"/>
      <trkpt lat="-37.81848" lon="144.96803"/>
      <trkpt lat="-37.81851" lon="144.96804"/>
      <trkpt lat="-37.81853" lon="144.96805"/>
      <trkpt lat="-37.81856" lon="144.96805"/>
      <trkpt lat="-37.81859" lon="144.96807"/>
      <trkpt lat="-37.81862" lon="144.96807"/>
      <trkpt lat="-37.81866" lon="144.96808"/>
      <trkpt lat="-37.81871" lon="144.9681"/>
      <trkpt lat="-37.81875" lon="144.96811"/>
      <trkpt lat="-37.81878" lon="144.96812"/>
      <trkpt lat="-37.8188" lon="144.96812"/>
      <trkpt lat="-37.81978" lon="144.96857"/>
      <trkpt lat="-37.81998" lon="144.96866"/>
      <trkpt lat="-37.82" lon="144.96867"/>
      <trkpt lat="-37.82002" lon="144.96868"/>
      <trkpt lat="-37.82004" lon="144.96869"/>
      <trkpt lat="-37.82011" lon="144.96872"/>
      <trkpt lat="-37.82015" lon="144.96875"/>
      <trkpt lat="-37.82022" lon="144.9688"/>
      <trkpt lat="-37.82029" lon="144.96886"/>
      <trkpt lat="-37.82038" lon="144.96892"/>
      <trkpt lat="-37.82048" lon="144.96897"/>
      <trkpt lat="-37.82059" lon="144.96902"/>
      <trkpt lat="-37.8209" lon="144.96915"/>
      <trkpt lat="-37.82135" lon="144.96935"/>
      <trkpt lat="-37.82141" lon="144.96937"/>
      <trkpt lat="-37.82153" lon="144.96942"/>
      <trkpt lat="-37.82169" lon="144.96948"/>
      <trkpt lat="-37.82182" lon="144.96954"/>
      <trkpt lat="-37.82201" lon="144.96962"/>
      <trkpt lat="-37.82208" lon="144.96966"/>
      <trkpt lat="-37.82315" lon="144.97014"/>
      <trkpt lat="-37.82318" lon="144.97016"/>
      <trkpt lat="-37.82327" lon="144.9702"/>
      <trkpt lat="-37.8233" lon="144.97021"/>
      <trkpt lat="-37.82342" lon="144.97027"/>
      <trkpt lat="-37.82374" lon="144.97042"/>
      <trkpt lat="-37.82421" lon="144.97064"/>
      <trkpt lat="-37.82471" lon="144.97087"/>
      <trkpt lat="-37.82478" lon="144.9709"/>
      <trkpt lat="-37.82489" lon="144.97095"/>
      <trkpt lat="-37.82511" lon="144.97104"/>
      <trkpt lat="-37.82525" lon="144.97109"/>
      <trkpt lat="-37.82538" lon="144.97114"/>
      <trkpt lat="-37.82557" lon="144.9712"/>
      <trkpt lat="-37.82582" lon="144.97128"/>
      <trkpt lat="-37.82597" lon="144.97132"/>
      <trkpt lat="-37.82609" lon="144.97135"/>
      <trkpt lat="-37.82626" lon="144.97138"/>
      <trkpt lat="-37.82654" lon="144.97142"/>
      <trkpt lat="-37.82683" lon="144.97147"/>
      <trkpt lat="-37.827" lon="144.97149"/>
      <trkpt lat="-37.82713" lon="144.97151"/>
      <trkpt lat="-37.82721" lon="144.97151"/>
      <trkpt lat="-37.82737" lon="144.9715"/>
      <trkpt lat="-37.82752" lon="144.97148"/>
      <trkpt lat="-37.82764" lon="144.97147"/>
      <trkpt lat="-37.82777" lon="144.97147"/>
      <trkpt lat="-37.828" lon="144.97146"/>
      <trkpt lat="-37.82824" lon="144.97145"/>
      <trkpt lat="-37.82851" lon="144.97143"/>
      <trkpt lat="-37.82869" lon="144.97141"/>
      <trkpt lat="-37.82886" lon="144.9714"/>
      <trkpt lat="-37.82891" lon="144.97139"/>
      <trkpt lat="-37.82907" lon="144.97136"/>
      <trkpt lat="-37.82919" lon="144.97136"/>
      <trkpt lat="-37.82935" lon="144.97136"/>
      <trkpt lat="-37.8298" lon="144.97138"/>
      <trkpt lat="-37.82983" lon="144.97139"/>
      <trkpt lat="-37.82992" lon="144.9714"/>
      <trkpt lat="-37.82996" lon="144.9714"/>
      <trkpt lat="-37.83007" lon="144.97141"/>
      <trkpt lat="-37.83059" lon="144.97143"/>
      <trkpt lat="-37.8308" lon="144.97144"/>
      <trkpt lat="-37.83101" lon="144.97145"/>
      <trkpt lat="-37.8312" lon="144.97146"/>
      <trkpt lat="-37.8313" lon="144.97149"/>
      <trkpt lat="-37.83141" lon="144.97152"/>
      <trkpt lat="-37.83149" lon="144.97153"/>
      <trkpt lat="-37.83161" lon="144.97155"/>
      <trkpt lat="-37.83171" lon="144.9716"/>
      <trkpt lat="-37.83183" lon="144.97168"/>
      <trkpt lat="-37.83189" lon="144.97173"/>
      <trkpt lat="-37.83199" lon="144.97182"/>
      <trkpt lat="-37.83205" lon="144.97185"/>
      <trkpt lat="-37.8321" lon="144.97188"/>
      <trkpt lat="-37.83218" lon="144.97194"/>
      <trkpt lat="-37.83228" lon="144.97202"/>
      <trkpt lat="-37.83241" lon="144.97213"/>
      <trkpt lat="-37.83254" lon="144.97225"/>
      <trkpt lat="-37.83266" lon="144.97235"/>
      <trkpt lat="-37.8327" lon="144.9724"/>
      <trkpt lat="-37.83275" lon="144.97244"/>
      <trkpt lat="-37.83277" lon="144.97246"/>
      <trkpt lat="-37.83285" lon="144.97253"/>
      <trkpt lat="-37.8329" lon="144.97258"/>
      <trkpt lat="-37.83293" lon="144.97262"/>
      <trkpt lat="-37.83307" lon="144.9728"/>
      <trkpt lat="-37.83314" lon="144.9729"/>
      <trkpt lat="-37.8332" lon="144.97298"/>
      <trkpt lat="-37.83342" lon="144.97333"/>
      <trkpt lat="-37.83353" lon="144.9735"/>
      <trkpt lat="-37.83366" lon="144.97369"/>
      <trkpt lat="-37.83371" lon="144.97376"/>
      <trkpt lat="-37.83379" lon="144.97386"/>
      <trkpt lat="-37.83392" lon="144.97402"/>
      <trkpt lat="-37.83402" lon="144.97414"/>
      <trkpt lat="-37.83414" lon="144.97429"/>
      <trkpt lat="-37.8343" lon="144.97446"/>
      <trkpt lat="-37.83442" lon="144.97458"/>
      <trkpt lat="-37.8345" lon="144.97465"/>
      <trkpt lat="-37.83461" lon="144.97475"/>
      <trkpt lat="-37.83478" lon="144.97489"/>
      <trkpt lat="-37.83489" lon="144.97498"/>
      <trkpt lat="-37.83506" lon="144.9751"/>
      <trkpt lat="-37.83516" lon="144.97516"/>
      <trkpt lat="-37.83518" lon="144.97517"/>
      <trkpt lat="-37.83523" lon="144.9752"/>
      <trkpt lat="-37.83536" lon="144.97528"/>
      <trkpt lat="-37.83547" lon="144.97535"/>
      <trkpt lat="-37.8355" lon="144.97537"/>
      <trkpt lat="-37.83566" lon="144.97547"/>
      <trkpt lat="-37.83593" lon="144.97562"/>
      <trkpt lat="-37.83602" lon="144.97567"/>
      <trkpt lat="-37.83607" lon="144.97569"/>
      <trkpt lat="-37.83611" lon="144.9757"/>
      <trkpt lat="-37.83613" lon="144.97571"/>
      <trkpt lat="-37.8363" lon="144.97575"/>
      <trkpt lat="-37.8363" lon="144.97573"/>
      <trkpt lat="-37.8363" lon="144.97564"/>
      <trkpt lat="-37.8363" lon="144.97558"/>
      <trkpt lat="-37.8363" lon="144.97556"/>
      <trkpt lat="-37.8363" lon="144.97554"/>
      <trkpt lat="-37.8363" lon="144.9755"/>
      <trkpt lat="-37.8363" lon="144.97547"/>
      <trkpt lat="-37.8363" lon="144.97544"/>
      <trkpt lat="-37.83631" lon="144.9754"/>
      <trkpt lat="-37.83623" lon="144.97536"/>
      <trkpt lat="-37.83614" lon="144.97531"/>
      <trkpt lat="-37.83592" lon="144.97518"/>
      <trkpt lat="-37.83567" lon="144.97505"/>
      <trkpt lat="-37.83556" lon="144.97499"/>
      <trkpt lat="-37.83543" lon="144.97491"/>
      <trkpt lat="-37.8353" lon="144.97482"/>
      <trkpt lat="-37.83528" lon="144.97481"/>
      <trkpt lat="-37.83523" lon="144.97478"/>
      <trkpt lat="-37.8351" lon="144.97469"/>
      <trkpt lat="-37.83503" lon="144.97463"/>
      <trkpt lat="-37.83491" lon="144.97454"/>
      <trkpt lat="-37.8348" lon="144.97446"/>
      <trkpt lat="-37.83476" lon="144.97441"/>
      <trkpt lat="-37.83465" lon="144.97432"/>
      <trkpt lat="-37.83458" lon="144.97426"/>
      <trkpt lat="-37.83451" lon="144.9742"/>
      <trkpt lat="-37.83434" lon="144.97405"/>
      <trkpt lat="-37.83429" lon="144.974"/>
      <trkpt lat="-37.83422" lon="144.97393"/>
      <trkpt lat="-37.83417" lon="144.97387"/>
      <trkpt lat="-37.83409" lon="144.97377"/>
      <trkpt lat="-37.83403" lon="144.97369"/>
      <trkpt lat="-37.83398" lon="144.9736"/>
      <trkpt lat="-37.83396" lon="144.97357"/>
      <trkpt lat="-37.834" lon="144.97353"/>
      <trkpt lat="-37.83401" lon="144.97352"/>
      <trkpt lat="-37.83405" lon="144.97348"/>
      <trkpt lat="-37.8342" lon="144.97335"/>
      <trkpt lat="-37.8344" lon="144.97317"/>
      <trkpt lat="-37.83554" lon="144.97222"/>
      <trkpt lat="-37.8356" lon="144.97217"/>
      <trkpt lat="-37.83561" lon="144.97219"/>
      <trkpt lat="-37.8357" lon="144.97236"/>
      <trkpt lat="-37.83585" lon="144.97266"/>
      <trkpt lat="-37.83594" lon="144.97285"/>
      <trkpt lat="-37.83604" lon="144.97305"/>
      <trkpt lat="-37.83607" lon="144.97311"/>
      <trkpt lat="-37.83611" lon="144.97317"/>
      <trkpt lat="-37.83614" lon="144.97322"/>
      <trkpt lat="-37.83619" lon="144.97329"/>
      <trkpt lat="-37.83624" lon="144.97336"/>
      <trkpt lat="-37.83626" lon="144.9734"/>
      <trkpt lat="-37.83629" lon="144.97344"/>
      <trkpt lat="-37.83632" lon="144.97351"/>
      <trkpt lat="-37.83635" lon="144.97356"/>
      <trkpt lat="-37.83638" lon="144.97361"/>
      <trkpt lat="-37.83639" lon="144.97364"/>
      <trkpt lat="-37.83641" lon="144.97368"/>
      <trkpt lat="-37.83643" lon="144.97374"/>
      <trkpt lat="-37.83645" lon="144.97379"/>
      <trkpt lat="-37.83646" lon="144.97387"/>
      <trkpt lat="-37.83647" lon="144.97393"/>
      <trkpt lat="-37.83648" lon="144.97401"/>
      <trkpt lat="-37.83648" lon="144.97404"/>
      <trkpt lat="-37.83648" lon="144.97408"/>
      <trkpt lat="-37.83648" lon="144.97412"/>
      <trkpt lat="-37.83648" lon="144.97417"/>
      <trkpt lat="-37.83647" lon="144.97421"/>
      <trkpt lat="-37.83646" lon="144.97426"/>
      <trkpt lat="-37.83645" lon="144.97432"/>
      <trkpt lat="-37.83633" lon="144.97484"/>
      <trkpt lat="-37.83626" lon="144.97517"/>
      <trkpt lat="-37.83625" lon="144.97522"/>
      <trkpt lat="-37.83624" lon="144.97524"/>
      <trkpt lat="-37.83624" lon="144.97527"/>
      <trkpt lat="-37.83624" lon="144.97528"/>
      <trkpt lat="-37.83623" lon="144.9753"/>
      <trkpt lat="-37.83623" lon="144.97532"/>
      <trkpt lat="-37.83623" lon="144.97536"/>
      <trkpt lat="-37.83623" lon="144.97539"/>
      <trkpt lat="-37.83624" lon="144.97543"/>
      <trkpt lat="-37.83624" lon="144.97547"/>
      <trkpt lat="-37.83625" lon="144.97552"/>
      <trkpt lat="-37.83625" lon="144.97554"/>
      <trkpt lat="-37.83626" lon="144.97556"/>
      <trkpt lat="-37.83626" lon="144.97558"/>
      <trkpt lat="-37.83629" lon="144.97572"/>
      <trkpt lat="-37.8363" lon="144.97575"/>
      <trkpt lat="-37.83641" lon="144.97599"/>
      <trkpt lat="-37.83659" lon="144.9763"/>
      <trkpt lat="-37.83675" lon="144.97658"/>
      <trkpt lat="-37.8368" lon="144.97666"/>
      <trkpt lat="-37.83686" lon="144.97677"/>
      <trkpt lat="-37.83691" lon="144.9769"/>
      <trkpt lat="-37.83696" lon="144.97703"/>
      <trkpt lat="-37.83703" lon="144.97724"/>
      <trkpt lat="-37.83696" lon="144.97726"/>
      <trkpt lat="-37.83606" lon="144.97745"/>
      <trkpt lat="-37.83696" lon="144.97726"/>
      <trkpt lat="-37.83703" lon="144.97724"/>
      <trkpt lat="-37.83709" lon="144.97744"/>
      <trkpt lat="-37.83716" lon="144.97755"/>
      <trkpt lat="-37.83718" lon="144.97758"/>
      <trkpt lat="-37.83722" lon="144.97781"/>
      <trkpt lat="-37.83725" lon="144.97797"/>
      <trkpt lat="-37.83726" lon="144.97807"/>
      <trkpt lat="-37.83727" lon="144.97812"/>
      <trkpt lat="-37.83728" lon="144.97821"/>
      <trkpt lat="-37.83739" lon="144.97903"/>
      <trkpt lat="-37.83751" lon="144.97998"/>
      <trkpt lat="-37.83753" lon="144.98011"/>
      <trkpt lat="-37.83754" lon="144.98019"/>
      <trkpt lat="-37.83755" lon="144.98032"/>
      <trkpt lat="-37.83756" lon="144.98033"/>
      <trkpt lat="-37.83772" lon="144.98169"/>
      <trkpt lat="-37.83774" lon="144.98178"/>
      <trkpt lat="-37.83772" lon="144.98178"/>
      <trkpt lat="-37.83764" lon="144.9818"/>
      <trkpt lat="-37.83762" lon="144.98181"/>
      <trkpt lat="-37.83756" lon="144.98182"/>
      <trkpt lat="-37.83725" lon="144.98188"/>
      <trkpt lat="-37.83725" lon="144.9819"/>
      <trkpt lat="-37.83722" lon="144.98199"/>
      <trkpt lat="-37.83727" lon="144.98236"/>
      <trkpt lat="-37.83731" lon="144.98267"/>
      <trkpt lat="-37.83732" lon="144.98272"/>
      <trkpt lat="-37.83746" lon="144.98269"/>
      <trkpt lat="-37.8375" lon="144.98268"/>
      <trkpt lat="-37.83775" lon="144.98263"/>
      <trkpt lat="-37.83783" lon="144.98262"/>
      <trkpt lat="-37.83784" lon="144.98261"/>
      <trkpt lat="-37.83777" lon="144.98202"/>
      <trkpt lat="-37.83775" lon="144.98192"/>
      <trkpt lat="-37.83774" lon="144.98178"/>
      <trkpt lat="-37.83772" lon="144.98178"/>
      <trkpt lat="-37.83764" lon="144.9818"/>
      <trkpt lat="-37.83762" lon="144.98181"/>
      <trkpt lat="-37.83756" lon="144.98182"/>
      <trkpt lat="-37.83725" lon="144.98188"/>
      <trkpt lat="-37.8366" lon="144.98202"/>
      <trkpt lat="-37.83568" lon="144.98221"/>
      <trkpt lat="-37.83548" lon="144.98225"/>
      <trkpt lat="-37.83459" lon="144.98244"/>
      <trkpt lat="-37.83451" lon="144.98246"/>
      <trkpt lat="-37.83433" lon="144.98249"/>
      <trkpt lat="-37.8343" lon="144.9825"/>
      <trkpt lat="-37.83429" lon="144.9825"/>
      <trkpt lat="-37.83423" lon="144.98252"/>
      <trkpt lat="-37.83414" lon="144.98254"/>
      <trkpt lat="-37.83406" lon="144.98254"/>
      <trkpt lat="-37.83403" lon="144.98255"/>
      <trkpt lat="-37.83395" lon="144.98255"/>
      <trkpt lat="-37.83387" lon="144.98254"/>
      <trkpt lat="-37.83381" lon="144.98252"/>
      <trkpt lat="-37.83369" lon="144.98246"/>
      <trkpt lat="-37.83359" lon="144.98236"/>
      <trkpt lat="-37.83351" lon="144.98226"/>
      <trkpt lat="-37.83345" lon="144.9821"/>
      <trkpt lat="-37.83339" lon="144.98192"/>
      <trkpt lat="-37.83335" lon="144.98172"/>
      <trkpt lat="-37.83333" lon="144.98148"/>
      <trkpt lat="-37.83332" lon="144.98128"/>
      <trkpt lat="-37.83329" lon="144.98073"/>
      <trkpt lat="-37.83328" lon="144.98027"/>
      <trkpt lat="-37.83327" lon="144.97993"/>
      <trkpt lat="-37.8332" lon="144.97958"/>
      <trkpt lat="-37.83314" lon="144.97939"/>
      <trkpt lat="-37.83308" lon="144.97922"/>
      <trkpt lat="-37.83288" lon="144.9788"/>
      <trkpt lat="-37.83283" lon="144.97871"/>
      <trkpt lat="-37.83265" lon="144.9784"/>
      <trkpt lat="-37.83246" lon="144.97809"/>
      <trkpt lat="-37.83241" lon="144.97803"/>
      <trkpt lat="-37.83224" lon="144.97783"/>
      <trkpt lat="-37.83195" lon="144.97755"/>
      <trkpt lat="-37.83158" lon="144.97724"/>
      <trkpt lat="-37.83133" lon="144.97699"/>
      <trkpt lat="-37.83128" lon="144.97693"/>
      <trkpt lat="-37.83117" lon="144.9768"/>
      <trkpt lat="-37.83105" lon="144.97662"/>
      <trkpt lat="-37.83102" lon="144.97664"/>
      <trkpt lat="-37.831" lon="144.97665"/>
      <trkpt lat="-37.83082" lon="144.97672"/>
      <trkpt lat="-37.83063" lon="144.97681"/>
      <trkpt lat="-37.83033" lon="144.97687"/>
      <trkpt lat="-37.83029" lon="144.97687"/>
      <trkpt lat="-37.83011" lon="144.97689"/>
      <trkpt lat="-37.82991" lon="144.97689"/>
      <trkpt lat="-37.82989" lon="144.97689"/>
      <trkpt lat="-37.82986" lon="144.97688"/>
      <trkpt lat="-37.82976" lon="144.97686"/>
      <trkpt lat="-37.82935" lon="144.97679"/>
      <trkpt lat="-37.82914" lon="144.97675"/>
      <trkpt lat="-37.82907" lon="144.97674"/>
      <trkpt lat="-37.82899" lon="144.97673"/>
      <trkpt lat="-37.82897" lon="144.97674"/>
      <trkpt lat="-37.82893" lon="144.97675"/>
      <trkpt lat="-37.82879" lon="144.9768"/>
      <trkpt lat="-37.82876" lon="144.97681"/>
      <trkpt lat="-37.82872" lon="144.97683"/>
      <trkpt lat="-37.82868" lon="144.97685"/>
      <trkpt lat="-37.82863" lon="144.97688"/>
      <trkpt lat="-37.82847" lon="144.97703"/>
      <trkpt lat="-37.82834" lon="144.97715"/>
      <trkpt lat="-37.82829" lon="144.9772"/>
      <trkpt lat="-37.82827" lon="144.97722"/>
      <trkpt lat="-37.82795" lon="144.97751"/>
      <trkpt lat="-37.82827" lon="144.97722"/>
      <trkpt lat="-37.82829" lon="144.9772"/>
      <trkpt lat="-37.82834" lon="144.97715"/>
      <trkpt lat="-37.82847" lon="144.97703"/>
      <trkpt lat="-37.82863" lon="144.97688"/>
      <trkpt lat="-37.82868" lon="144.97685"/>
      <trkpt lat="-37.82872" lon="144.97683"/>
      <trkpt lat="-37.82876" lon="144.97681"/>
      <trkpt lat="-37.82879" lon="144.9768"/>
      <trkpt lat="-37.82893" lon="144.97675"/>
      <trkpt lat="-37.82897" lon="144.97674"/>
      <trkpt lat="-37.82899" lon="144.97673"/>
      <trkpt lat="-37.82902" lon="144.97671"/>
      <trkpt lat="-37.82905" lon="144.97669"/>
      <trkpt lat="-37.82908" lon="144.97665"/>
      <trkpt lat="-37.8291" lon="144.97663"/>
      <trkpt lat="-37.82912" lon="144.97659"/>
      <trkpt lat="-37.82913" lon="144.97656"/>
      <trkpt lat="-37.82915" lon="144.97653"/>
      <trkpt lat="-37.82916" lon="144.97647"/>
      <trkpt lat="-37.82917" lon="144.97643"/>
      <trkpt lat="-37.82917" lon="144.9764"/>
      <trkpt lat="-37.82918" lon="144.97637"/>
      <trkpt lat="-37.82918" lon="144.97633"/>
      <trkpt lat="-37.82918" lon="144.9763"/>
      <trkpt lat="-37.82917" lon="144.97627"/>
      <trkpt lat="-37.82917" lon="144.97623"/>
      <trkpt lat="-37.82916" lon="144.9762"/>
      <trkpt lat="-37.82916" lon="144.97617"/>
      <trkpt lat="-37.82914" lon="144.97613"/>
      <trkpt lat="-37.82913" lon="144.9761"/>
      <trkpt lat="-37.82912" lon="144.97608"/>
      <trkpt lat="-37.8291" lon="144.97605"/>
      <trkpt lat="-37.82907" lon="144.97601"/>
      <trkpt lat="-37.82905" lon="144.97599"/>
      <trkpt lat="-37.82902" lon="144.97597"/>
      <trkpt lat="-37.82899" lon="144.97594"/>
      <trkpt lat="-37.82896" lon="144.97593"/>
      <trkpt lat="-37.82892" lon="144.97592"/>
      <trkpt lat="-37.82889" lon="144.97591"/>
      <trkpt lat="-37.82884" lon="144.97591"/>
      <trkpt lat="-37.82881" lon="144.97591"/>
      <trkpt lat="-37.82875" lon="144.97591"/>
      <trkpt lat="-37.82868" lon="144.97593"/>
      <trkpt lat="-37.82862" lon="144.97594"/>
      <trkpt lat="-37.82853" lon="144.97596"/>
      <trkpt lat="-37.82848" lon="144.97598"/>
      <trkpt lat="-37.82844" lon="144.976"/>
      <trkpt lat="-37.82839" lon="144.97601"/>
      <trkpt lat="-37.82833" lon="144.97605"/>
      <trkpt lat="-37.82815" lon="144.97614"/>
      <trkpt lat="-37.82812" lon="144.97616"/>
      <trkpt lat="-37.8281" lon="144.97617"/>
      <trkpt lat="-37.82807" lon="144.97618"/>
      <trkpt lat="-37.82805" lon="144.97618"/>
      <trkpt lat="-37.82803" lon="144.97619"/>
      <trkpt lat="-37.82801" lon="144.97619"/>
      <trkpt lat="-37.82798" lon="144.97618"/>
      <trkpt lat="-37.82796" lon="144.97618"/>
      <trkpt lat="-37.82794" lon="144.97617"/>
      <trkpt lat="-37.82792" lon="144.97616"/>
      <trkpt lat="-37.8279" lon="144.97615"/>
      <trkpt lat="-37.82788" lon="144.97613"/>
      <trkpt lat="-37.82786" lon="144.97611"/>
      <trkpt lat="-37.82784" lon="144.97608"/>
      <trkpt lat="-37.82782" lon="144.97606"/>
      <trkpt lat="-37.82781" lon="144.97603"/>
      <trkpt lat="-37.8278" lon="144.976"/>
      <trkpt lat="-37.82779" lon="144.97595"/>
      <trkpt lat="-37.82777" lon="144.97588"/>
      <trkpt lat="-37.82776" lon="144.97583"/>
      <trkpt lat="-37.82774" lon="144.97575"/>
      <trkpt lat="-37.82773" lon="144.97569"/>
      <trkpt lat="-37.82771" lon="144.97554"/>
      <trkpt lat="-37.82768" lon="144.97542"/>
      <trkpt lat="-37.82766" lon="144.97532"/>
      <trkpt lat="-37.82764" lon="144.97527"/>
      <trkpt lat="-37.82762" lon="144.97513"/>
      <trkpt lat="-37.82761" lon="144.97509"/>
      <trkpt lat="-37.8276" lon="144.97505"/>
      <trkpt lat="-37.82757" lon="144.97498"/>
      <trkpt lat="-37.82755" lon="144.97492"/>
      <trkpt lat="-37.82749" lon="144.97481"/>
      <trkpt lat="-37.82744" lon="144.97471"/>
      <trkpt lat="-37.82742" lon="144.97468"/>
      <trkpt lat="-37.82738" lon="144.97461"/>
      <trkpt lat="-37.82734" lon="144.97455"/>
      <trkpt lat="-37.82729" lon="144.97447"/>
      <trkpt lat="-37.82723" lon="144.97438"/>
      <trkpt lat="-37.82719" lon="144.97432"/>
      <trkpt lat="-37.82715" lon="144.97427"/>
      <trkpt lat="-37.82713" lon="144.97424"/>
      <trkpt lat="-37.82711" lon="144.97421"/>
      <trkpt lat="-37.82709" lon="144.97419"/>
      <trkpt lat="-37.82706" lon="144.97416"/>
      <trkpt lat="-37.82702" lon="144.97413"/>
      <trkpt lat="-37.82688" lon="144.97388"/>
      <trkpt lat="-37.82683" lon="144.97379"/>
      <trkpt lat="-37.82679" lon="144.9737"/>
      <trkpt lat="-37.82674" lon="144.9736"/>
      <trkpt lat="-37.82672" lon="144.97353"/>
      <trkpt lat="-37.82669" lon="144.97344"/>
      <trkpt lat="-37.82665" lon="144.97334"/>
      <trkpt lat="-37.82663" lon="144.97323"/>
      <trkpt lat="-37.82661" lon="144.97317"/>
      <trkpt lat="-37.8266" lon="144.9731"/>
      <trkpt lat="-37.8266" lon="144.97305"/>
      <trkpt lat="-37.82658" lon="144.97297"/>
      <trkpt lat="-37.82657" lon="144.97287"/>
      <trkpt lat="-37.82658" lon="144.97277"/>
      <trkpt lat="-37.82659" lon="144.9727"/>
      <trkpt lat="-37.82661" lon="144.97264"/>
      <trkpt lat="-37.82662" lon="144.97259"/>
      <trkpt lat="-37.82664" lon="144.97255"/>
      <trkpt lat="-37.82667" lon="144.97247"/>
      <trkpt lat="-37.82668" lon="144.97245"/>
      <trkpt lat="-37.82669" lon="144.97243"/>
      <trkpt lat="-37.8267" lon="144.97241"/>
      <trkpt lat="-37.82671" lon="144.97237"/>
      <trkpt lat="-37.8267" lon="144.97235"/>
      <trkpt lat="-37.8267" lon="144.97234"/>
      <trkpt lat="-37.82669" lon="144.97231"/>
      <trkpt lat="-37.82668" lon="144.97229"/>
      <trkpt lat="-37.82666" lon="144.97227"/>
      <trkpt lat="-37.82663" lon="144.97227"/>
      <trkpt lat="-37.82662" lon="144.97227"/>
      <trkpt lat="-37.82659" lon="144.97227"/>
      <trkpt lat="-37.82657" lon="144.97229"/>
      <trkpt lat="-37.82655" lon="144.97232"/>
      <trkpt lat="-37.82655" lon="144.97233"/>
      <trkpt lat="-37.82641" lon="144.97237"/>
      <trkpt lat="-37.82627" lon="144.97241"/>
      <trkpt lat="-37.82587" lon="144.97249"/>
      <trkpt lat="-37.82576" lon="144.97251"/>
      <trkpt lat="-37.82569" lon="144.9725"/>
      <trkpt lat="-37.82559" lon="144.97249"/>
      <trkpt lat="-37.82544" lon="144.97245"/>
      <trkpt lat="-37.82534" lon="144.97241"/>
      <trkpt lat="-37.82523" lon="144.97234"/>
      <trkpt lat="-37.8251" lon="144.97226"/>
      <trkpt lat="-37.82493" lon="144.97212"/>
      <trkpt lat="-37.82486" lon="144.97206"/>
      <trkpt lat="-37.82475" lon="144.97198"/>
      <trkpt lat="-37.82468" lon="144.97194"/>
      <trkpt lat="-37.82437" lon="144.97175"/>
      <trkpt lat="-37.82425" lon="144.97168"/>
      <trkpt lat="-37.82406" lon="144.97159"/>
      <trkpt lat="-37.82394" lon="144.97152"/>
      <trkpt lat="-37.82382" lon="144.97144"/>
      <trkpt lat="-37.8237" lon="144.97136"/>
      <trkpt lat="-37.82367" lon="144.97134"/>
      <trkpt lat="-37.82364" lon="144.97133"/>
      <trkpt lat="-37.82362" lon="144.97132"/>
      <trkpt lat="-37.8236" lon="144.97131"/>
      <trkpt lat="-37.82357" lon="144.97129"/>
      <trkpt lat="-37.82354" lon="144.97129"/>
      <trkpt lat="-37.82352" lon="144.97128"/>
      <trkpt lat="-37.8235" lon="144.97128"/>
      <trkpt lat="-37.82348" lon="144.97128"/>
      <trkpt lat="-37.82345" lon="144.97128"/>
      <trkpt lat="-37.82343" lon="144.97128"/>
      <trkpt lat="-37.8234" lon="144.97128"/>
      <trkpt lat="-37.82336" lon="144.97128"/>
      <trkpt lat="-37.82334" lon="144.97128"/>
      <trkpt lat="-37.82331" lon="144.97129"/>
      <trkpt lat="-37.82328" lon="144.97129"/>
      <trkpt lat="-37.82323" lon="144.97131"/>
      <trkpt lat="-37.82318" lon="144.97132"/>
      <trkpt lat="-37.82314" lon="144.97134"/>
      <trkpt lat="-37.82305" lon="144.97137"/>
      <trkpt lat="-37.82303" lon="144.97137"/>
      <trkpt lat="-37.82302" lon="144.97138"/>
      <trkpt lat="-37.823" lon="144.97138"/>
      <trkpt lat="-37.82299" lon="144.97137"/>
      <trkpt lat="-37.82294" lon="144.97134"/>
      <trkpt lat="-37.8229" lon="144.97139"/>
      <trkpt lat="-37.82285" lon="144.97147"/>
      <trkpt lat="-37.8228" lon="144.97153"/>
      <trkpt lat="-37.82276" lon="144.97159"/>
      <trkpt lat="-37.82271" lon="144.97164"/>
      <trkpt lat="-37.82266" lon="144.97169"/>
      <trkpt lat="-37.82263" lon="144.97173"/>
      <trkpt lat="-37.82258" lon="144.97179"/>
      <trkpt lat="-37.82255" lon="144.97184"/>
      <trkpt lat="-37.8225" lon="144.97191"/>
      <trkpt lat="-37.82244" lon="144.97201"/>
      <trkpt lat="-37.82243" lon="144.97203"/>
      <trkpt lat="-37.82239" lon="144.97212"/>
      <trkpt lat="-37.82236" lon="144.9722"/>
      <trkpt lat="-37.82233" lon="144.97228"/>
      <trkpt lat="-37.82226" lon="144.97251"/>
      <trkpt lat="-37.82223" lon="144.97263"/>
      <trkpt lat="-37.82217" lon="144.97287"/>
      <trkpt lat="-37.82214" lon="144.97304"/>
      <trkpt lat="-37.82212" lon="144.97314"/>
      <trkpt lat="-37.8221" lon="144.97325"/>
      <trkpt lat="-37.82209" lon="144.97334"/>
      <trkpt lat="-37.82208" lon="144.97342"/>
      <trkpt lat="-37.82207" lon="144.97346"/>
      <trkpt lat="-37.82202" lon="144.97359"/>
      <trkpt lat="-37.82199" lon="144.97363"/>
      <trkpt lat="-37.82197" lon="144.97365"/>
      <trkpt lat="-37.8219" lon="144.97369"/>
      <trkpt lat="-37.82185" lon="144.97372"/>
      <trkpt lat="-37.82181" lon="144.97374"/>
      <trkpt lat="-37.82179" lon="144.97375"/>
      <trkpt lat="-37.82165" lon="144.9738"/>
      <trkpt lat="-37.82167" lon="144.97388"/>
      <trkpt lat="-37.82171" lon="144.97398"/>
      <trkpt lat="-37.82175" lon="144.9741"/>
      <trkpt lat="-37.8218" lon="144.97422"/>
      <trkpt lat="-37.82184" lon="144.97433"/>
      <trkpt lat="-37.8219" lon="144.97446"/>
      <trkpt lat="-37.82196" lon="144.97457"/>
      <trkpt lat="-37.82203" lon="144.97471"/>
      <trkpt lat="-37.82224" lon="144.97503"/>
      <trkpt lat="-37.82231" lon="144.97514"/>
      <trkpt lat="-37.8224" lon="144.97527"/>
      <trkpt lat="-37.82245" lon="144.97534"/>
      <trkpt lat="-37.82254" lon="144.97545"/>
      <trkpt lat="-37.82261" lon="144.97553"/>
      <trkpt lat="-37.8229" lon="144.97584"/>
      <trkpt lat="-37.82304" lon="144.97614"/>
      <trkpt lat="-37.82306" lon="144.97619"/>
      <trkpt lat="-37.82307" lon="144.97621"/>
      <trkpt lat="-37.82308" lon="144.97624"/>
      <trkpt lat="-37.8231" lon="144.97629"/>
      <trkpt lat="-37.82311" lon="144.97632"/>
      <trkpt lat="-37.82311" lon="144.97635"/>
      <trkpt lat="-37.82312" lon="144.97638"/>
      <trkpt lat="-37.82313" lon="144.97641"/>
      <trkpt lat="-37.82314" lon="144.97646"/>
      <trkpt lat="-37.82316" lon="144.97659"/>
      <trkpt lat="-37.82317" lon="144.97663"/>
      <trkpt lat="-37.8232" lon="144.97673"/>
      <trkpt lat="-37.82324" lon="144.97733"/>
      <trkpt lat="-37.82325" lon="144.9776"/>
      <trkpt lat="-37.82327" lon="144.97783"/>
      <trkpt lat="-37.82328" lon="144.97803"/>
      <trkpt lat="-37.82329" lon="144.97814"/>
      <trkpt lat="-37.82329" lon="144.97821"/>
      <trkpt lat="-37.8233" lon="144.97823"/>
      <trkpt lat="-37.82329" lon="144.97828"/>
      <trkpt lat="-37.82329" lon="144.97831"/>
      <trkpt lat="-37.82329" lon="144.97835"/>
      <trkpt lat="-37.82328" lon="144.97841"/>
      <trkpt lat="-37.82328" lon="144.9785"/>
      <trkpt lat="-37.82335" lon="144.97857"/>
      <trkpt lat="-37.8234" lon="144.97861"/>
      <trkpt lat="-37.82345" lon="144.97865"/>
      <trkpt lat="-37.82348" lon="144.97868"/>
      <trkpt lat="-37.82358" lon="144.97876"/>
      <trkpt lat="-37.82365" lon="144.9788"/>
      <trkpt lat="-37.82396" lon="144.979"/>
      <trkpt lat="-37.82431" lon="144.97929"/>
      <trkpt lat="-37.82488" lon="144.97978"/>
      <trkpt lat="-37.82495" lon="144.97984"/>
      <trkpt lat="-37.82523" lon="144.9801"/>
      <trkpt lat="-37.82528" lon="144.98015"/>
      <trkpt lat="-37.82542" lon="144.98029"/>
      <trkpt lat="-37.8255" lon="144.98039"/>
      <trkpt lat="-37.82562" lon="144.98057"/>
      <trkpt lat="-37.82574" lon="144.98078"/>
      <trkpt lat="-37.82583" lon="144.98095"/>
      <trkpt lat="-37.8259" lon="144.9811"/>
      <trkpt lat="-37.82595" lon="144.98123"/>
      <trkpt lat="-37.82601" lon="144.98141"/>
      <trkpt lat="-37.82605" lon="144.98159"/>
      <trkpt lat="-37.82609" lon="144.98176"/>
      <trkpt lat="-37.8261" lon="144.9819"/>
      <trkpt lat="-37.82612" lon="144.98207"/>
      <trkpt lat="-37.82613" lon="144.98258"/>
      <trkpt lat="-37.82613" lon="144.98334"/>
      <trkpt lat="-37.82614" lon="144.98369"/>
      <trkpt lat="-37.82616" lon="144.98395"/>
      <trkpt lat="-37.82619" lon="144.98419"/>
      <trkpt lat="-37.82622" lon="144.98441"/>
      <trkpt lat="-37.82627" lon="144.98462"/>
      <trkpt lat="-37.82635" lon="144.98489"/>
      <trkpt lat="-37.82643" lon="144.98513"/>
      <trkpt lat="-37.82649" lon="144.9853"/>
      <trkpt lat="-37.82658" lon="144.9855"/>
      <trkpt lat="-37.82669" lon="144.9857"/>
      <trkpt lat="-37.82685" lon="144.98599"/>
      <trkpt lat="-37.82699" lon="144.98622"/>
      <trkpt lat="-37.82716" lon="144.98646"/>
      <trkpt lat="-37.82729" lon="144.98663"/>
      <trkpt lat="-37.82739" lon="144.98675"/>
      <trkpt lat="-37.82757" lon="144.98694"/>
      <trkpt lat="-37.82773" lon="144.98709"/>
      <trkpt lat="-37.82796" lon="144.98728"/>
      <trkpt lat="-37.82838" lon="144.98761"/>
      <trkpt lat="-37.82864" lon="144.9878"/>
      <trkpt lat="-37.829" lon="144.98808"/>
      <trkpt lat="-37.82937" lon="144.98838"/>
      <trkpt lat="-37.82981" lon="144.98877"/>
      <trkpt lat="-37.83088" lon="144.98985"/>
      <trkpt lat="-37.83122" lon="144.99021"/>
      <trkpt lat="-37.83145" lon="144.99046"/>
      <trkpt lat="-37.83177" lon="144.99084"/>
      <trkpt lat="-37.83193" lon="144.99103"/>
      <trkpt lat="-37.83205" lon="144.99119"/>
      <trkpt lat="-37.83217" lon="144.99137"/>
      <trkpt lat="-37.8323" lon="144.99157"/>
      <trkpt lat="-37.83241" lon="144.99177"/>
      <trkpt lat="-37.83251" lon="144.99197"/>
      <trkpt lat="-37.83259" lon="144.99218"/>
      <trkpt lat="-37.83267" lon="144.99237"/>
      <trkpt lat="-37.83274" lon="144.99259"/>
      <trkpt lat="-37.8328" lon="144.9928"/>
      <trkpt lat="-37.83285" lon="144.99299"/>
      <trkpt lat="-37.83293" lon="144.99336"/>
      <trkpt lat="-37.83298" lon="144.99357"/>
      <trkpt lat="-37.83302" lon="144.99376"/>
      <trkpt lat="-37.83308" lon="144.99398"/>
      <trkpt lat="-37.83314" lon="144.9942"/>
      <trkpt lat="-37.83329" lon="144.99473"/>
      <trkpt lat="-37.83357" lon="144.99561"/>
      <trkpt lat="-37.83362" lon="144.99578"/>
      <trkpt lat="-37.83367" lon="144.99599"/>
      <trkpt lat="-37.83372" lon="144.99619"/>
      <trkpt lat="-37.83375" lon="144.99633"/>
      <trkpt lat="-37.83377" lon="144.9965"/>
      <trkpt lat="-37.83379" lon="144.9967"/>
      <trkpt lat="-37.8338" lon="144.99689"/>
      <trkpt lat="-37.83381" lon="144.99709"/>
      <trkpt lat="-37.83381" lon="144.99724"/>
      <trkpt lat="-37.8338" lon="144.99739"/>
      <trkpt lat="-37.83379" lon="144.99755"/>
      <trkpt lat="-37.83377" lon="144.9977"/>
      <trkpt lat="-37.83375" lon="144.99789"/>
      <trkpt lat="-37.83372" lon="144.99805"/>
      <trkpt lat="-37.83369" lon="144.99821"/>
      <trkpt lat="-37.83364" lon="144.99836"/>
      <trkpt lat="-37.83355" lon="144.9987"/>
      <trkpt lat="-37.83342" lon="144.99914"/>
      <trkpt lat="-37.83326" lon="144.99964"/>
      <trkpt lat="-37.83312" lon="145.00004"/>
      <trkpt lat="-37.83303" lon="145.00029"/>
      <trkpt lat="-37.83295" lon="145.00047"/>
      <trkpt lat="-37.83287" lon="145.00067"/>
      <trkpt lat="-37.83277" lon="145.00087"/>
      <trkpt lat="-37.83266" lon="145.0011"/>
      <trkpt lat="-37.8326" lon="145.00124"/>
      <trkpt lat="-37.83256" lon="145.0013"/>
      <trkpt lat="-37.83247" lon="145.00148"/>
      <trkpt lat="-37.83238" lon="145.00165"/>
      <trkpt lat="-37.83228" lon="145.00181"/>
      <trkpt lat="-37.83218" lon="145.00198"/>
      <trkpt lat="-37.83208" lon="145.00214"/>
      <trkpt lat="-37.83195" lon="145.00234"/>
      <trkpt lat="-37.83174" lon="145.00263"/>
      <trkpt lat="-37.83158" lon="145.00287"/>
      <trkpt lat="-37.83143" lon="145.00306"/>
      <trkpt lat="-37.83124" lon="145.00329"/>
      <trkpt lat="-37.83114" lon="145.00341"/>
      <trkpt lat="-37.83105" lon="145.00355"/>
      <trkpt lat="-37.83098" lon="145.00366"/>
      <trkpt lat="-37.83088" lon="145.00384"/>
      <trkpt lat="-37.83082" lon="145.00399"/>
      <trkpt lat="-37.83074" lon="145.00417"/>
      <trkpt lat="-37.83069" lon="145.00433"/>
      <trkpt lat="-37.83064" lon="145.00451"/>
      <trkpt lat="-37.8306" lon="145.0047"/>
      <trkpt lat="-37.83057" lon="145.00489"/>
      <trkpt lat="-37.83056" lon="145.00506"/>
      <trkpt lat="-37.83055" lon="145.00518"/>
      <trkpt lat="-37.83055" lon="145.00529"/>
      <trkpt lat="-37.83055" lon="145.00542"/>
      <trkpt lat="-37.83056" lon="145.00564"/>
      <trkpt lat="-37.83057" lon="145.00571"/>
      <trkpt lat="-37.83057" lon="145.0058"/>
      <trkpt lat="-37.83057" lon="145.00584"/>
      <trkpt lat="-37.83056" lon="145.00587"/>
      <trkpt lat="-37.83056" lon="145.00591"/>
      <trkpt lat="-37.83055" lon="145.00594"/>
      <trkpt lat="-37.83055" lon="145.00598"/>
      <trkpt lat="-37.83053" lon="145.00601"/>
      <trkpt lat="-37.83052" lon="145.00603"/>
      <trkpt lat="-37.83051" lon="145.00606"/>
      <trkpt lat="-37.8305" lon="145.00608"/>
      <trkpt lat="-37.83048" lon="145.0061"/>
      <trkpt lat="-37.83047" lon="145.00612"/>
      <trkpt lat="-37.83045" lon="145.00614"/>
      <trkpt lat="-37.83044" lon="145.00615"/>
      <trkpt lat="-37.83041" lon="145.00618"/>
      <trkpt lat="-37.83038" lon="145.00623"/>
      <trkpt lat="-37.83037" lon="145.00625"/>
      <trkpt lat="-37.83035" lon="145.00627"/>
      <trkpt lat="-37.83034" lon="145.00629"/>
      <trkpt lat="-37.83033" lon="145.00631"/>
      <trkpt lat="-37.83032" lon="145.00633"/>
      <trkpt lat="-37.83031" lon="145.00635"/>
      <trkpt lat="-37.83031" lon="145.00637"/>
      <trkpt lat="-37.8303" lon="145.00639"/>
      <trkpt lat="-37.83029" lon="145.00641"/>
      <trkpt lat="-37.83025" lon="145.0065"/>
      <trkpt lat="-37.83026" lon="145.00651"/>
      <trkpt lat="-37.83026" lon="145.00652"/>
      <trkpt lat="-37.83027" lon="145.00653"/>
      <trkpt lat="-37.83028" lon="145.00655"/>
      <trkpt lat="-37.83028" lon="145.00657"/>
      <trkpt lat="-37.83028" lon="145.00659"/>
      <trkpt lat="-37.83031" lon="145.00687"/>
      <trkpt lat="-37.83032" lon="145.00697"/>
      <trkpt lat="-37.83034" lon="145.00707"/>
      <trkpt lat="-37.83037" lon="145.00727"/>
      <trkpt lat="-37.83041" lon="145.0076"/>
      <trkpt lat="-37.83056" lon="145.00881"/>
      <trkpt lat="-37.83063" lon="145.00936"/>
      <trkpt lat="-37.83064" lon="145.0095"/>
      <trkpt lat="-37.83065" lon="145.00955"/>
      <trkpt lat="-37.83065" lon="145.00962"/>
      <trkpt lat="-37.83064" lon="145.00966"/>
      <trkpt lat="-37.83064" lon="145.00972"/>
      <trkpt lat="-37.83063" lon="145.00978"/>
      <trkpt lat="-37.83062" lon="145.00985"/>
      <trkpt lat="-37.83061" lon="145.0099"/>
      <trkpt lat="-37.8306" lon="145.00994"/>
      <trkpt lat="-37.83059" lon="145.00999"/>
      <trkpt lat="-37.83057" lon="145.01005"/>
      <trkpt lat="-37.83055" lon="145.01008"/>
      <trkpt lat="-37.8305" lon="145.01022"/>
      <trkpt lat="-37.83048" lon="145.0103"/>
      <trkpt lat="-37.83042" lon="145.01045"/>
      <trkpt lat="-37.8304" lon="145.01054"/>
      <trkpt lat="-37.83052" lon="145.01051"/>
      <trkpt lat="-37.83057" lon="145.0105"/>
      <trkpt lat="-37.8306" lon="145.0105"/>
      <trkpt lat="-37.83069" lon="145.01048"/>
      <trkpt lat="-37.83106" lon="145.01042"/>
      <trkpt lat="-37.8311" lon="145.01041"/>
      <trkpt lat="-37.83112" lon="145.0104"/>
      <trkpt lat="-37.83114" lon="145.0104"/>
      <trkpt lat="-37.83116" lon="145.01039"/>
      <trkpt lat="-37.83119" lon="145.01038"/>
      <trkpt lat="-37.83121" lon="145.01037"/>
      <trkpt lat="-37.83124" lon="145.01036"/>
      <trkpt lat="-37.83126" lon="145.01034"/>
      <trkpt lat="-37.83128" lon="145.01033"/>
      <trkpt lat="-37.8313" lon="145.01031"/>
      <trkpt lat="-37.83131" lon="145.0103"/>
      <trkpt lat="-37.83133" lon="145.01028"/>
      <trkpt lat="-37.83135" lon="145.01027"/>
      <trkpt lat="-37.83136" lon="145.01025"/>
      <trkpt lat="-37.83138" lon="145.01022"/>
      <trkpt lat="-37.8314" lon="145.0102"/>
      <trkpt lat="-37.83142" lon="145.01017"/>
      <trkpt lat="-37.83146" lon="145.0101"/>
      <trkpt lat="-37.83147" lon="145.01008"/>
      <trkpt lat="-37.83148" lon="145.01005"/>
      <trkpt lat="-37.83149" lon="145.01002"/>
      <trkpt lat="-37.8315" lon="145.00998"/>
      <trkpt lat="-37.83151" lon="145.00995"/>
      <trkpt lat="-37.83152" lon="145.00991"/>
      <trkpt lat="-37.83153" lon="145.00988"/>
      <trkpt lat="-37.83153" lon="145.00984"/>
      <trkpt lat="-37.83154" lon="145.0098"/>
      <trkpt lat="-37.83154" lon="145.00976"/>
      <trkpt lat="-37.83154" lon="145.00971"/>
      <trkpt lat="-37.83153" lon="145.00967"/>
      <trkpt lat="-37.83153" lon="145.00963"/>
      <trkpt lat="-37.83152" lon="145.00959"/>
      <trkpt lat="-37.83151" lon="145.00952"/>
      <trkpt lat="-37.83147" lon="145.00936"/>
      <trkpt lat="-37.83144" lon="145.00917"/>
      <trkpt lat="-37.8314" lon="145.00896"/>
      <trkpt lat="-37.83136" lon="145.0087"/>
      <trkpt lat="-37.83127" lon="145.00828"/>
      <trkpt lat="-37.83125" lon="145.00818"/>
      <trkpt lat="-37.83121" lon="145.00793"/>
      <trkpt lat="-37.83112" lon="145.00755"/>
      <trkpt lat="-37.83106" lon="145.00726"/>
      <trkpt lat="-37.831" lon="145.00694"/>
      <trkpt lat="-37.83079" lon="145.00592"/>
      <trkpt lat="-37.83078" lon="145.00573"/>
      <trkpt lat="-37.83078" lon="145.00559"/>
      <trkpt lat="-37.83078" lon="145.00547"/>
      <trkpt lat="-37.83078" lon="145.00535"/>
      <trkpt lat="-37.83079" lon="145.00522"/>
      <trkpt lat="-37.8308" lon="145.00509"/>
      <trkpt lat="-37.83082" lon="145.00494"/>
      <trkpt lat="-37.83085" lon="145.0048"/>
      <trkpt lat="-37.83088" lon="145.00463"/>
      <trkpt lat="-37.83093" lon="145.00445"/>
      <trkpt lat="-37.83096" lon="145.00431"/>
      <trkpt lat="-37.831" lon="145.00419"/>
      <trkpt lat="-37.83106" lon="145.00402"/>
      <trkpt lat="-37.83113" lon="145.00386"/>
      <trkpt lat="-37.83119" lon="145.00373"/>
      <trkpt lat="-37.83127" lon="145.00356"/>
      <trkpt lat="-37.83135" lon="145.00342"/>
      <trkpt lat="-37.83146" lon="145.00324"/>
      <trkpt lat="-37.83159" lon="145.00307"/>
      <trkpt lat="-37.83177" lon="145.0028"/>
      <trkpt lat="-37.83195" lon="145.00255"/>
      <trkpt lat="-37.83209" lon="145.00234"/>
      <trkpt lat="-37.8322" lon="145.00218"/>
      <trkpt lat="-37.8323" lon="145.00201"/>
      <trkpt lat="-37.83241" lon="145.00183"/>
      <trkpt lat="-37.83251" lon="145.00165"/>
      <trkpt lat="-37.8326" lon="145.00149"/>
      <trkpt lat="-37.83268" lon="145.00133"/>
      <trkpt lat="-37.83274" lon="145.00121"/>
      <trkpt lat="-37.83283" lon="145.00102"/>
      <trkpt lat="-37.83292" lon="145.00084"/>
      <trkpt lat="-37.83299" lon="145.00066"/>
      <trkpt lat="-37.83307" lon="145.00047"/>
      <trkpt lat="-37.83314" lon="145.00028"/>
      <trkpt lat="-37.83326" lon="144.99994"/>
      <trkpt lat="-37.8335" lon="144.99921"/>
      <trkpt lat="-37.83365" lon="144.9987"/>
      <trkpt lat="-37.83373" lon="144.99841"/>
      <trkpt lat="-37.83379" lon="144.99819"/>
      <trkpt lat="-37.83382" lon="144.99802"/>
      <trkpt lat="-37.83385" lon="144.99786"/>
      <trkpt lat="-37.83387" lon="144.99769"/>
      <trkpt lat="-37.83389" lon="144.99752"/>
      <trkpt lat="-37.8339" lon="144.99734"/>
      <trkpt lat="-37.83391" lon="144.99715"/>
      <trkpt lat="-37.8339" lon="144.99697"/>
      <trkpt lat="-37.83389" lon="144.99678"/>
      <trkpt lat="-37.83387" lon="144.99656"/>
      <trkpt lat="-37.83385" lon="144.9964"/>
      <trkpt lat="-37.83383" lon="144.99625"/>
      <trkpt lat="-37.83379" lon="144.99608"/>
      <trkpt lat="-37.83375" lon="144.99592"/>
      <trkpt lat="-37.83371" lon="144.99575"/>
      <trkpt lat="-37.83365" lon="144.99556"/>
      <trkpt lat="-37.83357" lon="144.9953"/>
      <trkpt lat="-37.83347" lon="144.99498"/>
      <trkpt lat="-37.83345" lon="144.99492"/>
      <trkpt lat="-37.83339" lon="144.99473"/>
      <trkpt lat="-37.83332" lon="144.99448"/>
      <trkpt lat="-37.83325" lon="144.99424"/>
      <trkpt lat="-37.83318" lon="144.994"/>
      <trkpt lat="-37.83313" lon="144.99377"/>
      <trkpt lat="-37.83307" lon="144.99353"/>
      <trkpt lat="-37.83302" lon="144.99334"/>
      <trkpt lat="-37.83298" lon="144.99314"/>
      <trkpt lat="-37.83292" lon="144.99288"/>
      <trkpt lat="-37.83288" lon="144.99263"/>
      <trkpt lat="-37.8328" lon="144.99234"/>
      <trkpt lat="-37.83271" lon="144.99208"/>
      <trkpt lat="-37.83259" lon="144.99181"/>
      <trkpt lat="-37.83241" lon="144.99148"/>
      <trkpt lat="-37.83228" lon="144.99128"/>
      <trkpt lat="-37.8321" lon="144.99104"/>
      <trkpt lat="-37.83194" lon="144.99085"/>
      <trkpt lat="-37.83109" lon="144.98992"/>
      <trkpt lat="-37.83094" lon="144.98976"/>
      <trkpt lat="-37.83036" lon="144.98917"/>
      <trkpt lat="-37.82989" lon="144.98871"/>
      <trkpt lat="-37.82963" lon="144.98847"/>
      <trkpt lat="-37.82934" lon="144.98822"/>
      <trkpt lat="-37.82906" lon="144.98799"/>
      <trkpt lat="-37.82881" lon="144.9878"/>
      <trkpt lat="-37.82847" lon="144.98754"/>
      <trkpt lat="-37.82801" lon="144.98717"/>
      <trkpt lat="-37.82785" lon="144.98704"/>
      <trkpt lat="-37.82763" lon="144.98684"/>
      <trkpt lat="-37.82754" lon="144.98675"/>
      <trkpt lat="-37.82744" lon="144.98664"/>
      <trkpt lat="-37.82731" lon="144.9865"/>
      <trkpt lat="-37.8272" lon="144.98635"/>
      <trkpt lat="-37.8271" lon="144.98621"/>
      <trkpt lat="-37.82705" lon="144.98613"/>
      <trkpt lat="-37.82697" lon="144.986"/>
      <trkpt lat="-37.8269" lon="144.98586"/>
      <trkpt lat="-37.82683" lon="144.98573"/>
      <trkpt lat="-37.82678" lon="144.98561"/>
      <trkpt lat="-37.8267" lon="144.98543"/>
      <trkpt lat="-37.82662" lon="144.98521"/>
      <trkpt lat="-37.82657" lon="144.98506"/>
      <trkpt lat="-37.82652" lon="144.98488"/>
      <trkpt lat="-37.82648" lon="144.98473"/>
      <trkpt lat="-37.82641" lon="144.98441"/>
      <trkpt lat="-37.82638" lon="144.9843"/>
      <trkpt lat="-37.82628" lon="144.98378"/>
      <trkpt lat="-37.82618" lon="144.98313"/>
      <trkpt lat="-37.826" lon="144.98183"/>
      <trkpt lat="-37.82595" lon="144.98115"/>
      <trkpt lat="-37.82583" lon="144.98003"/>
      <trkpt lat="-37.82573" lon="144.97869"/>
      <trkpt lat="-37.82562" lon="144.97772"/>
      <trkpt lat="-37.8255" lon="144.97691"/>
      <trkpt lat="-37.82524" lon="144.97547"/>
      <trkpt lat="-37.82505" lon="144.97434"/>
      <trkpt lat="-37.82499" lon="144.97361"/>
      <trkpt lat="-37.82495" lon="144.97263"/>
      <trkpt lat="-37.825" lon="144.972"/>
      <trkpt lat="-37.825" lon="144.97198"/>
      <trkpt lat="-37.82507" lon="144.97136"/>
      <trkpt lat="-37.82517" lon="144.97081"/>
      <trkpt lat="-37.82532" lon="144.97021"/>
      <trkpt lat="-37.82547" lon="144.96967"/>
      <trkpt lat="-37.82594" lon="144.96813"/>
      <trkpt lat="-37.82607" lon="144.9678"/>
      <trkpt lat="-37.82637" lon="144.96701"/>
      <trkpt lat="-37.8265" lon="144.96665"/>
      <trkpt lat="-37.82666" lon="144.96619"/>
      <trkpt lat="-37.82709" lon="144.96496"/>
      <trkpt lat="-37.82713" lon="144.96482"/>
      <trkpt lat="-37.8273" lon="144.9643"/>
      <trkpt lat="-37.82735" lon="144.96414"/>
      <trkpt lat="-37.82739" lon="144.964"/>
      <trkpt lat="-37.82742" lon="144.96385"/>
      <trkpt lat="-37.82746" lon="144.96359"/>
      <trkpt lat="-37.82762" lon="144.96299"/>
      <trkpt lat="-37.82765" lon="144.96289"/>
      <trkpt lat="-37.82769" lon="144.96281"/>
      <trkpt lat="-37.82774" lon="144.96273"/>
      <trkpt lat="-37.8278" lon="144.96267"/>
      <trkpt lat="-37.82785" lon="144.96262"/>
      <trkpt lat="-37.82788" lon="144.9626"/>
      <trkpt lat="-37.82793" lon="144.96258"/>
      <trkpt lat="-37.82798" lon="144.96259"/>
      <trkpt lat="-37.82802" lon="144.96261"/>
      <trkpt lat="-37.82811" lon="144.96269"/>
      <trkpt lat="-37.82826" lon="144.96286"/>
      <trkpt lat="-37.82851" lon="144.96311"/>
      <trkpt lat="-37.82865" lon="144.96324"/>
      <trkpt lat="-37.82903" lon="144.96363"/>
      <trkpt lat="-37.82922" lon="144.96381"/>
      <trkpt lat="-37.82929" lon="144.96389"/>
      <trkpt lat="-37.82933" lon="144.96392"/>
      <trkpt lat="-37.82941" lon="144.964"/>
      <trkpt lat="-37.82999" lon="144.96458"/>
      <trkpt lat="-37.83029" lon="144.96487"/>
      <trkpt lat="-37.83035" lon="144.96494"/>
      <trkpt lat="-37.83049" lon="144.96507"/>
      <trkpt lat="-37.83051" lon="144.96509"/>
      <trkpt lat="-37.83056" lon="144.96514"/>
      <trkpt lat="-37.83061" lon="144.96518"/>
      <trkpt lat="-37.83064" lon="144.96521"/>
      <trkpt lat="-37.83065" lon="144.96521"/>
      <trkpt lat="-37.8307" lon="144.96526"/>
      <trkpt lat="-37.83071" lon="144.96527"/>
      <trkpt lat="-37.83079" lon="144.96535"/>
      <trkpt lat="-37.83144" lon="144.96598"/>
      <trkpt lat="-37.83244" lon="144.96696"/>
      <trkpt lat="-37.83259" lon="144.96712"/>
      <trkpt lat="-37.83293" lon="144.96745"/>
      <trkpt lat="-37.83304" lon="144.96755"/>
      <trkpt lat="-37.83324" lon="144.96776"/>
      <trkpt lat="-37.83326" lon="144.96779"/>
      <trkpt lat="-37.83328" lon="144.96781"/>
      <trkpt lat="-37.83334" lon="144.96788"/>
      <trkpt lat="-37.83331" lon="144.96799"/>
      <trkpt lat="-37.83329" lon="144.96804"/>
      <trkpt lat="-37.83312" lon="144.96867"/>
      <trkpt lat="-37.833" lon="144.9691"/>
      <trkpt lat="-37.83295" lon="144.96925"/>
      <trkpt lat="-37.83292" lon="144.96931"/>
      <trkpt lat="-37.83289" lon="144.96939"/>
      <trkpt lat="-37.83289" lon="144.96941"/>
      <trkpt lat="-37.83284" lon="144.96958"/>
      <trkpt lat="-37.83276" lon="144.96983"/>
      <trkpt lat="-37.83274" lon="144.96993"/>
      <trkpt lat="-37.8327" lon="144.97007"/>
      <trkpt lat="-37.83267" lon="144.97019"/>
      <trkpt lat="-37.83263" lon="144.97035"/>
      <trkpt lat="-37.83248" lon="144.97087"/>
      <trkpt lat="-37.83243" lon="144.97107"/>
      <trkpt lat="-37.83234" lon="144.97137"/>
      <trkpt lat="-37.83233" lon="144.97141"/>
      <trkpt lat="-37.83232" lon="144.97143"/>
      <trkpt lat="-37.83227" lon="144.97159"/>
      <trkpt lat="-37.83224" lon="144.97174"/>
      <trkpt lat="-37.83224" lon="144.9718"/>
      <trkpt lat="-37.83228" lon="144.97202"/>
      <trkpt lat="-37.83241" lon="144.97213"/>
      <trkpt lat="-37.83247" lon="144.97219"/>
      <trkpt lat="-37.83254" lon="144.97225"/>
      <trkpt lat="-37.83266" lon="144.97235"/>
      <trkpt lat="-37.8327" lon="144.9724"/>
      <trkpt lat="-37.83275" lon="144.97244"/>
      <trkpt lat="-37.83277" lon="144.97246"/>
      <trkpt lat="-37.83285" lon="144.97253"/>
      <trkpt lat="-37.8329" lon="144.97258"/>
      <trkpt lat="-37.83293" lon="144.97262"/>
      <trkpt lat="-37.83307" lon="144.9728"/>
      <trkpt lat="-37.83314" lon="144.9729"/>
      <trkpt lat="-37.8332" lon="144.97298"/>
      <trkpt lat="-37.83342" lon="144.97333"/>
      <trkpt lat="-37.83353" lon="144.9735"/>
      <trkpt lat="-37.83366" lon="144.97369"/>
      <trkpt lat="-37.83371" lon="144.97376"/>
      <trkpt lat="-37.83379" lon="144.97386"/>
      <trkpt lat="-37.83392" lon="144.97402"/>
      <trkpt lat="-37.83402" lon="144.97414"/>
      <trkpt lat="-37.83414" lon="144.97429"/>
      <trkpt lat="-37.8343" lon="144.97446"/>
      <trkpt lat="-37.83442" lon="144.97458"/>
      <trkpt lat="-37.8345" lon="144.97465"/>
      <trkpt lat="-37.83461" lon="144.97475"/>
      <trkpt lat="-37.83478" lon="144.97489"/>
      <trkpt lat="-37.83489" lon="144.97498"/>
      <trkpt lat="-37.83506" lon="144.9751"/>
      <trkpt lat="-37.83516" lon="144.97516"/>
      <trkpt lat="-37.83518" lon="144.97517"/>
      <trkpt lat="-37.83523" lon="144.9752"/>
      <trkpt lat="-37.83536" lon="144.97528"/>
      <trkpt lat="-37.83547" lon="144.97535"/>
      <trkpt lat="-37.8355" lon="144.97537"/>
      <trkpt lat="-37.83566" lon="144.97547"/>
      <trkpt lat="-37.83593" lon="144.97562"/>
      <trkpt lat="-37.83602" lon="144.97567"/>
      <trkpt lat="-37.83607" lon="144.97569"/>
      <trkpt lat="-37.83611" lon="144.9757"/>
      <trkpt lat="-37.83613" lon="144.97571"/>
      <trkpt lat="-37.8363" lon="144.97575"/>
      <trkpt lat="-37.8363" lon="144.97573"/>
      <trkpt lat="-37.8363" lon="144.97564"/>
      <trkpt lat="-37.8363" lon="144.97558"/>
      <trkpt lat="-37.8363" lon="144.97556"/>
      <trkpt lat="-37.8363" lon="144.97554"/>
      <trkpt lat="-37.8363" lon="144.9755"/>
      <trkpt lat="-37.8363" lon="144.97547"/>
      <trkpt lat="-37.8363" lon="144.97544"/>
      <trkpt lat="-37.83631" lon="144.9754"/>
      <trkpt lat="-37.83623" lon="144.97536"/>
      <trkpt lat="-37.83614" lon="144.97531"/>
      <trkpt lat="-37.83592" lon="144.97518"/>
      <trkpt lat="-37.83567" lon="144.97505"/>
      <trkpt lat="-37.83556" lon="144.97499"/>
      <trkpt lat="-37.83543" lon="144.97491"/>
      <trkpt lat="-37.8353" lon="144.97482"/>
      <trkpt lat="-37.83528" lon="144.97481"/>
      <trkpt lat="-37.83523" lon="144.97478"/>
      <trkpt lat="-37.8351" lon="144.97469"/>
      <trkpt lat="-37.83503" lon="144.97463"/>
      <trkpt lat="-37.83491" lon="144.97454"/>
      <trkpt lat="-37.8348" lon="144.97446"/>
      <trkpt lat="-37.83476" lon="144.97441"/>
      <trkpt lat="-37.83465" lon="144.97432"/>
      <trkpt lat="-37.8347" lon="144.97425"/>
      <trkpt lat="-37.83473" lon="144.9742"/>
      <trkpt lat="-37.83477" lon="144.97413"/>
      <trkpt lat="-37.83498" lon="144.97382"/>
      <trkpt lat="-37.83501" lon="144.97376"/>
      <trkpt lat="-37.83504" lon="144.97378"/>
      <trkpt lat="-37.83505" lon="144.9738"/>
      <trkpt lat="-37.83507" lon="144.9738"/>
      <trkpt lat="-37.83513" lon="144.97384"/>
      <trkpt lat="-37.83607" lon="144.97418"/>
      <trkpt lat="-37.83513" lon="144.97384"/>
      <trkpt lat="-37.83507" lon="144.9738"/>
      <trkpt lat="-37.83505" lon="144.9738"/>
      <trkpt lat="-37.83504" lon="144.97378"/>
      <trkpt lat="-37.83501" lon="144.97376"/>
      <trkpt lat="-37.83498" lon="144.97382"/>
      <trkpt lat="-37.83477" lon="144.97413"/>
      <trkpt lat="-37.83473" lon="144.9742"/>
      <trkpt lat="-37.8347" lon="144.97425"/>
      <trkpt lat="-37.83465" lon="144.97432"/>
      <trkpt lat="-37.83458" lon="144.97426"/>
      <trkpt lat="-37.83451" lon="144.9742"/>
      <trkpt lat="-37.83434" lon="144.97405"/>
      <trkpt lat="-37.83429" lon="144.974"/>
      <trkpt lat="-37.83422" lon="144.97393"/>
      <trkpt lat="-37.83417" lon="144.97387"/>
      <trkpt lat="-37.83409" lon="144.97377"/>
      <trkpt lat="-37.83403" lon="144.97369"/>
      <trkpt lat="-37.83398" lon="144.9736"/>
      <trkpt lat="-37.83396" lon="144.97357"/>
      <trkpt lat="-37.83388" lon="144.97345"/>
      <trkpt lat="-37.83381" lon="144.97328"/>
      <trkpt lat="-37.83367" lon="144.97293"/>
      <trkpt lat="-37.83365" lon="144.97289"/>
      <trkpt lat="-37.83355" lon="144.97269"/>
      <trkpt lat="-37.83349" lon="144.97257"/>
      <trkpt lat="-37.83348" lon="144.97254"/>
      <trkpt lat="-37.83337" lon="144.97235"/>
      <trkpt lat="-37.83322" lon="144.97213"/>
      <trkpt lat="-37.83319" lon="144.9721"/>
      <trkpt lat="-37.83314" lon="144.97205"/>
      <trkpt lat="-37.83308" lon="144.97199"/>
      <trkpt lat="-37.8329" lon="144.97185"/>
      <trkpt lat="-37.83281" lon="144.9718"/>
      <trkpt lat="-37.83268" lon="144.97174"/>
      <trkpt lat="-37.83251" lon="144.97168"/>
      <trkpt lat="-37.83249" lon="144.97167"/>
      <trkpt lat="-37.83246" lon="144.97166"/>
      <trkpt lat="-37.83241" lon="144.97164"/>
      <trkpt lat="-37.83239" lon="144.97163"/>
      <trkpt lat="-37.83232" lon="144.97161"/>
      <trkpt lat="-37.83227" lon="144.97159"/>
      <trkpt lat="-37.83219" lon="144.97154"/>
      <trkpt lat="-37.83195" lon="144.97142"/>
      <trkpt lat="-37.83145" lon="144.97124"/>
      <trkpt lat="-37.8313" lon="144.9712"/>
      <trkpt lat="-37.8312" lon="144.97118"/>
      <trkpt lat="-37.83105" lon="144.97117"/>
      <trkpt lat="-37.83091" lon="144.97116"/>
      <trkpt lat="-37.83044" lon="144.97112"/>
      <trkpt lat="-37.83018" lon="144.97111"/>
      <trkpt lat="-37.82997" lon="144.9711"/>
      <trkpt lat="-37.82982" lon="144.9711"/>
      <trkpt lat="-37.82891" lon="144.97111"/>
      <trkpt lat="-37.82884" lon="144.97111"/>
      <trkpt lat="-37.82877" lon="144.97111"/>
      <trkpt lat="-37.82868" lon="144.97112"/>
      <trkpt lat="-37.82863" lon="144.97112"/>
      <trkpt lat="-37.82864" lon="144.97124"/>
      <trkpt lat="-37.82856" lon="144.97124"/>
      <trkpt lat="-37.82829" lon="144.97128"/>
      <trkpt lat="-37.82774" lon="144.97133"/>
      <trkpt lat="-37.82745" lon="144.97136"/>
      <trkpt lat="-37.82728" lon="144.97136"/>
      <trkpt lat="-37.82715" lon="144.97136"/>
      <trkpt lat="-37.82714" lon="144.97141"/>
      <trkpt lat="-37.82714" lon="144.97145"/>
      <trkpt lat="-37.82713" lon="144.97151"/>
      <trkpt lat="-37.82721" lon="144.97151"/>
      <trkpt lat="-37.82737" lon="144.9715"/>
      <trkpt lat="-37.82752" lon="144.97148"/>
      <trkpt lat="-37.82764" lon="144.97147"/>
      <trkpt lat="-37.82777" lon="144.97147"/>
      <trkpt lat="-37.828" lon="144.97146"/>
      <trkpt lat="-37.82824" lon="144.97145"/>
      <trkpt lat="-37.82851" lon="144.97143"/>
      <trkpt lat="-37.82869" lon="144.97141"/>
      <trkpt lat="-37.82886" lon="144.9714"/>
      <trkpt lat="-37.82891" lon="144.97139"/>
      <trkpt lat="-37.82907" lon="144.97136"/>
      <trkpt lat="-37.82919" lon="144.97136"/>
      <trkpt lat="-37.82935" lon="144.97136"/>
      <trkpt lat="-37.8298" lon="144.97138"/>
      <trkpt lat="-37.82983" lon="144.97139"/>
      <trkpt lat="-37.82992" lon="144.9714"/>
      <trkpt lat="-37.82992" lon="144.97134"/>
      <trkpt lat="-37.82993" lon="144.9713"/>
      <trkpt lat="-37.82993" lon="144.97127"/>
      <trkpt lat="-37.82994" lon="144.97123"/>
      <trkpt lat="-37.82997" lon="144.9711"/>
      <trkpt lat="-37.82982" lon="144.9711"/>
      <trkpt lat="-37.82891" lon="144.97111"/>
      <trkpt lat="-37.82884" lon="144.97111"/>
      <trkpt lat="-37.82877" lon="144.97111"/>
      <trkpt lat="-37.82868" lon="144.97112"/>
      <trkpt lat="-37.82863" lon="144.97112"/>
      <trkpt lat="-37.82818" lon="144.97115"/>
      <trkpt lat="-37.82782" lon="144.97119"/>
      <trkpt lat="-37.82762" lon="144.9712"/>
      <trkpt lat="-37.82746" lon="144.97121"/>
      <trkpt lat="-37.8273" lon="144.97122"/>
      <trkpt lat="-37.82677" lon="144.97118"/>
      <trkpt lat="-37.82653" lon="144.97115"/>
      <trkpt lat="-37.82632" lon="144.97112"/>
      <trkpt lat="-37.82613" lon="144.97108"/>
      <trkpt lat="-37.82599" lon="144.97104"/>
      <trkpt lat="-37.82572" lon="144.97097"/>
      <trkpt lat="-37.82535" lon="144.97084"/>
      <trkpt lat="-37.82501" lon="144.97069"/>
      <trkpt lat="-37.8249" lon="144.97064"/>
      <trkpt lat="-37.82483" lon="144.97061"/>
      <trkpt lat="-37.82468" lon="144.97053"/>
      <trkpt lat="-37.82462" lon="144.97063"/>
      <trkpt lat="-37.82413" lon="144.97041"/>
      <trkpt lat="-37.82381" lon="144.97027"/>
      <trkpt lat="-37.82349" lon="144.97012"/>
      <trkpt lat="-37.82346" lon="144.97011"/>
      <trkpt lat="-37.82337" lon="144.97007"/>
      <trkpt lat="-37.82328" lon="144.97002"/>
      <trkpt lat="-37.82321" lon="144.96999"/>
      <trkpt lat="-37.82318" lon="144.96998"/>
      <trkpt lat="-37.82216" lon="144.9695"/>
      <trkpt lat="-37.82209" lon="144.96947"/>
      <trkpt lat="-37.82174" lon="144.96931"/>
      <trkpt lat="-37.82162" lon="144.96925"/>
      <trkpt lat="-37.82142" lon="144.96914"/>
      <trkpt lat="-37.82105" lon="144.96896"/>
      <trkpt lat="-37.82099" lon="144.96893"/>
      <trkpt lat="-37.82046" lon="144.96869"/>
      <trkpt lat="-37.8204" lon="144.96867"/>
      <trkpt lat="-37.8203" lon="144.96864"/>
      <trkpt lat="-37.82024" lon="144.96863"/>
      <trkpt lat="-37.82019" lon="144.96861"/>
      <trkpt lat="-37.82013" lon="144.9686"/>
      <trkpt lat="-37.82008" lon="144.96858"/>
      <trkpt lat="-37.82005" lon="144.96857"/>
      <trkpt lat="-37.82003" lon="144.96856"/>
      <trkpt lat="-37.81999" lon="144.96854"/>
      <trkpt lat="-37.81979" lon="144.96845"/>
      <trkpt lat="-37.81881" lon="144.96801"/>
      <trkpt lat="-37.81876" lon="144.96798"/>
      <trkpt lat="-37.81873" lon="144.96796"/>
      <trkpt lat="-37.8187" lon="144.96794"/>
      <trkpt lat="-37.81868" lon="144.96793"/>
      <trkpt lat="-37.81864" lon="144.9679"/>
      <trkpt lat="-37.81861" lon="144.96788"/>
      <trkpt lat="-37.81859" lon="144.96787"/>
      <trkpt lat="-37.81858" lon="144.96786"/>
      <trkpt lat="-37.81857" lon="144.96785"/>
      <trkpt lat="-37.81856" lon="144.96784"/>
      <trkpt lat="-37.81855" lon="144.96783"/>
      <trkpt lat="-37.81853" lon="144.96782"/>
      <trkpt lat="-37.81849" lon="144.96779"/>
      <trkpt lat="-37.81836" lon="144.96774"/>
      <trkpt lat="-37.81796" lon="144.96755"/>
      <trkpt lat="-37.81789" lon="144.96753"/>
      <trkpt lat="-37.81781" lon="144.96749"/>
      <trkpt lat="-37.8177" lon="144.96745"/>
      <trkpt lat="-37.81766" lon="144.96744"/>
      <trkpt lat="-37.81763" lon="144.96743"/>
      <trkpt lat="-37.81761" lon="144.96742"/>
      <trkpt lat="-37.81758" lon="144.96742"/>
      <trkpt lat="-37.81755" lon="144.96741"/>
      <trkpt lat="-37.81753" lon="144.96741"/>
      <trkpt lat="-37.81751" lon="144.96741"/>
      <trkpt lat="-37.81747" lon="144.96741"/>
      <trkpt lat="-37.81745" lon="144.96741"/>
      <trkpt lat="-37.81744" lon="144.96741"/>
      <trkpt lat="-37.81743" lon="144.96741"/>
      <trkpt lat="-37.81742" lon="144.96741"/>
      <trkpt lat="-37.8174" lon="144.96741"/>
      <trkpt lat="-37.81739" lon="144.96743"/>
      <trkpt lat="-37.81736" lon="144.96756"/>
      <trkpt lat="-37.81734" lon="144.9676"/>
      <trkpt lat="-37.81729" lon="144.96779"/>
      <trkpt lat="-37.8172" lon="144.96806"/>
      <trkpt lat="-37.81716" lon="144.96821"/>
      <trkpt lat="-37.81688" lon="144.96921"/>
      <trkpt lat="-37.81686" lon="144.96926"/>
      <trkpt lat="-37.81685" lon="144.96931"/>
      <trkpt lat="-37.81674" lon="144.96968"/>
      <trkpt lat="-37.81669" lon="144.96984"/>
      <trkpt lat="-37.81666" lon="144.96995"/>
      <trkpt lat="-37.81663" lon="144.97004"/>
      <trkpt lat="-37.81652" lon="144.97033"/>
      <trkpt lat="-37.81637" lon="144.97085"/>
      <trkpt lat="-37.81635" lon="144.97093"/>
      <trkpt lat="-37.81629" lon="144.97112"/>
      <trkpt lat="-37.81597" lon="144.97216"/>
      <trkpt lat="-37.81596" lon="144.9722"/>
      <trkpt lat="-37.81594" lon="144.97229"/>
      <trkpt lat="-37.81591" lon="144.97243"/>
      <trkpt lat="-37.81589" lon="144.97252"/>
      <trkpt lat="-37.81585" lon="144.97266"/>
      <trkpt lat="-37.81583" lon="144.97275"/>
      <trkpt lat="-37.81561" lon="144.97349"/>
      <trkpt lat="-37.81558" lon="144.9736"/>
      <trkpt lat="-37.8155" lon="144.97382"/>
      <trkpt lat="-37.81545" lon="144.97396"/>
      <trkpt lat="-37.81527" lon="144.97458"/>
      <trkpt lat="-37.81525" lon="144.97466"/>
      <trkpt lat="-37.81523" lon="144.97475"/>
      <trkpt lat="-37.81522" lon="144.97478"/>
      <trkpt lat="-37.81521" lon="144.97482"/>
      <trkpt lat="-37.8152" lon="144.97485"/>
      <trkpt lat="-37.8152" lon="144.97487"/>
      <trkpt lat="-37.81519" lon="144.9749"/>
      <trkpt lat="-37.81519" lon="144.97493"/>
      <trkpt lat="-37.81519" lon="144.97496"/>
      <trkpt lat="-37.81519" lon="144.97499"/>
      <trkpt lat="-37.81519" lon="144.97503"/>
      <trkpt lat="-37.8152" lon="144.97509"/>
      <trkpt lat="-37.81521" lon="144.9752"/>
      <trkpt lat="-37.81522" lon="144.97532"/>
      <trkpt lat="-37.81534" lon="144.97642"/>
      <trkpt lat="-37.81535" lon="144.97649"/>
      <trkpt lat="-37.81536" lon="144.97676"/>
      <trkpt lat="-37.81542" lon="144.9772"/>
      <trkpt lat="-37.81542" lon="144.97724"/>
      <trkpt lat="-37.81543" lon="144.97733"/>
      <trkpt lat="-37.81545" lon="144.97751"/>
      <trkpt lat="-37.81546" lon="144.97758"/>
      <trkpt lat="-37.81551" lon="144.97803"/>
      <trkpt lat="-37.81554" lon="144.97829"/>
      <trkpt lat="-37.81561" lon="144.97894"/>
      <trkpt lat="-37.81562" lon="144.97898"/>
      <trkpt lat="-37.81562" lon="144.97901"/>
      <trkpt lat="-37.81563" lon="144.97902"/>
      <trkpt lat="-37.81564" lon="144.97903"/>
      <trkpt lat="-37.81564" lon="144.97905"/>
      <trkpt lat="-37.81565" lon="144.97906"/>
      <trkpt lat="-37.81565" lon="144.97907"/>
      <trkpt lat="-37.81566" lon="144.97908"/>
      <trkpt lat="-37.81567" lon="144.97909"/>
      <trkpt lat="-37.81568" lon="144.9791"/>
      <trkpt lat="-37.81569" lon="144.97911"/>
      <trkpt lat="-37.8157" lon="144.97912"/>
      <trkpt lat="-37.81571" lon="144.97913"/>
      <trkpt lat="-37.81575" lon="144.97914"/>
      <trkpt lat="-37.81577" lon="144.97915"/>
      <trkpt lat="-37.81579" lon="144.97916"/>
      <trkpt lat="-37.8158" lon="144.97916"/>
      <trkpt lat="-37.81581" lon="144.97916"/>
      <trkpt lat="-37.81582" lon="144.97916"/>
      <trkpt lat="-37.81583" lon="144.97916"/>
      <trkpt lat="-37.81584" lon="144.97916"/>
      <trkpt lat="-37.81592" lon="144.97915"/>
      <trkpt lat="-37.81635" lon="144.97908"/>
      <trkpt lat="-37.81638" lon="144.97908"/>
      <trkpt lat="-37.81646" lon="144.97906"/>
      <trkpt lat="-37.81644" lon="144.97894"/>
      <trkpt lat="-37.81636" lon="144.97895"/>
      <trkpt lat="-37.8163" lon="144.97896"/>
      <trkpt lat="-37.81607" lon="144.979"/>
      <trkpt lat="-37.816" lon="144.97901"/>
      <trkpt lat="-37.81584" lon="144.97904"/>
      <trkpt lat="-37.81583" lon="144.97904"/>
      <trkpt lat="-37.81582" lon="144.97904"/>
      <trkpt lat="-37.81581" lon="144.97903"/>
      <trkpt lat="-37.8158" lon="144.97903"/>
      <trkpt lat="-37.81579" lon="144.97903"/>
      <trkpt lat="-37.81577" lon="144.97902"/>
      <trkpt lat="-37.81576" lon="144.97901"/>
      <trkpt lat="-37.81576" lon="144.979"/>
      <trkpt lat="-37.81575" lon="144.97899"/>
      <trkpt lat="-37.81568" lon="144.97835"/>
      <trkpt lat="-37.81564" lon="144.97794"/>
      <trkpt lat="-37.81559" lon="144.97751"/>
      <trkpt lat="-37.81559" lon="144.9775"/>
      <trkpt lat="-37.81558" lon="144.97738"/>
      <trkpt lat="-37.81556" lon="144.97721"/>
      <trkpt lat="-37.81555" lon="144.97712"/>
      <trkpt lat="-37.81547" lon="144.97637"/>
      <trkpt lat="-37.81538" lon="144.9755"/>
      <trkpt lat="-37.81534" lon="144.9752"/>
      <trkpt lat="-37.81533" lon="144.97517"/>
      <trkpt lat="-37.81533" lon="144.97513"/>
      <trkpt lat="-37.81533" lon="144.9751"/>
      <trkpt lat="-37.81533" lon="144.97502"/>
      <trkpt lat="-37.81536" lon="144.97489"/>
      <trkpt lat="-37.8154" lon="144.97474"/>
      <trkpt lat="-37.81543" lon="144.97463"/>
      <trkpt lat="-37.81547" lon="144.97448"/>
      <trkpt lat="-37.81558" lon="144.97407"/>
      <trkpt lat="-37.8156" lon="144.97401"/>
      <trkpt lat="-37.81564" lon="144.97389"/>
      <trkpt lat="-37.81566" lon="144.97382"/>
      <trkpt lat="-37.81571" lon="144.97362"/>
      <trkpt lat="-37.81578" lon="144.9734"/>
      <trkpt lat="-37.81582" lon="144.9732"/>
      <trkpt lat="-37.81584" lon="144.97313"/>
      <trkpt lat="-37.81589" lon="144.97296"/>
      <trkpt lat="-37.81599" lon="144.97262"/>
      <trkpt lat="-37.81601" lon="144.97258"/>
      <trkpt lat="-37.81603" lon="144.97251"/>
      <trkpt lat="-37.81609" lon="144.97254"/>
      <trkpt lat="-37.8161" lon="144.97255"/>
      <trkpt lat="-37.8162" lon="144.97261"/>
      <trkpt lat="-37.8163" lon="144.97267"/>
      <trkpt lat="-37.8164" lon="144.97274"/>
      <trkpt lat="-37.81652" lon="144.97284"/>
      <trkpt lat="-37.8166" lon="144.97291"/>
      <trkpt lat="-37.81669" lon="144.97298"/>
      <trkpt lat="-37.81677" lon="144.97306"/>
      <trkpt lat="-37.81685" lon="144.97315"/>
      <trkpt lat="-37.81693" lon="144.97323"/>
      <trkpt lat="-37.81701" lon="144.97334"/>
      <trkpt lat="-37.81708" lon="144.97344"/>
      <trkpt lat="-37.81714" lon="144.97354"/>
      <trkpt lat="-37.81721" lon="144.97365"/>
      <trkpt lat="-37.81726" lon="144.97376"/>
      <trkpt lat="-37.81732" lon="144.97387"/>
      <trkpt lat="-37.81739" lon="144.97399"/>
      <trkpt lat="-37.81744" lon="144.9741"/>
      <trkpt lat="-37.81774" lon="144.97469"/>
      <trkpt lat="-37.81779" lon="144.97477"/>
      <trkpt lat="-37.81785" lon="144.97488"/>
      <trkpt lat="-37.8179" lon="144.97499"/>
      <trkpt lat="-37.81801" lon="144.97516"/>
      <trkpt lat="-37.81814" lon="144.97533"/>
      <trkpt lat="-37.81827" lon="144.97552"/>
      <trkpt lat="-37.81831" lon="144.97556"/>
      <trkpt lat="-37.81834" lon="144.97559"/>
      <trkpt lat="-37.81837" lon="144.97562"/>
      <trkpt lat="-37.81839" lon="144.97564"/>
      <trkpt lat="-37.81841" lon="144.97566"/>
      <trkpt lat="-37.8185" lon="144.97574"/>
      <trkpt lat="-37.81854" lon="144.97577"/>
      <trkpt lat="-37.81851" lon="144.97587"/>
      <trkpt lat="-37.81849" lon="144.97592"/>
      <trkpt lat="-37.81847" lon="144.97601"/>
      <trkpt lat="-37.81842" lon="144.9763"/>
      <trkpt lat="-37.81841" lon="144.97635"/>
      <trkpt lat="-37.8184" lon="144.97641"/>
      <trkpt lat="-37.8184" lon="144.97645"/>
      <trkpt lat="-37.8184" lon="144.97649"/>
      <trkpt lat="-37.81841" lon="144.97653"/>
      <trkpt lat="-37.81842" lon="144.97655"/>
      <trkpt lat="-37.81843" lon="144.97659"/>
      <trkpt lat="-37.81845" lon="144.97662"/>
      <trkpt lat="-37.81847" lon="144.97668"/>
      <trkpt lat="-37.81854" lon="144.97681"/>
      <trkpt lat="-37.81859" lon="144.97692"/>
      <trkpt lat="-37.81862" lon="144.97697"/>
      <trkpt lat="-37.81866" lon="144.97702"/>
      <trkpt lat="-37.81872" lon="144.97711"/>
      <trkpt lat="-37.81875" lon="144.97717"/>
      <trkpt lat="-37.81879" lon="144.97724"/>
      <trkpt lat="-37.81883" lon="144.97733"/>
      <trkpt lat="-37.81886" lon="144.97736"/>
      <trkpt lat="-37.81888" lon="144.97741"/>
      <trkpt lat="-37.81901" lon="144.97762"/>
      <trkpt lat="-37.81908" lon="144.97772"/>
      <trkpt lat="-37.81911" lon="144.97777"/>
      <trkpt lat="-37.81916" lon="144.97787"/>
      <trkpt lat="-37.81926" lon="144.97805"/>
      <trkpt lat="-37.81929" lon="144.9781"/>
      <trkpt lat="-37.8193" lon="144.97813"/>
      <trkpt lat="-37.81932" lon="144.97816"/>
      <trkpt lat="-37.81936" lon="144.97821"/>
      <trkpt lat="-37.81938" lon="144.97825"/>
      <trkpt lat="-37.8194" lon="144.97828"/>
      <trkpt lat="-37.81957" lon="144.97864"/>
      <trkpt lat="-37.81968" lon="144.97886"/>
      <trkpt lat="-37.81977" lon="144.97904"/>
      <trkpt lat="-37.81981" lon="144.97912"/>
      <trkpt lat="-37.81984" lon="144.97918"/>
      <trkpt lat="-37.81999" lon="144.97949"/>
      <trkpt lat="-37.82006" lon="144.97965"/>
      <trkpt lat="-37.82015" lon="144.97984"/>
      <trkpt lat="-37.82038" lon="144.98025"/>
      <trkpt lat="-37.82058" lon="144.98052"/>
      <trkpt lat="-37.82066" lon="144.98062"/>
      <trkpt lat="-37.82079" lon="144.98072"/>
      <trkpt lat="-37.82087" lon="144.98092"/>
      <trkpt lat="-37.82097" lon="144.98104"/>
      <trkpt lat="-37.8212" lon="144.98132"/>
      <trkpt lat="-37.82141" lon="144.98161"/>
      <trkpt lat="-37.82149" lon="144.98172"/>
      <trkpt lat="-37.82162" lon="144.98191"/>
      <trkpt lat="-37.82184" lon="144.98218"/>
      <trkpt lat="-37.82192" lon="144.98228"/>
      <trkpt lat="-37.82214" lon="144.98252"/>
      <trkpt lat="-37.82217" lon="144.98256"/>
      <trkpt lat="-37.82229" lon="144.9827"/>
      <trkpt lat="-37.82236" lon="144.98275"/>
      <trkpt lat="-37.82238" lon="144.98277"/>
      <trkpt lat="-37.82249" lon="144.98286"/>
      <trkpt lat="-37.82247" lon="144.9829"/>
      <trkpt lat="-37.82247" lon="144.98294"/>
      <trkpt lat="-37.82248" lon="144.98299"/>
      <trkpt lat="-37.8225" lon="144.98302"/>
      <trkpt lat="-37.82252" lon="144.98305"/>
      <trkpt lat="-37.82256" lon="144.98306"/>
      <trkpt lat="-37.82259" lon="144.98306"/>
      <trkpt lat="-37.82262" lon="144.98305"/>
      <trkpt lat="-37.82265" lon="144.98303"/>
      <trkpt lat="-37.82267" lon="144.98299"/>
      <trkpt lat="-37.82267" lon="144.98297"/>
      <trkpt lat="-37.82276" lon="144.98294"/>
      <trkpt lat="-37.82342" lon="144.98281"/>
      <trkpt lat="-37.82369" lon="144.98277"/>
      <trkpt lat="-37.82371" lon="144.98277"/>
      <trkpt lat="-37.82372" lon="144.98276"/>
      <trkpt lat="-37.82379" lon="144.98273"/>
      <trkpt lat="-37.82385" lon="144.98266"/>
      <trkpt lat="-37.82388" lon="144.9829"/>
      <trkpt lat="-37.82388" lon="144.98291"/>
      <trkpt lat="-37.82389" lon="144.98298"/>
      <trkpt lat="-37.82393" lon="144.98332"/>
      <trkpt lat="-37.82399" lon="144.98378"/>
      <trkpt lat="-37.82406" lon="144.9843"/>
      <trkpt lat="-37.82409" lon="144.98451"/>
      <trkpt lat="-37.82412" lon="144.98478"/>
      <trkpt lat="-37.82413" lon="144.98482"/>
      <trkpt lat="-37.82413" lon="144.98484"/>
      <trkpt lat="-37.82415" lon="144.98504"/>
      <trkpt lat="-37.82413" lon="144.98513"/>
      <trkpt lat="-37.82422" lon="144.98592"/>
      <trkpt lat="-37.82424" lon="144.98605"/>
      <trkpt lat="-37.82427" lon="144.98635"/>
      <trkpt lat="-37.82428" lon="144.98654"/>
      <trkpt lat="-37.82429" lon="144.98656"/>
      <trkpt lat="-37.8243" lon="144.9867"/>
      <trkpt lat="-37.82431" lon="144.98676"/>
      <trkpt lat="-37.82432" lon="144.98684"/>
      <trkpt lat="-37.82433" lon="144.98698"/>
      <trkpt lat="-37.82432" lon="144.98718"/>
      <trkpt lat="-37.82429" lon="144.98744"/>
      <trkpt lat="-37.82428" lon="144.98753"/>
      <trkpt lat="-37.82428" lon="144.98758"/>
      <trkpt lat="-37.82428" lon="144.98767"/>
      <trkpt lat="-37.82428" lon="144.98776"/>
      <trkpt lat="-37.82428" lon="144.98785"/>
      <trkpt lat="-37.82428" lon="144.98798"/>
      <trkpt lat="-37.82429" lon="144.98809"/>
      <trkpt lat="-37.8243" lon="144.98821"/>
      <trkpt lat="-37.82431" lon="144.98828"/>
      <trkpt lat="-37.82432" lon="144.98842"/>
      <trkpt lat="-37.82433" lon="144.98848"/>
      <trkpt lat="-37.82433" lon="144.98851"/>
      <trkpt lat="-37.82433" lon="144.98855"/>
      <trkpt lat="-37.82433" lon="144.98858"/>
      <trkpt lat="-37.82432" lon="144.98861"/>
      <trkpt lat="-37.82431" lon="144.98863"/>
      <trkpt lat="-37.8243" lon="144.98866"/>
      <trkpt lat="-37.82425" lon="144.98877"/>
      <trkpt lat="-37.82402" lon="144.98881"/>
      <trkpt lat="-37.82348" lon="144.98892"/>
      <trkpt lat="-37.82339" lon="144.98893"/>
      <trkpt lat="-37.82333" lon="144.98894"/>
      <trkpt lat="-37.82323" lon="144.98887"/>
      <trkpt lat="-37.82321" lon="144.98885"/>
      <trkpt lat="-37.82319" lon="144.98884"/>
      <trkpt lat="-37.82317" lon="144.98882"/>
      <trkpt lat="-37.82315" lon="144.9888"/>
      <trkpt lat="-37.82314" lon="144.98878"/>
      <trkpt lat="-37.82313" lon="144.98875"/>
      <trkpt lat="-37.82311" lon="144.98867"/>
      <trkpt lat="-37.82303" lon="144.98847"/>
      <trkpt lat="-37.82302" lon="144.98839"/>
      <trkpt lat="-37.82298" lon="144.98807"/>
      <trkpt lat="-37.82295" lon="144.98781"/>
      <trkpt lat="-37.82294" lon="144.98772"/>
      <trkpt lat="-37.82293" lon="144.98762"/>
      <trkpt lat="-37.8229" lon="144.9874"/>
      <trkpt lat="-37.82289" lon="144.9873"/>
      <trkpt lat="-37.82288" lon="144.98722"/>
      <trkpt lat="-37.82286" lon="144.98711"/>
      <trkpt lat="-37.82285" lon="144.98703"/>
      <trkpt lat="-37.8228" lon="144.98685"/>
      <trkpt lat="-37.82275" lon="144.98666"/>
      <trkpt lat="-37.82262" lon="144.98626"/>
      <trkpt lat="-37.8225" lon="144.98588"/>
      <trkpt lat="-37.82233" lon="144.98544"/>
      <trkpt lat="-37.82189" lon="144.98439"/>
      <trkpt lat="-37.82176" lon="144.98406"/>
      <trkpt lat="-37.82165" lon="144.98385"/>
      <trkpt lat="-37.82137" lon="144.98331"/>
      <trkpt lat="-37.82131" lon="144.98319"/>
      <trkpt lat="-37.82127" lon="144.98314"/>
      <trkpt lat="-37.82096" lon="144.98259"/>
      <trkpt lat="-37.82084" lon="144.98239"/>
    </trkseg>
  </trk>
</gpx>