<?xml version="1.0" encoding="UTF-8"?>
<gpx version="1.1" creator="CheerRunners Live" xmlns="http://www.topografix.com/GPX/1/1">
  <metadata><name>Pakenham Lakeside 10k</name></metadata>
  <trk>
    <name>Pakenham Lakeside 10k</name>
    <trkseg>
      <trkpt lat="-38.07115" lon="145.48444"/>
      <trkpt lat="-38.0715" lon="145.48436"/>
      <trkpt lat="-38.07156" lon="145.48435"/>
      <trkpt lat="-38.07164" lon="145.48545"/>
      <trkpt lat="-38.07168" lon="145.48608"/>
      <trkpt lat="-38.07172" lon="145.48662"/>
      <trkpt lat="-38.07178" lon="145.48754"/>
      <trkpt lat="-38.07196" lon="145.48751"/>
      <trkpt lat="-38.0721" lon="145.48749"/>
      <trkpt lat="-38.07202" lon="145.48644"/>
      <trkpt lat="-38.07222" lon="145.48642"/>
      <trkpt lat="-38.07228" lon="145.48642"/>
      <trkpt lat="-38.07326" lon="145.48631"/>
      <trkpt lat="-38.07326" lon="145.48647"/>
      <trkpt lat="-38.07332" lon="145.48739"/>
      <trkpt lat="-38.07326" lon="145.48647"/>
      <trkpt lat="-38.07326" lon="145.48631"/>
      <trkpt lat="-38.07228" lon="145.48642"/>
      <trkpt lat="-38.07222" lon="145.48642"/>
      <trkpt lat="-38.07202" lon="145.48644"/>
      <trkpt lat="-38.07192" lon="145.48508"/>
      <trkpt lat="-38.07178" lon="145.48509"/>
      <trkpt lat="-38.07188" lon="145.48636"/>
      <trkpt lat="-38.07196" lon="145.48751"/>
      <trkpt lat="-38.07199" lon="145.48795"/>
      <trkpt lat="-38.072" lon="145.48834"/>
      <trkpt lat="-38.072" lon="145.48862"/>
      <trkpt lat="-38.07199" lon="145.4888"/>
      <trkpt lat="-38.07199" lon="145.48892"/>
      <trkpt lat="-38.07196" lon="145.48919"/>
      <trkpt lat="-38.07194" lon="145.48942"/>
      <trkpt lat="-38.07191" lon="145.48968"/>
      <trkpt lat="-38.07186" lon="145.48992"/>
      <trkpt lat="-38.0718" lon="145.4902"/>
      <trkpt lat="-38.07173" lon="145.49047"/>
      <trkpt lat="-38.07164" lon="145.4908"/>
      <trkpt lat="-38.07158" lon="145.49096"/>
      <trkpt lat="-38.0715" lon="145.49118"/>
      <trkpt lat="-38.07141" lon="145.4914"/>
      <trkpt lat="-38.0713" lon="145.49165"/>
      <trkpt lat="-38.07118" lon="145.49188"/>
      <trkpt lat="-38.071" lon="145.49221"/>
      <trkpt lat="-38.07077" lon="145.49261"/>
      <trkpt lat="-38.07075" lon="145.49264"/>
      <trkpt lat="-38.07073" lon="145.49267"/>
      <trkpt lat="-38.07068" lon="145.49275"/>
      <trkpt lat="-38.07077" lon="145.49285"/>
      <trkpt lat="-38.07083" lon="145.49293"/>
      <trkpt lat="-38.07115" lon="145.49329"/>
      <trkpt lat="-38.07135" lon="145.49357"/>
      <trkpt lat="-38.07149" lon="145.49376"/>
      <trkpt lat="-38.0716" lon="145.4939"/>
      <trkpt lat="-38.07169" lon="145.494"/>
      <trkpt lat="-38.07178" lon="145.49409"/>
      <trkpt lat="-38.07188" lon="145.49416"/>
      <trkpt lat="-38.07203" lon="145.49425"/>
      <trkpt lat="-38.07216" lon="145.49431"/>
      <trkpt lat="-38.0723" lon="145.49436"/>
      <trkpt lat="-38.07244" lon="145.49438"/>
      <trkpt lat="-38.07256" lon="145.49438"/>
      <trkpt lat="-38.07266" lon="145.49438"/>
      <trkpt lat="-38.07277" lon="145.49437"/>
      <trkpt lat="-38.0729" lon="145.49435"/>
      <trkpt lat="-38.07318" lon="145.4943"/>
      <trkpt lat="-38.0735" lon="145.49423"/>
      <trkpt lat="-38.07474" lon="145.49396"/>
      <trkpt lat="-38.07537" lon="145.49383"/>
      <trkpt lat="-38.07601" lon="145.49368"/>
      <trkpt lat="-38.07599" lon="145.49358"/>
      <trkpt lat="-38.07596" lon="145.49336"/>
      <trkpt lat="-38.07596" lon="145.49323"/>
      <trkpt lat="-38.07592" lon="145.49288"/>
      <trkpt lat="-38.07589" lon="145.49273"/>
      <trkpt lat="-38.07584" lon="145.49233"/>
      <trkpt lat="-38.07583" lon="145.49223"/>
      <trkpt lat="-38.07582" lon="145.49213"/>
      <trkpt lat="-38.07581" lon="145.49207"/>
      <trkpt lat="-38.07582" lon="145.49213"/>
      <trkpt lat="-38.07583" lon="145.49223"/>
      <trkpt lat="-38.07584" lon="145.49233"/>
      <trkpt lat="-38.07589" lon="145.49273"/>
      <trkpt lat="-38.07592" lon="145.49288"/>
      <trkpt lat="-38.07596" lon="145.49323"/>
      <trkpt lat="-38.07596" lon="145.49336"/>
      <trkpt lat="-38.07599" lon="145.49358"/>
      <trkpt lat="-38.07601" lon="145.49368"/>
      <trkpt lat="-38.07698" lon="145.49347"/>
      <trkpt lat="-38.07735" lon="145.49339"/>
      <trkpt lat="-38.07755" lon="145.49335"/>
      <trkpt lat="-38.07794" lon="145.4933"/>
      <trkpt lat="-38.07796" lon="145.49329"/>
      <trkpt lat="-38.07825" lon="145.49325"/>
      <trkpt lat="-38.07934" lon="145.49306"/>
      <trkpt lat="-38.07943" lon="145.49304"/>
      <trkpt lat="-38.07945" lon="145.49317"/>
      <trkpt lat="-38.07946" lon="145.4933"/>
      <trkpt lat="-38.07948" lon="145.49346"/>
      <trkpt lat="-38.07949" lon="145.4935"/>
      <trkpt lat="-38.0795" lon="145.49355"/>
      <trkpt lat="-38.07951" lon="145.49358"/>
      <trkpt lat="-38.07952" lon="145.49361"/>
      <trkpt lat="-38.07955" lon="145.4937"/>
      <trkpt lat="-38.07976" lon="145.49425"/>
      <trkpt lat="-38.07982" lon="145.49444"/>
      <trkpt lat="-38.07984" lon="145.49448"/>
      <trkpt lat="-38.07992" lon="145.49469"/>
      <trkpt lat="-38.07999" lon="145.49485"/>
      <trkpt lat="-38.08006" lon="145.495"/>
      <trkpt lat="-38.08013" lon="145.49515"/>
      <trkpt lat="-38.08018" lon="145.49529"/>
      <trkpt lat="-38.08021" lon="145.49537"/>
      <trkpt lat="-38.08018" lon="145.49529"/>
      <trkpt lat="-38.08013" lon="145.49515"/>
      <trkpt lat="-38.08006" lon="145.495"/>
      <trkpt lat="-38.07999" lon="145.49485"/>
      <trkpt lat="-38.07992" lon="145.49469"/>
      <trkpt lat="-38.07984" lon="145.49448"/>
      <trkpt lat="-38.07982" lon="145.49444"/>
      <trkpt lat="-38.07976" lon="145.49425"/>
      <trkpt lat="-38.07964" lon="145.49379"/>
      <trkpt lat="-38.07961" lon="145.49365"/>
      <trkpt lat="-38.07959" lon="145.49352"/>
      <trkpt lat="-38.07958" lon="145.49348"/>
      <trkpt lat="-38.07956" lon="145.49337"/>
      <trkpt lat="-38.07956" lon="145.49335"/>
      <trkpt lat="-38.07956" lon="145.49332"/>
      <trkpt lat="-38.07957" lon="145.49329"/>
      <trkpt lat="-38.07957" lon="145.49325"/>
      <trkpt lat="-38.07958" lon="145.49322"/>
      <trkpt lat="-38.07958" lon="145.49319"/>
      <trkpt lat="-38.07959" lon="145.49317"/>
      <trkpt lat="-38.07959" lon="145.49313"/>
      <trkpt lat="-38.0796" lon="145.49311"/>
      <trkpt lat="-38.07963" lon="145.49304"/>
      <trkpt lat="-38.07966" lon="145.49299"/>
      <trkpt lat="-38.07981" lon="145.49296"/>
      <trkpt lat="-38.08007" lon="145.49289"/>
      <trkpt lat="-38.08011" lon="145.49287"/>
      <trkpt lat="-38.08055" lon="145.49277"/>
      <trkpt lat="-38.08133" lon="145.49259"/>
      <trkpt lat="-38.0814" lon="145.49257"/>
      <trkpt lat="-38.08226" lon="145.49238"/>
      <trkpt lat="-38.08367" lon="145.49205"/>
      <trkpt lat="-38.08373" lon="145.49204"/>
      <trkpt lat="-38.08382" lon="145.49202"/>
      <trkpt lat="-38.0839" lon="145.49224"/>
      <trkpt lat="-38.08396" lon="145.49238"/>
      <trkpt lat="-38.08405" lon="145.4926"/>
      <trkpt lat="-38.08414" lon="145.49281"/>
      <trkpt lat="-38.08422" lon="145.49298"/>
      <trkpt lat="-38.08429" lon="145.49311"/>
      <trkpt lat="-38.08429" lon="145.49309"/>
      <trkpt lat="-38.08425" lon="145.49293"/>
      <trkpt lat="-38.08421" lon="145.49279"/>
      <trkpt lat="-38.08418" lon="145.4927"/>
      <trkpt lat="-38.08415" lon="145.49258"/>
      <trkpt lat="-38.08412" lon="145.49251"/>
      <trkpt lat="-38.08405" lon="145.49232"/>
      <trkpt lat="-38.08401" lon="145.49219"/>
      <trkpt lat="-38.08394" lon="145.492"/>
      <trkpt lat="-38.0839" lon="145.49191"/>
      <trkpt lat="-38.08389" lon="145.49188"/>
      <trkpt lat="-38.08384" lon="145.49178"/>
      <trkpt lat="-38.08373" lon="145.4918"/>
      <trkpt lat="-38.08327" lon="145.49192"/>
      <trkpt lat="-38.08291" lon="145.49201"/>
      <trkpt lat="-38.08223" lon="145.49218"/>
      <trkpt lat="-38.082" lon="145.49224"/>
      <trkpt lat="-38.08167" lon="145.49234"/>
      <trkpt lat="-38.0816" lon="145.49236"/>
      <trkpt lat="-38.08138" lon="145.49242"/>
      <trkpt lat="-38.08099" lon="145.49253"/>
      <trkpt lat="-38.08005" lon="145.49278"/>
      <trkpt lat="-38.07974" lon="145.49279"/>
      <trkpt lat="-38.0797" lon="145.49279"/>
      <trkpt lat="-38.07967" lon="145.49278"/>
      <trkpt lat="-38.07962" lon="145.49277"/>
      <trkpt lat="-38.07956" lon="145.49275"/>
      <trkpt lat="-38.07953" lon="145.49274"/>
      <trkpt lat="-38.07952" lon="145.49273"/>
      <trkpt lat="-38.0795" lon="145.49272"/>
      <trkpt lat="-38.07948" lon="145.4927"/>
      <trkpt lat="-38.07946" lon="145.49268"/>
      <trkpt lat="-38.07945" lon="145.49266"/>
      <trkpt lat="-38.07943" lon="145.49257"/>
      <trkpt lat="-38.07937" lon="145.49235"/>
      <trkpt lat="-38.0793" lon="145.49205"/>
      <trkpt lat="-38.07928" lon="145.492"/>
      <trkpt lat="-38.07918" lon="145.49165"/>
      <trkpt lat="-38.07916" lon="145.49154"/>
      <trkpt lat="-38.07913" lon="145.49143"/>
      <trkpt lat="-38.07899" lon="145.49083"/>
      <trkpt lat="-38.07896" lon="145.49071"/>
      <trkpt lat="-38.07879" lon="145.48999"/>
      <trkpt lat="-38.07866" lon="145.48946"/>
      <trkpt lat="-38.07864" lon="145.48939"/>
      <trkpt lat="-38.07861" lon="145.48927"/>
      <trkpt lat="-38.07865" lon="145.48926"/>
      <trkpt lat="-38.07876" lon="145.48921"/>
      <trkpt lat="-38.07892" lon="145.48914"/>
      <trkpt lat="-38.07906" lon="145.48908"/>
      <trkpt lat="-38.07915" lon="145.48903"/>
      <trkpt lat="-38.07966" lon="145.4889"/>
      <trkpt lat="-38.07964" lon="145.48878"/>
      <trkpt lat="-38.07957" lon="145.48844"/>
      <trkpt lat="-38.07945" lon="145.48776"/>
      <trkpt lat="-38.07942" lon="145.48777"/>
      <trkpt lat="-38.07935" lon="145.48779"/>
      <trkpt lat="-38.07926" lon="145.48782"/>
      <trkpt lat="-38.07913" lon="145.48786"/>
      <trkpt lat="-38.07912" lon="145.4878"/>
      <trkpt lat="-38.07911" lon="145.48776"/>
      <trkpt lat="-38.07898" lon="145.48708"/>
      <trkpt lat="-38.07901" lon="145.48707"/>
      <trkpt lat="-38.07948" lon="145.48692"/>
      <trkpt lat="-38.07957" lon="145.48735"/>
      <trkpt lat="-38.07955" lon="145.48744"/>
      <trkpt lat="-38.07959" lon="145.48765"/>
      <trkpt lat="-38.0796" lon="145.48771"/>
      <trkpt lat="-38.07978" lon="145.48765"/>
      <trkpt lat="-38.07988" lon="145.48765"/>
      <trkpt lat="-38.07988" lon="145.48747"/>
      <trkpt lat="-38.07988" lon="145.48738"/>
      <trkpt lat="-38.07987" lon="145.48729"/>
      <trkpt lat="-38.07985" lon="145.48716"/>
      <trkpt lat="-38.07982" lon="145.48703"/>
      <trkpt lat="-38.0798" lon="145.4869"/>
      <trkpt lat="-38.07977" lon="145.48677"/>
      <trkpt lat="-38.07974" lon="145.48666"/>
      <trkpt lat="-38.0797" lon="145.48652"/>
      <trkpt lat="-38.07968" lon="145.4864"/>
      <trkpt lat="-38.07963" lon="145.48638"/>
      <trkpt lat="-38.0796" lon="145.48639"/>
      <trkpt lat="-38.07956" lon="145.48641"/>
      <trkpt lat="-38.07952" lon="145.48643"/>
      <trkpt lat="-38.07949" lon="145.48646"/>
      <trkpt lat="-38.07863" lon="145.48672"/>
      <trkpt lat="-38.07822" lon="145.48685"/>
      <trkpt lat="-38.07813" lon="145.48687"/>
      <trkpt lat="-38.07805" lon="145.4869"/>
      <trkpt lat="-38.07803" lon="145.48677"/>
      <trkpt lat="-38.07797" lon="145.48648"/>
      <trkpt lat="-38.07795" lon="145.48638"/>
      <trkpt lat="-38.07784" lon="145.48578"/>
      <trkpt lat="-38.0778" lon="145.48558"/>
      <trkpt lat="-38.07778" lon="145.4855"/>
      <trkpt lat="-38.07775" lon="145.48531"/>
      <trkpt lat="-38.07774" lon="145.48526"/>
      <trkpt lat="-38.07773" lon="145.48523"/>
      <trkpt lat="-38.07772" lon="145.48519"/>
      <trkpt lat="-38.0777" lon="145.48517"/>
      <trkpt lat="-38.07769" lon="145.48514"/>
      <trkpt lat="-38.07766" lon="145.48509"/>
      <trkpt lat="-38.07761" lon="145.48504"/>
      <trkpt lat="-38.07755" lon="145.48496"/>
      <trkpt lat="-38.07658" lon="145.48394"/>
      <trkpt lat="-38.07652" lon="145.48382"/>
      <trkpt lat="-38.07651" lon="145.4838"/>
      <trkpt lat="-38.07648" lon="145.48373"/>
      <trkpt lat="-38.07648" lon="145.48371"/>
      <trkpt lat="-38.07648" lon="145.48369"/>
      <trkpt lat="-38.07647" lon="145.48368"/>
      <trkpt lat="-38.07646" lon="145.48366"/>
      <trkpt lat="-38.07646" lon="145.48365"/>
      <trkpt lat="-38.07644" lon="145.48364"/>
      <trkpt lat="-38.07643" lon="145.48363"/>
      <trkpt lat="-38.07642" lon="145.48362"/>
      <trkpt lat="-38.07641" lon="145.48362"/>
      <trkpt lat="-38.0764" lon="145.48362"/>
      <trkpt lat="-38.07633" lon="145.4836"/>
      <trkpt lat="-38.07631" lon="145.48359"/>
      <trkpt lat="-38.07627" lon="145.48357"/>
      <trkpt lat="-38.07624" lon="145.48355"/>
      <trkpt lat="-38.07617" lon="145.4835"/>
      <trkpt lat="-38.07614" lon="145.48348"/>
      <trkpt lat="-38.07567" lon="145.48299"/>
      <trkpt lat="-38.07529" lon="145.48259"/>
      <trkpt lat="-38.07505" lon="145.48233"/>
      <trkpt lat="-38.07476" lon="145.48203"/>
      <trkpt lat="-38.07446" lon="145.48171"/>
      <trkpt lat="-38.07432" lon="145.48157"/>
      <trkpt lat="-38.07415" lon="145.48139"/>
      <trkpt lat="-38.07411" lon="145.48145"/>
      <trkpt lat="-38.07406" lon="145.48153"/>
      <trkpt lat="-38.07404" lon="145.48156"/>
      <trkpt lat="-38.07393" lon="145.48172"/>
      <trkpt lat="-38.07408" lon="145.48188"/>
      <trkpt lat="-38.07393" lon="145.48172"/>
      <trkpt lat="-38.07404" lon="145.48156"/>
      <trkpt lat="-38.07406" lon="145.48153"/>
      <trkpt lat="-38.07411" lon="145.48145"/>
      <trkpt lat="-38.07415" lon="145.48139"/>
      <trkpt lat="-38.07405" lon="145.48128"/>
      <trkpt lat="-38.07396" lon="145.48119"/>
      <trkpt lat="-38.07388" lon="145.48112"/>
      <trkpt lat="-38.07383" lon="145.48108"/>
      <trkpt lat="-38.07377" lon="145.48104"/>
      <trkpt lat="-38.0737" lon="145.48101"/>
      <trkpt lat="-38.07363" lon="145.48099"/>
      <trkpt lat="-38.07356" lon="145.48098"/>
      <trkpt lat="-38.07346" lon="145.48098"/>
      <trkpt lat="-38.07328" lon="145.481"/>
      <trkpt lat="-38.0731" lon="145.48102"/>
      <trkpt lat="-38.0731" lon="145.48107"/>
      <trkpt lat="-38.07311" lon="145.48112"/>
      <trkpt lat="-38.07331" lon="145.48404"/>
      <trkpt lat="-38.07337" lon="145.48491"/>
      <trkpt lat="-38.0732" lon="145.48494"/>
      <trkpt lat="-38.07221" lon="145.48505"/>
      <trkpt lat="-38.07212" lon="145.48506"/>
      <trkpt lat="-38.07192" lon="145.48508"/>
      <trkpt lat="-38.07178" lon="145.48509"/>
      <trkpt lat="-38.07188" lon="145.48636"/>
      <trkpt lat="-38.07196" lon="145.48751"/>
      <trkpt lat="-38.07178" lon="145.48754"/>
      <trkpt lat="-38.07172" lon="145.48662"/>
      <trkpt lat="-38.07168" lon="145.48608"/>
      <trkpt lat="-38.07164" lon="145.48545"/>
      <trkpt lat="-38.07156" lon="145.48435"/>
      <trkpt lat="-38.0715" lon="145.48436"/>
      <trkpt lat="-38.07115" lon="145.48444"/>
    </trkseg>
  </trk>
</gpx>